STATION,DATE,REPORT_TYPE,SOURCE,AWND,BackupDirection,BackupDistance,BackupDistanceUnit,BackupElements,BackupElevation,BackupElevationUnit,BackupEquipment,BackupLatitude,BackupLongitude,BackupName,CDSD,CLDD,DSNW,DailyAverageDewPointTemperature,DailyAverageDryBulbTemperature,DailyAverageRelativeHumidity,DailyAverageSeaLevelPressure,DailyAverageStationPressure,DailyAverageWetBulbTemperature,DailyAverageWindSpeed,DailyCoolingDegreeDays,DailyDepartureFromNormalAverageTemperature,DailyHeatingDegreeDays,DailyMaximumDryBulbTemperature,DailyMinimumDryBulbTemperature,DailyPeakWindDirection,DailyPeakWindSpeed,DailyPrecipitation,DailySnowDepth,DailySnowfall,DailySustainedWindDirection,DailySustainedWindSpeed,DailyWeather,HDSD,HTDD,HeavyFog,HourlyAltimeterSetting,HourlyDewPointTemperature,HourlyDryBulbTemperature,HourlyPrecipitation,HourlyPresentWeatherType,HourlyPressureChange,HourlyPressureTendency,HourlyRelativeHumidity,HourlySeaLevelPressure,HourlySkyConditions,HourlyStationPressure,HourlyVisibility,HourlyWetBulbTemperature,HourlyWindDirection,HourlyWindGustSpeed,HourlyWindSpeed,MonthlyAverageRH,MonthlyDaysWithGT001Precip,MonthlyDaysWithGT010Precip,MonthlyDaysWithGT32Temp,MonthlyDaysWithGT90Temp,MonthlyDaysWithLT0Temp,MonthlyDaysWithLT32Temp,MonthlyDepartureFromNormalAverageTemperature,MonthlyDepartureFromNormalCoolingDegreeDays,MonthlyDepartureFromNormalHeatingDegreeDays,MonthlyDepartureFromNormalMaximumTemperature,MonthlyDepartureFromNormalMinimumTemperature,MonthlyDepartureFromNormalPrecipitation,MonthlyDewpointTemperature,MonthlyGreatestPrecip,MonthlyGreatestPrecipDate,MonthlyGreatestSnowDepth,MonthlyGreatestSnowDepthDate,MonthlyGreatestSnowfall,MonthlyGreatestSnowfallDate,MonthlyMaxSeaLevelPressureValue,MonthlyMaxSeaLevelPressureValueDate,MonthlyMaxSeaLevelPressureValueTime,MonthlyMaximumTemperature,MonthlyMeanTemperature,MonthlyMinSeaLevelPressureValue,MonthlyMinSeaLevelPressureValueDate,MonthlyMinSeaLevelPressureValueTime,MonthlyMinimumTemperature,MonthlySeaLevelPressure,MonthlyStationPressure,MonthlyTotalLiquidPrecipitation,MonthlyTotalSnowfall,MonthlyWetBulb,NormalsCoolingDegreeDay,NormalsHeatingDegreeDay,REM,REPORT_TYPE,SOURCE,ShortDurationEndDate005,ShortDurationEndDate010,ShortDurationEndDate015,ShortDurationEndDate020,ShortDurationEndDate030,ShortDurationEndDate045,ShortDurationEndDate060,ShortDurationEndDate080,ShortDurationEndDate100,ShortDurationEndDate120,ShortDurationEndDate150,ShortDurationEndDate180,ShortDurationPrecipitationValue005,ShortDurationPrecipitationValue010,ShortDurationPrecipitationValue015,ShortDurationPrecipitationValue020,ShortDurationPrecipitationValue030,ShortDurationPrecipitationValue045,ShortDurationPrecipitationValue060,ShortDurationPrecipitationValue080,ShortDurationPrecipitationValue100,ShortDurationPrecipitationValue120,ShortDurationPrecipitationValue150,ShortDurationPrecipitationValue180,Sunrise,Sunset,TStorms,WindEquipmentChangeDate
72222313899,2019-11-11T00:53:00,FM-15,7,,,,,,,,,,,,,,,,,,,,,,,,,,,,,,,,,,,,,,30.13,52,56,0,,,,87,30.13,FEW:02 31,30,10,54,50,,5,,,,,,,,,,,,,,,,,,,,,,,,,,,,,,,,,,,,,MET09311/11/19 00:53:02 METAR KPNS 110653Z 05004KT 10SM FEW031 13/11 A3013 RMK AO2 SLP203 T01330111,FM-15,7,,,,,,,,,,,,,,,,,,,,,,,,,,,,
72222313899,2019-11-11T01:53:00,FM-15,7,,,,,,,,,,,,,,,,,,,,,,,,,,,,,,,,,,,,,,30.09,50,55,0,,,,83,30.1,CLR:00,29.96,10,52,60,,6,,,,,,,,,,,,,,,,,,,,,,,,,,,,,,,,,,,,,MET09011/11/19 01:53:02 METAR KPNS 110753Z 06005KT 10SM CLR 13/10 A3009 RMK AO2 SLP193 T01280100,FM-15,7,,,,,,,,,,,,,,,,,,,,,,,,,,,,
72222313899,2019-11-11T02:53:00,FM-15,7,,,,,,,,,,,,,,,,,,,,,,,,,,,,,,,,,,,,,,30.08,49,55,0,,0.04,8,80,30.09,CLR:00,29.95,10,52,50,,6,,,,,,,,,,,,,,,,,,,,,,,,,,,,,,,,,,,,,MET09611/11/19 02:53:02 METAR KPNS 110853Z 05005KT 10SM CLR 13/09 A3008 RMK AO2 SLP189 T01280094 58013,FM-15,7,,,,,,,,,,,,,,,,,,,,,,,,,,,,
72222313899,2019-11-11T03:53:00,FM-15,7,,,,,,,,,,,,,,,,,,,,,,,,,,,,,,,,,,,,,,30.09,49,53,0,,,,86,30.09,CLR:00,29.96,10,51,40,,6,,,,,,,,,,,,,,,,,,,,,,,,,,,,,,,,,,,,,MET09011/11/19 03:53:02 METAR KPNS 110953Z 04005KT 10SM CLR 12/09 A3009 RMK AO2 SLP191 T01170094,FM-15,7,,,,,,,,,,,,,,,,,,,,,,,,,,,,
72222313899,2019-11-11T04:53:00,FM-15,7,,,,,,,,,,,,,,,,,,,,,,,,,,,,,,,,,,,,,,30.09,47,54,0,,,,77,30.09,FEW:02 36,29.96,10,50,VRB,,3,,,,,,,,,,,,,,,,,,,,,,,,,,,,,,,,,,,,,MET09311/11/19 04:53:02 METAR KPNS 111053Z VRB03KT 10SM FEW036 12/08 A3009 RMK AO2 SLP191 T01220083,FM-15,7,,,,,,,,,,,,,,,,,,,,,,,,,,,,
72222313899,2019-11-11T05:53:00,FM-15,7,,,,,,,,,,,,,,,,,,,,,,,,,,,,,,,,,,,,,,30.1,50,55,0,,-0.01,1,83,30.1,CLR:00,29.97,10,52,40,,5,,,,,,,,,,,,,,,,,,,,,,,,,,,,,,,,,,,,,MET11311/11/19 05:53:02 METAR KPNS 111153Z 04004KT 10SM CLR 13/10 A3010 RMK AO2 SLP193 T01280100 10133 20117 51004 (AB),FM-15,7,,,,,,,,,,,,,,,,,,,,,,,,,,,,
72222313899,2019-11-11T06:53:00,FM-15,7,,,,,,,,,,,,,,,,,,,,,,,,,,,,,,,,,,,,,,30.11,52,57,0,,,,83,30.12,OVC:08 38,29.98,10,54,60,,7,,,,,,,,,,,,,,,,,,,,,,,,,,,,,,,,,,,,,MET09811/11/19 06:53:02 METAR KPNS 111253Z 06006KT 10SM OVC038 14/11 A3011 RMK AO2 SLP199 T01390111 (AB),FM-15,7,,,,,,,,,,,,,,,,,,,,,,,,,,,,
72222313899,2019-11-11T07:53:00,FM-15,7,,,,,,,,,,,,,,,,,,,,,,,,,,,,,,,,,,,,,,30.12,56,60,0,,,,86,30.13,CLR:00,29.99,10,58,80,,7,,,,,,,,,,,,,,,,,,,,,,,,,,,,,,,,,,,,,MET09511/11/19 07:53:02 METAR KPNS 111353Z 08006KT 10SM CLR 16/13 A3012 RMK AO2 SLP203 T01560133 (AB),FM-15,7,,,,,,,,,,,,,,,,,,,,,,,,,,,,
72222313899,2019-11-11T08:53:00,FM-15,7,,,,,,,,,,,,,,,,,,,,,,,,,,,,,,,,,,,,,,30.13,60,67,0,,-0.03,1,79,30.13,FEW:02 55,30,10,63,100,,7,,,,,,,,,,,,,,,,,,,,,,,,,,,,,,,,,,,,,MET10411/11/19 08:53:02 METAR KPNS 111453Z 10006KT 10SM FEW055 19/16 A3013 RMK AO2 SLP204 T01940156 51011 (AB),FM-15,7,,,,,,,,,,,,,,,,,,,,,,,,,,,,
72222313899,2019-11-11T09:53:00,FM-15,7,,,,,,,,,,,,,,,,,,,,,,,,,,,,,,,,,,,,,,30.12,64,71,0,,,,79,30.12,CLR:00,29.99,10,67,120,,13,,,,,,,,,,,,,,,,,,,,,,,,,,,,,,,,,,,,,MET09511/11/19 09:53:02 METAR KPNS 111553Z 12011KT 10SM CLR 22/18 A3012 RMK AO2 SLP200 T02170178 (AB),FM-15,7,,,,,,,,,,,,,,,,,,,,,,,,,,,,
72222313899,2019-11-11T10:53:00,FM-15,7,,,,,,,,,,,,,,,,,,,,,,,,,,,,,,,,,,,,,,30.1,64,73,0,,,,74,30.1,CLR:00,29.97,10,67,120,,11,,,,,,,,,,,,,,,,,,,,,,,,,,,,,,,,,,,,,MET09511/11/19 10:53:02 METAR KPNS 111653Z 12010KT 10SM CLR 23/18 A3010 RMK AO2 SLP194 T02280178 (AB),FM-15,7,,,,,,,,,,,,,,,,,,,,,,,,,,,,
72222313899,2019-11-11T11:53:00,FM-15,7,,,,,,,,,,,,,,,,,,,,,,,,,,,,,,,,,,,,,,30.08,63,74,0,,0.05,8,69,30.08,SCT:04 60,29.95,10,67,130,,14,,,,,,,,,,,,,,,,,,,,,,,,,,,,,,,,,,,,,MET11611/11/19 11:53:02 METAR KPNS 111753Z 13012KT 10SM SCT060 23/17 A3008 RMK AO2 SLP187 T02330172 10239 20111 58017 (AB),FM-15,7,,,,,,,,,,,,,,,,,,,,,,,,,,,,
72222313899,2019-11-11T12:53:00,FM-15,7,,,,,,,,,,,,,,,,,,,,,,,,,,,,,,,,,,,,,,30.06,64,75,0,,,,69,30.06,FEW:02 70,29.93,10,68,130,,11,,,,,,,,,,,,,,,,,,,,,,,,,,,,,,,,,,,,,MET09811/11/19 12:53:02 METAR KPNS 111853Z 13010KT 10SM FEW070 24/18 A3006 RMK AO2 SLP181 T02390178 (AB),FM-15,7,,,,,,,,,,,,,,,,,,,,,,,,,,,,
72222313899,2019-11-11T13:53:00,FM-15,7,,,,,,,,,,,,,,,,,,,,,,,,,,,,,,,,,,,,,,30.03,66,75,0,,,,74,30.03,CLR:00,29.9,10,69,120,,13,,,,,,,,,,,,,,,,,,,,,,,,,,,,,,,,,,,,,MET09511/11/19 13:53:02 METAR KPNS 111953Z 12011KT 10SM CLR 24/19 A3003 RMK AO2 SLP169 T02390189 (AB),FM-15,7,,,,,,,,,,,,,,,,,,,,,,,,,,,,
72222313899,2019-11-11T14:53:00,FM-15,7,,,,,,,,,,,,,,,,,,,,,,,,,,,,,,,,,,,,,,30.03,67,74,0,,0.05,6,79,30.03,CLR:00,29.9,10,69,130,,10,,,,,,,,,,,,,,,,,,,,,,,,,,,,,,,,,,,,,MET10111/11/19 14:53:02 METAR KPNS 112053Z 13009KT 10SM CLR 23/19 A3003 RMK AO2 SLP169 T02330194 56017 (AB),FM-15,7,,,,,,,,,,,,,,,,,,,,,,,,,,,,
72222313899,2019-11-11T15:53:00,FM-15,7,,,,,,,,,,,,,,,,,,,,,,,,,,,,,,,,,,,,,,30.02,68,72,0,,,,87,30.03,CLR:00,29.89,10,69,120,,10,,,,,,,,,,,,,,,,,,,,,,,,,,,,,,,,,,,,,MET09511/11/19 15:53:02 METAR KPNS 112153Z 12009KT 10SM CLR 22/20 A3002 RMK AO2 SLP169 T02220200 (AB),FM-15,7,,,,,,,,,,,,,,,,,,,,,,,,,,,,
72222313899,2019-11-11T16:53:00,FM-15,7,,,,,,,,,,,,,,,,,,,,,,,,,,,,,,,,,,,,,,30.01,69,70,0,,,,97,30.02,BKN:07 70 BKN:07 85,29.88,10,69,110,,7,,,,,,,,,,,,,,,,,,,,,,,,,,,,,,,,,,,,,MET10511/11/19 16:53:02 METAR KPNS 112253Z 11006KT 10SM BKN070 BKN085 21/21 A3001 RMK AO2 SLP166 T02110206 (DD),FM-15,7,,,,,,,,,,,,,,,,,,,,,,,,,,,,
72222313899,2019-11-11T17:53:00,FM-15,7,,,,,,,,,,,,,,,,,,,,,,,,,,,,,,,,,,,,,,30.02,68,69,0,,0,5,96,30.03,FEW:02 80,29.89,10,68,100,,3,,,,,,,,,,,,,,,,,,,,,,,,,,,,,,,,,,,,,MET11611/11/19 17:53:02 METAR KPNS 112353Z 10003KT 10SM FEW080 21/20 A3002 RMK AO2 SLP169 T02060200 10244 20206 55001 (DD),FM-15,7,,,,,,,,,,,,,,,,,,,,,,,,,,,,
72222313899,2019-11-11T18:53:00,FM-15,7,,,,,,,,,,,,,,,,,,,,,,,,,,,,,,,,,,,,,,30.02,68,69,0,,,,96,30.03,SCT:04 47 SCT:04 60 BKN:07 75,29.89,10,68,140,,5,,,,,,,,,,,,,,,,,,,,,,,,,,,,,,,,,,,,,MET10711/11/19 18:53:01 METAR KPNS 120053Z 14004KT 10SM SCT047 SCT060 BKN075 21/20 A3002 RMK AO2 SLP168 T02060200,FM-15,7,,,,,,,,,,,,,,,,,,,,,,,,,,,,
72222313899,2019-11-11T19:53:00,FM-15,7,,,,,,,,,,,,,,,,,,,,,,,,,,,,,,,,,,,,,,30.02,67,67,0,,,,100,30.03,CLR:00,29.89,10,67,140,,5,,,,,,,,,,,,,,,,,,,,,,,,,,,,,,,,,,,,,MET09011/11/19 19:53:01 METAR KPNS 120153Z 14004KT 10SM CLR 19/19 A3002 RMK AO2 SLP169 T01940194,FM-15,7,,,,,,,,,,,,,,,,,,,,,,,,,,,,
72222313899,2019-11-11T20:53:00,FM-15,7,,,,,,,,,,,,,,,,,,,,,,,,,,,,,,,,,,,,,,30.02,69,69,0,,0.01,8,100,30.02,CLR:00,29.89,10,69,140,,7,,,,,,,,,,,,,,,,,,,,,,,,,,,,,,,,,,,,,MET09611/11/19 20:53:01 METAR KPNS 120253Z 14006KT 10SM CLR 21/21 A3002 RMK AO2 SLP167 T02060206 58002,FM-15,7,,,,,,,,,,,,,,,,,,,,,,,,,,,,
72222313899,2019-11-11T21:53:00,FM-15,7,,,,,,,,,,,,,,,,,,,,,,,,,,,,,,,,,,,,,,30,68,68,0,,,,100,30.01,CLR:00,29.87,10,68,160,,6,,,,,,,,,,,,,,,,,,,,,,,,,,,,,,,,,,,,,MET09011/11/19 21:53:01 METAR KPNS 120353Z 16005KT 10SM CLR 20/20 A3000 RMK AO2 SLP161 T02000200,FM-15,7,,,,,,,,,,,,,,,,,,,,,,,,,,,,
72222313899,2019-11-11T22:53:00,FM-15,7,,,,,,,,,,,,,,,,,,,,,,,,,,,,,,,,,,,,,,29.99,69,69,0,,,,100,30,CLR:00,29.86,10,69,170,,3,,,,,,,,,,,,,,,,,,,,,,,,,,,,,,,,,,,,,MET09011/11/19 22:53:02 METAR KPNS 120453Z 17003KT 10SM CLR 21/21 A2999 RMK AO2 SLP158 T02060206,FM-15,7,,,,,,,,,,,,,,,,,,,,,,,,,,,,
72222313899,2019-11-11T23:53:00,FM-15,7,,,,,,,,,,,,,,,,,,,,,,,,,,,,,,,,,,,,,,29.97,69,69,0,,0.05,8,100,29.98,OVC:08 65,29.84,10,69,150,,3,,,,,,,,,,,,,,,,,,,,,,,,,,,,,,,,,,,,,MET12111/11/19 23:53:02 METAR KPNS 120553Z 15003KT 10SM OVC065 21/21 A2997 RMK AO2 SLP151 T02060206 10206 20194 402440111 58017,FM-15,7,,,,,,,,,,,,,,,,,,,,,,,,,,,,
72222313899,2019-11-11T23:59:00,SOD  ,6,,,,,,,,,,,,,,,61,64,86,30.07,29.93,63,7.2,0,1.7,1,76,52,120,20,0,,,120,16,,,,,,,,,,,,,,,,,,,,,,,,,,,,,,,,,,,,,,,,,,,,,,,,,,,,,,,,,SOD74324 HR PRECIPITATION (IN): 0.00 SNOW DEPTH (IN):0     24 HR SNOWFALL (IN):0.0  24 HR MAX TEMP (F): 7624 HR MIN TEMP (F): 52AVERAGE STATION PRESSURE(D):29.932 MINIMUM SEA LEVEL PRESSURE:29.97 TIME OF OCCURRENCE:2359 PEAK WIND SPEED (MPH): 20 PEAK WIND DIR (DEG):120 PEAK WIND TIME (LST):      FASTEST 2MIN SPEED (MPH): 16FASTEST 2MIN DIR (DEG):120 FASTEST 2MIN TIME (LST):     AVERAGE WIND SPEED (MPH): 7.2 24 HR AVG TEMP (F): 64DEPART FROM NORMAL:  2  HEATING DEGREE DAYS:  1 COOLING DEGREE DAYS:  0 LATEST DAY MAX TEMP (0700-1900 LST): 76 LATEST NIGHT MIN TEMP(1900-0800 LST):51 HOURLY INCREMENTAL PRECIPITATION VALUES (IN):0.00 0.00 0.00 0.00 0.00 0.00 0.00 0.00 0.00 0.00 0.00 0.00 0.00 0.00 0.00 0.00 0.00 0.00 0.00 0.00 0.00 0.00 0.00 0.00,SOD  ,6,,,,,,,,,,,,,,,,,,,,,,,,,611,1654,,
72222313899,2019-11-12T00:53:00,FM-15,7,,,,,,,,,,,,,,,,,,,,,,,,,,,,,,,,,,,,,,29.95,67,67,0,,,,100,29.95,SCT:04 70,29.82,10,67,170,,6,,,,,,,,,,,,,,,,,,,,,,,,,,,,,,,,,,,,,MET09311/12/19 00:53:02 METAR KPNS 120653Z 17005KT 10SM SCT070 19/19 A2995 RMK AO2 SLP142 T01940194,FM-15,7,,,,,,,,,,,,,,,,,,,,,,,,,,,,
72222313899,2019-11-12T01:53:00,FM-15,7,,,,,,,,,,,,,,,,,,,,,,,,,,,,,,,,,,,,,,29.93,69,70,0,,,,97,29.93,BKN:07 55 OVC:08 80,29.8,10,69,200,,6,,,,,,,,,,,,,,,,,,,,,,,,,,,,,,,,,,,,,MET10011/12/19 01:53:02 METAR KPNS 120753Z 20005KT 10SM BKN055 OVC080 21/21 A2993 RMK AO2 SLP137 T02110206,FM-15,7,,,,,,,,,,,,,,,,,,,,,,,,,,,,
72222313899,2019-11-12T02:53:00,FM-15,7,,,,,,,,,,,,,,,,,,,,,,,,,,,,,,,,,,,,,,29.92,70,71,0.02s,-RA:02 |RA |RA,0.05,6,96,29.93,FEW:02 8 SCT:04 23 OVC:08 48,29.79,8,70,290,,9,,,,,,,,,,,,,,,,,,,,,,,,,,,,,,,,,,,,,MET13411/12/19 02:53:02 METAR KPNS 120853Z 29008KT 8SM -RA FEW008 SCT023 OVC048 22/21 A2992 RMK AO2 RAB51 SLP135 P0000 60000 T02170211 56016,FM-15,7,,,,,,,,,,,,,,,,,,,,,,,,,,,,
72222313899,2019-11-12T03:01:00,FM-16,7,,,,,,,,,,,,,,,,,,,,,,,,,,,,,,,,,,,,,,29.94,70,70,0.04,+RA:02 BR:1 |RA |RA,,,100,,SCT:04 8 BKN:07 18 OVC:08 48,29.81,2.50V,70,290,20,15,,,,,,,,,,,,,,,,,,,,,,,,,,,,,,,,,,,,,MET13111/12/19 03:01:02 SPECI KPNS 120901Z 29013G17KT 2 1/2SM +RA BR SCT008 BKN018 OVC048 21/21 A2994 RMK AO2 VIS 1 1/4V5 P0004 T02110211,FM-16,7,,,,,,,,,,,,,,,,,,,,,,,,,,,,
72222313899,2019-11-12T03:09:00,FM-16,7,,,,,,,,,,,,,,,,,,,,,,,,,,,,,,,,,,,,,,29.93,70,70,0.18,+RA:02 BR:1 |RA |RA,,,100,,SCT:04 8 BKN:07 20 OVC:08 35,29.8,1.75,70,280,24,14,,,,,,,,,,,,,,,,,,,,,,,,,,,,,,,,,,,,,MET13611/12/19 03:09:02 SPECI KPNS 120909Z 28012G21KT 1 3/4SM R17/4500VP6000FT +RA BR SCT008 BKN020 OVC035 21/21 A2993 RMK AO2 P0018 T02110211,FM-16,7,,,,,,,,,,,,,,,,,,,,,,,,,,,,
72222313899,2019-11-12T03:15:00,FM-16,7,,,,,,,,,,,,,,,,,,,,,,,,,,,,,,,,,,,,,,29.93,69,69,0.2,RA:02 BR:1 |RA |RA,,,100,,SCT:04 10 BKN:07 20 OVC:08 35,29.8,3,69,270,,10,,,,,,,,,,,,,,,,,,,,,,,,,,,,,,,,,,,,,MET11111/12/19 03:15:02 SPECI KPNS 120915Z 27009KT 3SM RA BR SCT010 BKN020 OVC035 21/21 A2993 RMK AO2 P0020 T02060206,FM-16,7,,,,,,,,,,,,,,,,,,,,,,,,,,,,
72222313899,2019-11-12T03:23:00,FM-16,7,,,,,,,,,,,,,,,,,,,,,,,,,,,,,,,,,,,,,,29.93,69,69,0.21,-RA:02 |RA |RA,,,100,,FEW:02 8 BKN:07 36 OVC:08 48,29.8,7,69,280,,9,,,,,,,,,,,,,,,,,,,,,,,,,,,,,,,,,,,,,MET10911/12/19 03:23:02 SPECI KPNS 120923Z 28008KT 7SM -RA FEW008 BKN036 OVC048 21/21 A2993 RMK AO2 P0021 T02060206,FM-16,7,,,,,,,,,,,,,,,,,,,,,,,,,,,,
72222313899,2019-11-12T03:49:00,FM-16,7,,,,,,,,,,,,,,,,,,,,,,,,,,,,,,,,,,,,,,29.93,70,70,0.22,,,,100,,BKN:07 9 OVC:08 50,29.8,10,70,270,,10,,,,,,,,,,,,,,,,,,,,,,,,,,,,,,,,,,,,,MET09511/12/19 03:49:02 SPECI KPNS 120949Z 27009KT 10SM BKN009 OVC050 21/21 A2993 RMK AO2 RAE26 P0022,FM-16,7,,,,,,,,,,,,,,,,,,,,,,,,,,,,
72222313899,2019-11-12T03:50:00,FM-15,7,,,,,,,,,,,,,,,,,,,,,,,,,,,,,,,,,,,,,,29.93,70,70,0.2,,,,100,29.94,BKN:07 9 OVC:08 50,29.8,10,70,280,,10,,,,,,,,,,,,,,,,,,,,,,,,,,,,,,,,,,,,,MET11211/12/19 03:50:02 METAR KPNS 120950Z 28009KT 10SM BKN009 OVC050 21/21 A2993 RMK AO2 RAE26 SLP138 P0022 T02110211,FM-15,7,,,,,,,,,,,,,,,,,,,,,,,,,,,,
72222313899,2019-11-12T04:20:00,FM-16,7,,,,,,,,,,,,,,,,,,,,,,,,,,,,,,,,,,,,,,29.98,61,61,T,-RA:02 |RA |RA,,,100,,BKN:07 7 OVC:08 12,29.85,10,61,340,29,21,,,,,,,,,,,,,,,,,,,,,,,,,,,,,,,,,,,,,MET15511/12/19 04:20:02 SPECI KPNS 121020Z 34018G25KT 10SM -RA BKN007 OVC012 16/16 A2998 RMK AO2 PK WND 32035/1004 WSHFT 1000 RAB0954 CIG 005V009 P0000 T01610161,FM-16,7,,,,,,,,,,,,,,,,,,,,,,,,,,,,
72222313899,2019-11-12T04:30:00,FM-16,7,,,,,,,,,,,,,,,,,,,,,,,,,,,,,,,,,,,,,,29.99,56,56,T,-RA:02 |RA |RA,,,100,,BKN:07 7 BKN:07 13 OVC:08 27,29.86,8,56,340,32,24,,,,,,,,,,,,,,,,,,,,,,,,,,,,,,,,,,,,,MET16111/12/19 04:30:02 SPECI KPNS 121030Z 34021G28KT 8SM -RA BKN007 BKN013 OVC027 13/13 A2999 RMK AO2 PK WND 32035/1004 WSHFT 1000 RAB0954 CIG 005V012 P0000 T01330133,FM-16,7,,,,,,,,,,,,,,,,,,,,,,,,,,,,
72222313899,2019-11-12T04:53:00,FM-15,7,,,,,,,,,,,,,,,,,,,,,,,,,,,,,,,,,,,,,,30.01,53,53,0.03,-RA:02 |RA |RA,,,100,30.01,BKN:07 8 OVC:08 28,29.88,7,53,340,33,23,,,,,,,,,,,,,,,,,,,,,,,,,,,,,,,,,,,,,MET16111/12/19 04:53:02 METAR KPNS 121053Z 34020G29KT 7SM -RA BKN008 OVC028 12/12 A3001 RMK AO2 PK WND 32035/1004 WSHFT 1000 RAB0954 CIG 006V011 SLP164 P0000 T01170117,FM-15,7,,,,,,,,,,,,,,,,,,,,,,,,,,,,
72222313899,2019-11-12T05:26:00,FM-16,7,,,,,,,,,,,,,,,,,,,,,,,,,,,,,,,,,,,,,,30.02,50,50,0.04,-RA:02 |RA |RA,,,100,,SCT:04 10 BKN:07 42 OVC:08 60,29.89,10,50,340,32,25,,,,,,,,,,,,,,,,,,,,,,,,,,,,,,,,,,,,,MET13611/12/19 05:26:02 SPECI KPNS 121126Z 34022G28KT 10SM -RA SCT010 BKN042 OVC060 10/10 A3002 RMK AO2 PK WND 34031/1056 P0004 T01000100 (LA),FM-16,7,,,,,,,,,,,,,,,,,,,,,,,,,,,,
72222313899,2019-11-12T05:33:00,FM-16,7,,,,,,,,,,,,,,,,,,,,,,,,,,,,,,,,,,,,,,30.03,49,50,0.04,-RA:02 |RA |RA,,,96,,BKN:07 8 BKN:07 44 OVC:08 60,29.9,10,49,350,32,22,,,,,,,,,,,,,,,,,,,,,,,,,,,,,,,,,,,,,MET13611/12/19 05:33:02 SPECI KPNS 121133Z 35019G28KT 10SM -RA BKN008 BKN044 OVC060 10/09 A3003 RMK AO2 PK WND 34031/1056 P0004 T01000094 (LA),FM-16,7,,,,,,,,,,,,,,,,,,,,,,,,,,,,
72222313899,2019-11-12T05:53:00,FM-15,7,,,,,,,,,,,,,,,,,,,,,,,,,,,,,,,,,,,,,,30.04,48,48,0.07,+RA:02 BR:1 |RA |RA,-0.12,3,100,30.04,BKN:07 8 BKN:07 44 OVC:08 60,29.91,3,48,350,37,26,,,,,,,,,,,,,,,,,,,,,,,,,,,,,,,,,,,,,MET17511/12/19 05:53:02 METAR KPNS 121153Z 35023G32KT 3SM +RA BR BKN008 BKN044 OVC060 09/09 A3004 RMK AO2 PK WND 34032/1153 SLP173 P0010 60032 70032 T00890089 10217 20089 53039 (LA),FM-15,7,,,,,,,,,,,,,,,,,,,,,,,,,,,,
72222313899,2019-11-12T06:53:00,FM-15,7,,,,,,,,,,,,,,,,,,,,,,,,,,,,,,,,,,,,,,30.07,46,46,T,-RA:02 |RA |RA,,,100,30.07,OVC:08 8,29.94,10,46,340,30,24,,,,,,,,,,,,,,,,,,,,,,,,,,,,,,,,,,,,,MET13811/12/19 06:53:02 METAR KPNS 121253Z 34021G26KT 10SM -RA OVC008 08/08 A3007 RMK AO2 PK WND 34028/1156 RAE20B39 SLP184 P0000 T00780078 (LA),FM-15,7,,,,,,,,,,,,,,,,,,,,,,,,,,,,
72222313899,2019-11-12T07:53:00,FM-15,7,,,,,,,,,,,,,,,,,,,,,,,,,,,,,,,,,,,,,,30.11,44,44,T,,,,100,30.11,OVC:08 7,29.98,10,44,340,33,23,,,,,,,,,,,,,,,,,,,,,,,,,,,,,,,,,,,,,MET13111/12/19 07:53:02 METAR KPNS 121353Z 34020G29KT 10SM OVC007 07/07 A3011 RMK AO2 PK WND 34033/1309 RAE11 SLP197 P0000 T00670067 (LA),FM-15,7,,,,,,,,,,,,,,,,,,,,,,,,,,,,
72222313899,2019-11-12T08:53:00,FM-15,7,,,,,,,,,,,,,,,,,,,,,,,,,,,,,,,,,,,,,,30.15,41,43,0,,-0.11,3,93,30.15,OVC:08 9,30.02,10,42,360,34,24,,,,,,,,,,,,,,,,,,,,,,,,,,,,,,,,,,,,,MET14311/12/19 08:53:02 METAR KPNS 121453Z 36021G30KT 10SM OVC009 06/05 A3015 RMK AO2 PK WND 36030/1452 CIG 008V013 SLP211 60000 T00610050 53038 (DD),FM-15,7,,,,,,,,,,,,,,,,,,,,,,,,,,,,
72222313899,2019-11-12T09:13:00,FM-16,7,,,,,,,,,,,,,,,,,,,,,,,,,,,,,,,,,,,,,,30.15,41,43,,,,,93,,OVC:08 10,30.02,10,42,350,39,22,,,,,,,,,,,,,,,,,,,,,,,,,,,,,,,,,,,,,MET11211/12/19 09:13:02 SPECI KPNS 121513Z 35019G34KT 10SM OVC010 06/05 A3015 RMK AO2 PK WND 36034/1507 T00610050 (DD),FM-16,7,,,,,,,,,,,,,,,,,,,,,,,,,,,,
72222313899,2019-11-12T09:16:00,FM-16,7,,,,,,,,,,,,,,,,,,,,,,,,,,,,,,,,,,,,,,30.16,41,43,,,,,93,,OVC:08 9,30.03,10,42,350,39,20,,,,,,,,,,,,,,,,,,,,,,,,,,,,,,,,,,,,,MET11211/12/19 09:16:02 SPECI KPNS 121516Z 35017G34KT 10SM OVC009 06/05 A3016 RMK AO2 PK WND 36034/1507 T00610050 (DD),FM-16,7,,,,,,,,,,,,,,,,,,,,,,,,,,,,
72222313899,2019-11-12T09:53:00,FM-15,7,,,,,,,,,,,,,,,,,,,,,,,,,,,,,,,,,,,,,,30.14,40,44,0,,,,85,30.15,OVC:08 9,30.01,10,42,360,32,18,,,,,,,,,,,,,,,,,,,,,,,,,,,,,,,,,,,,,MET11911/12/19 09:53:02 METAR KPNS 121553Z 36016G28KT 10SM OVC009 07/04 A3014 RMK AO2 PK WND 36034/1507 SLP209 T00670044 (DD),FM-15,7,,,,,,,,,,,,,,,,,,,,,,,,,,,,
72222313899,2019-11-12T10:00:00,FM-16,7,,,,,,,,,,,,,,,,,,,,,,,,,,,,,,,,,,,,,,30.15,41,45,,,,,86,,OVC:08 14,30.02,10,43,350,28,21,,,,,,,,,,,,,,,,,,,,,,,,,,,,,,,,,,,,,MET09411/12/19 10:00:02 SPECI KPNS 121600Z 35018G24KT 10SM OVC014 07/05 A3015 RMK AO2 T00720050 (DD),FM-16,7,,,,,,,,,,,,,,,,,,,,,,,,,,,,
72222313899,2019-11-12T10:08:00,FM-16,7,,,,,,,,,,,,,,,,,,,,,,,,,,,,,,,,,,,,,,30.15,40,44,,,,,85,,OVC:08 9,30.02,10,42,340,36,21,,,,,,,,,,,,,,,,,,,,,,,,,,,,,,,,,,,,,MET11211/12/19 10:08:02 SPECI KPNS 121608Z 34018G31KT 10SM OVC009 07/04 A3015 RMK AO2 PK WND 36031/1604 T00670044 (DD),FM-16,7,,,,,,,,,,,,,,,,,,,,,,,,,,,,
72222313899,2019-11-12T10:53:00,FM-15,7,,,,,,,,,,,,,,,,,,,,,,,,,,,,,,,,,,,,,,30.15,39,44,0,,,,83,30.15,OVC:08 9,30.02,10,42,350,34,26,,,,,,,,,,,,,,,,,,,,,,,,,,,,,,,,,,,,,MET11911/12/19 10:53:02 METAR KPNS 121653Z 35023G30KT 10SM OVC009 07/04 A3015 RMK AO2 PK WND 35033/1626 SLP211 T00670039 (DD),FM-15,7,,,,,,,,,,,,,,,,,,,,,,,,,,,,
72222313899,2019-11-12T11:00:00,FM-16,7,,,,,,,,,,,,,,,,,,,,,,,,,,,,,,,,,,,,,,30.14,39,45,,,,,80,,OVC:08 15,30.01,10,42,350,34,24,,,,,,,,,,,,,,,,,,,,,,,,,,,,,,,,,,,,,MET11211/12/19 11:00:02 SPECI KPNS 121700Z 35021G30KT 10SM OVC015 07/04 A3014 RMK AO2 PK WND 35027/1654 T00720039 (DD),FM-16,7,,,,,,,,,,,,,,,,,,,,,,,,,,,,
72222313899,2019-11-12T11:53:00,FM-15,7,,,,,,,,,,,,,,,,,,,,,,,,,,,,,,,,,,,,,,30.15,36,45,0,,0,3,71,30.16,BKN:07 17,30.02,10,41,350,37,24,,,,,,,,,,,,,,,,,,,,,,,,,,,,,,,,,,,,,MET14311/12/19 11:53:02 METAR KPNS 121753Z 35021G32KT 10SM BKN017 07/02 A3015 RMK AO2 PK WND 33032/1745 SLP212 60000 T00720022 10089 20061 53001 (DD),FM-15,7,,,,,,,,,,,,,,,,,,,,,,,,,,,,
72222313899,2019-11-12T12:48:00,FM-16,7,,,,,,,,,,,,,,,,,,,,,,,,,,,,,,,,,,,,,,30.15,36,46,,,,,66,,SCT:04 19,30.02,10,42,340,36,22,,,,,,,,,,,,,,,,,,,,,,,,,,,,,,,,,,,,,MET10211/12/19 12:48:02 SPECI KPNS 121848Z 34019G31KT 10SM SCT019 08/02 A3015 RMK AO2 PK WND 36032/1808 (DD),FM-16,7,,,,,,,,,,,,,,,,,,,,,,,,,,,,
72222313899,2019-11-12T12:53:00,FM-15,7,,,,,,,,,,,,,,,,,,,,,,,,,,,,,,,,,,,,,,30.15,35,44,0,,,,71,30.15,SCT:04 19,30.02,10,40,330,36,26,,,,,,,,,,,,,,,,,,,,,,,,,,,,,,,,,,,,,MET11911/12/19 12:53:02 METAR KPNS 121853Z 33023G31KT 10SM SCT019 07/02 A3015 RMK AO2 PK WND 36032/1808 SLP211 T00670017 (DD),FM-15,7,,,,,,,,,,,,,,,,,,,,,,,,,,,,
72222313899,2019-11-12T13:53:00,FM-15,7,,,,,,,,,,,,,,,,,,,,,,,,,,,,,,,,,,,,,,30.13,34,45,0,,,,66,30.14,CLR:00,30,10,40,360,29,20,,,,,,,,,,,,,,,,,,,,,,,,,,,,,,,,,,,,,MET11611/12/19 13:53:02 METAR KPNS 121953Z 36017G25KT 10SM CLR 07/01 A3013 RMK AO2 PK WND 33029/1854 SLP205 T00720011 (DD),FM-15,7,,,,,,,,,,,,,,,,,,,,,,,,,,,,
72222313899,2019-11-12T14:53:00,FM-15,7,,,,,,,,,,,,,,,,,,,,,,,,,,,,,,,,,,,,,,30.14,33,47,0,,0.01,5,59,30.15,CLR:00,30.01,10,41,350,28,20,,,,,,,,,,,,,,,,,,,,,,,,,,,,,,,,,,,,,MET12211/12/19 14:53:02 METAR KPNS 122053Z 35017G24KT 10SM CLR 08/01 A3014 RMK AO2 PK WND 35029/2010 SLP209 T00830006 55002 (DD),FM-15,7,,,,,,,,,,,,,,,,,,,,,,,,,,,,
72222313899,2019-11-12T15:53:00,FM-15,7,,,,,,,,,,,,,,,,,,,,,,,,,,,,,,,,,,,,,,30.15,32,46,0,,,,58,30.16,CLR:00,30.02,10,40,340,29,20,,,,,,,,,,,,,,,,,,,,,,,,,,,,,,,,,,,,,MET11611/12/19 15:53:02 METAR KPNS 122153Z 34017G25KT 10SM CLR 08/00 A3015 RMK AO2 PK WND 01032/2054 SLP212 T00780000 (DD),FM-15,7,,,,,,,,,,,,,,,,,,,,,,,,,,,,
72222313899,2019-11-12T16:53:00,FM-15,7,,,,,,,,,,,,,,,,,,,,,,,,,,,,,,,,,,,,,,30.17,30,42,0,,,,62,30.18,CLR:00,30.04,10,37,350,26,16,,,,,,,,,,,,,,,,,,,,,,,,,,,,,,,,,,,,,MET11711/12/19 16:53:02 METAR KPNS 122253Z 35014G23KT 10SM CLR 06/M01 A3017 RMK AO2 PK WND 35026/2234 SLP221 T00561011 (KT),FM-15,7,,,,,,,,,,,,,,,,,,,,,,,,,,,,
72222313899,2019-11-12T17:53:00,FM-15,7,,,,,,,,,,,,,,,,,,,,,,,,,,,,,,,,,,,,,,30.2,30,40,0,,-0.06,3,68,30.21,CLR:00,30.07,10,36,350,30,17,,,,,,,,,,,,,,,,,,,,,,,,,,,,,,,,,,,,,MET13511/12/19 17:53:02 METAR KPNS 122353Z 35015G26KT 10SM CLR 04/M01 A3020 RMK AO2 PK WND 36029/2327 SLP229 T00441011 10089 20044 53019 (KT),FM-15,7,,,,,,,,,,,,,,,,,,,,,,,,,,,,
72222313899,2019-11-12T18:53:00,FM-15,7,,,,,,,,,,,,,,,,,,,,,,,,,,,,,,,,,,,,,,30.23,28,38,0,,,,68,30.23,CLR:00,30.1,10,34,360,29,16,,,,,,,,,,,,,,,,,,,,,,,,,,,,,,,,,,,,,MET09411/12/19 18:53:01 METAR KPNS 130053Z 36014G25KT 10SM CLR 03/M02 A3023 RMK AO2 SLP238 T00331022,FM-15,7,,,,,,,,,,,,,,,,,,,,,,,,,,,,
72222313899,2019-11-12T19:53:00,FM-15,7,,,,,,,,,,,,,,,,,,,,,,,,,,,,,,,,,,,,,,30.24,28,37,0,,,,70,30.25,CLR:00,30.11,10,34,350,24,16,,,,,,,,,,,,,,,,,,,,,,,,,,,,,,,,,,,,,MET11211/12/19 19:53:01 METAR KPNS 130153Z 35014G21KT 10SM CLR 03/M02 A3024 RMK AO2 PK WND 01026/0059 SLP244 T00281022,FM-15,7,,,,,,,,,,,,,,,,,,,,,,,,,,,,
72222313899,2019-11-12T20:53:00,FM-15,7,,,,,,,,,,,,,,,,,,,,,,,,,,,,,,,,,,,,,,30.25,27,33,0,,-0.05,1,78,30.26,CLR:00,30.12,10,31,350,30,17,,,,,,,,,,,,,,,,,,,,,,,,,,,,,,,,,,,,,MET11811/12/19 20:53:01 METAR KPNS 130253Z 35015G26KT 10SM CLR 01/M03 A3025 RMK AO2 PK WND 36028/0236 SLP247 T00061028 51018,FM-15,7,,,,,,,,,,,,,,,,,,,,,,,,,,,,
72222313899,2019-11-12T21:53:00,FM-15,7,,,,,,,,,,,,,,,,,,,,,,,,,,,,,,,,,,,,,,30.26,24,35,0,,,,64,30.26,CLR:00,30.13,10,31,350,29,20,,,,,,,,,,,,,,,,,,,,,,,,,,,,,,,,,,,,,MET11211/12/19 21:53:01 METAR KPNS 130353Z 35017G25KT 10SM CLR 02/M04 A3026 RMK AO2 PK WND 36027/0258 SLP248 T00171044,FM-15,7,,,,,,,,,,,,,,,,,,,,,,,,,,,,
72222313899,2019-11-12T22:53:00,FM-15,7,,,,,,,,,,,,,,,,,,,,,,,,,,,,,,,,,,,,,,30.26,21,34,0,,,,59,30.27,CLR:00,30.13,10,29,360,24,15,,,,,,,,,,,,,,,,,,,,,,,,,,,,,,,,,,,,,MET11211/12/19 22:53:02 METAR KPNS 130453Z 36013G21KT 10SM CLR 01/M06 A3026 RMK AO2 PK WND 36028/0442 SLP249 T00111061,FM-15,7,,,,,,,,,,,,,,,,,,,,,,,,,,,,
72222313899,2019-11-12T23:53:00,FM-15,7,,,,,,,,,,,,,,,,,,,,,,,,,,,,,,,,,,,,,,30.25,20,33,0,,0.01,8,58,30.25,CLR:00,30.12,10,29,360,25,14,,,,,,,,,,,,,,,,,,,,,,,,,,,,,,,,,,,,,MET12211/12/19 23:53:02 METAR KPNS 130553Z 36012G22KT 10SM CLR 01/M07 A3025 RMK AO2 SLP245 T00061067 10044 20006 402170006 58002,FM-15,7,,,,,,,,,,,,,,,,,,,,,,,,,,,,
72222313899,2019-11-12T23:59:00,SOD  ,6,,,,,,,,,,,,,,,40,52,79,30.14,29.96,43,18.2,0,-10,13,71,33,320,40,0.32,,,350,29,RA BR,,,,,,,,,,,,,,,,,,,,,,,,,,,,,,,,,,,,,,,,,,,,,,,,,,,,,,,,SOD76024 HR PRECIPITATION (IN): 0.32 SNOW DEPTH (IN):0     24 HR SNOWFALL (IN):0.0  WEATHER(CODE):1  24 HR MAX TEMP (F): 7124 HR MIN TEMP (F): 33AVERAGE STATION PRESSURE(D):29.964 MINIMUM SEA LEVEL PRESSURE:29.92 TIME OF OCCURRENCE:0248 PEAK WIND SPEED (MPH): 40 PEAK WIND DIR (DEG):320 PEAK WIND TIME (LST):      FASTEST 2MIN SPEED (MPH): 29FASTEST 2MIN DIR (DEG):350 FASTEST 2MIN TIME (LST):     AVERAGE WIND SPEED (MPH):18.2 24 HR AVG TEMP (F): 52DEPART FROM NORMAL:-10  HEATING DEGREE DAYS: 13 COOLING DEGREE DAYS:  0 LATEST DAY MAX TEMP (0700-1900 LST): 48 LATEST NIGHT MIN TEMP(1900-0800 LST):44 HOURLY INCREMENTAL PRECIPITATION VALUES (IN):0.00 0.00 0.02 0.20 0.03 0.07T    T     0.00 0.00 0.00 0.00 0.00 0.00 0.00 0.00 0.00 0.00 0.00 0.00 0.00 0.00 0.00 0.00,SOD  ,6,,,,,,,,,,,,,,,,,,,,,,,,,612,1653,,
72222313899,2019-11-13T00:53:00,FM-15,7,,,,,,,,,,,,,,,,,,,,,,,,,,,,,,,,,,,,,,30.24,19,32,0,,,,59,30.25,CLR:00,30.11,10,28,360,23,13,,,,,,,,,,,,,,,,,,,,,,,,,,,,,,,,,,,,,MET09411/13/19 00:53:02 METAR KPNS 130653Z 36011G20KT 10SM CLR 00/M07 A3024 RMK AO2 SLP243 T00001072,FM-15,7,,,,,,,,,,,,,,,,,,,,,,,,,,,,
72222313899,2019-11-13T01:53:00,FM-15,7,,,,,,,,,,,,,,,,,,,,,,,,,,,,,,,,,,,,,,30.25,19,31,0,,,,61,30.25,CLR:00,30.12,10,27,10,20,10,,,,,,,,,,,,,,,,,,,,,,,,,,,,,,,,,,,,,MET09511/13/19 01:53:02 METAR KPNS 130753Z 01009G17KT 10SM CLR M01/M07 A3025 RMK AO2 SLP245 T10061072,FM-15,7,,,,,,,,,,,,,,,,,,,,,,,,,,,,
72222313899,2019-11-13T02:53:00,FM-15,7,,,,,,,,,,,,,,,,,,,,,,,,,,,,,,,,,,,,,,30.25,19,30,0,,0,5,64,30.25,CLR:00,30.12,10,26,10,22,14,,,,,,,,,,,,,,,,,,,,,,,,,,,,,,,,,,,,,MET10111/13/19 02:53:02 METAR KPNS 130853Z 01012G19KT 10SM CLR M01/M07 A3025 RMK AO2 SLP245 T10111072 55000,FM-15,7,,,,,,,,,,,,,,,,,,,,,,,,,,,,
72222313899,2019-11-13T03:53:00,FM-15,7,,,,,,,,,,,,,,,,,,,,,,,,,,,,,,,,,,,,,,30.26,20,30,0,,,,66,30.27,CLR:00,30.13,10,27,20,,11,,,,,,,,,,,,,,,,,,,,,,,,,,,,,,,,,,,,,MET09211/13/19 03:53:02 METAR KPNS 130953Z 02010KT 10SM CLR M01/M07 A3026 RMK AO2 SLP249 T10111067,FM-15,7,,,,,,,,,,,,,,,,,,,,,,,,,,,,
72222313899,2019-11-13T04:53:00,FM-15,7,,,,,,,,,,,,,,,,,,,,,,,,,,,,,,,,,,,,,,30.27,20,30,0,,,,66,30.27,CLR:00,30.14,10,27,10,,11,,,,,,,,,,,,,,,,,,,,,,,,,,,,,,,,,,,,,MET09211/13/19 04:53:02 METAR KPNS 131053Z 01010KT 10SM CLR M01/M07 A3027 RMK AO2 SLP252 T10111067,FM-15,7,,,,,,,,,,,,,,,,,,,,,,,,,,,,
72222313899,2019-11-13T05:53:00,FM-15,7,,,,,,,,,,,,,,,,,,,,,,,,,,,,,,,,,,,,,,30.28,21,29,0,,-0.03,2,72,30.29,CLR:00,30.15,10,26,10,22,14,,,,,,,,,,,,,,,,,,,,,,,,,,,,,,,,,,,,,MET11811/13/19 05:53:02 METAR KPNS 131153Z 01012G19KT 10SM CLR M02/M06 A3028 RMK AO2 SLP256 T10171061 10006 21017 52010 (DD),FM-15,7,,,,,,,,,,,,,,,,,,,,,,,,,,,,
72222313899,2019-11-13T06:53:00,FM-15,7,,,,,,,,,,,,,,,,,,,,,,,,,,,,,,,,,,,,,,30.3,22,30,0,,,,72,30.31,CLR:00,30.17,10,27,30,17,9,,,,,,,,,,,,,,,,,,,,,,,,,,,,,,,,,,,,,MET10011/13/19 06:53:02 METAR KPNS 131253Z 03008G15KT 10SM CLR M01/M06 A3030 RMK AO2 SLP264 T10111056 (DD),FM-15,7,,,,,,,,,,,,,,,,,,,,,,,,,,,,
72222313899,2019-11-13T07:53:00,FM-15,7,,,,,,,,,,,,,,,,,,,,,,,,,,,,,,,,,,,,,,30.3,23,34,0,,,,64,30.31,CLR:00,30.17,10,30,50,,8,,,,,,,,,,,,,,,,,,,,,,,,,,,,,,,,,,,,,MET09611/13/19 07:53:02 METAR KPNS 131353Z 05007KT 10SM CLR 01/M05 A3030 RMK AO2 SLP264 T00111050 (DD),FM-15,7,,,,,,,,,,,,,,,,,,,,,,,,,,,,
72222313899,2019-11-13T08:53:00,FM-15,7,,,,,,,,,,,,,,,,,,,,,,,,,,,,,,,,,,,,,,30.31,26,38,0,,-0.04,1,62,30.32,CLR:00,30.18,10,33,50,,6,,,,,,,,,,,,,,,,,,,,,,,,,,,,,,,,,,,,,MET10211/13/19 08:53:02 METAR KPNS 131453Z 05005KT 10SM CLR 03/M03 A3031 RMK AO2 SLP267 T00331033 51012 (JH),FM-15,7,,,,,,,,,,,,,,,,,,,,,,,,,,,,
72222313899,2019-11-13T09:53:00,FM-15,7,,,,,,,,,,,,,,,,,,,,,,,,,,,,,,,,,,,,,,30.31,30,43,0,,,,60,30.31,CLR:00,30.18,10,38,,,,,,,,,,,,,,,,,,,,,,,,,,,,,,,,,,,,,,,,MET09611/13/19 09:53:02 METAR KPNS 131553Z      KT 10SM CLR 06/M01 A3031 RMK AO2 SLP265 T00611011 (JH),FM-15,7,,,,,,,,,,,,,,,,,,,,,,,,,,,,
72222313899,2019-11-13T10:53:00,FM-15,7,,,,,,,,,,,,,,,,,,,,,,,,,,,,,,,,,,,,,,30.29,30,45,0,,,,56,30.3,CLR:00,30.16,10,39,100,,8,,,,,,,,,,,,,,,,,,,,,,,,,,,,,,,,,,,,,MET09611/13/19 10:53:02 METAR KPNS 131653Z 10007KT 10SM CLR 07/M01 A3029 RMK AO2 SLP261 T00721011 (JH),FM-15,7,,,,,,,,,,,,,,,,,,,,,,,,,,,,
72222313899,2019-11-13T11:53:00,FM-15,7,,,,,,,,,,,,,,,,,,,,,,,,,,,,,,,,,,,,,,30.25,31,50,0,,0.06,8,48,30.26,CLR:00,30.12,10,42,VRB,,8,,,,,,,,,,,,,,,,,,,,,,,,,,,,,,,,,,,,,MET11411/13/19 11:53:02 METAR KPNS 131753Z 06007KT 10SM CLR 10/M01 A3025 RMK AO2 SLP247 T01001006 10100 21017 58020 (JH),FM-15,7,,,,,,,,,,,,,,,,,,,,,,,,,,,,
72222313899,2019-11-13T12:53:00,FM-15,7,,,,,,,,,,,,,,,,,,,,,,,,,,,,,,,,,,,,,,30.23,32,52,0,,,,47,30.23,CLR:00,30.1,10,43,VRB,,7,,,,,,,,,,,,,,,,,,,,,,,,,,,,,,,,,,,,,MET09511/13/19 12:53:02 METAR KPNS 131853Z VRB06KT 10SM CLR 11/00 A3023 RMK AO2 SLP238 T01110000 (JH),FM-15,7,,,,,,,,,,,,,,,,,,,,,,,,,,,,
72222313899,2019-11-13T13:53:00,FM-15,7,,,,,,,,,,,,,,,,,,,,,,,,,,,,,,,,,,,,,,30.2,31,54,0,,,,42,30.21,CLR:00,30.07,10,44,VRB,,6,,,,,,,,,,,,,,,,,,,,,,,,,,,,,,,,,,,,,MET09611/13/19 13:53:02 METAR KPNS 131953Z VRB05KT 10SM CLR 12/M01 A3020 RMK AO2 SLP229 T01221006 (JH),FM-15,7,,,,,,,,,,,,,,,,,,,,,,,,,,,,
72222313899,2019-11-13T14:53:00,FM-15,7,,,,,,,,,,,,,,,,,,,,,,,,,,,,,,,,,,,,,,30.19,31,55,0,,0.06,6,40,30.2,CLR:00,30.06,10,44,340,,7,,,,,,,,,,,,,,,,,,,,,,,,,,,,,,,,,,,,,MET10211/13/19 14:53:02 METAR KPNS 132053Z 34006KT 10SM CLR 13/M01 A3019 RMK AO2 SLP227 T01281006 56020 (JH),FM-15,7,,,,,,,,,,,,,,,,,,,,,,,,,,,,
72222313899,2019-11-13T15:53:00,FM-15,7,,,,,,,,,,,,,,,,,,,,,,,,,,,,,,,,,,,,,,30.18,33,55,0,,,,44,30.19,CLR:00,30.05,10,45,20,,5,,,,,,,,,,,,,,,,,,,,,,,,,,,,,,,,,,,,,MET09711/13/19 15:53:02 METAR KPNS 132153Z 02004KT 10SM CLR 13/01 A3018 RMK AO2 SLP224 T01280006 $ (BB),FM-15,7,,,,,,,,,,,,,,,,,,,,,,,,,,,,
72222313899,2019-11-13T16:53:00,FM-15,7,,,,,,,,,,,,,,,,,,,,,,,,,,,,,,,,,,,,,,30.18,34,50,0,,,,54,30.19,CLR:00,30.05,10,43,20,,3,,,,,,,,,,,,,,,,,,,,,,,,,,,,,,,,,,,,,MET09711/13/19 16:53:02 METAR KPNS 132253Z 02003KT 10SM CLR 10/01 A3018 RMK AO2 SLP224 T01000011 $ (BB),FM-15,7,,,,,,,,,,,,,,,,,,,,,,,,,,,,
72222313899,2019-11-13T17:53:00,FM-15,7,,,,,,,,,,,,,,,,,,,,,,,,,,,,,,,,,,,,,,30.19,35,48,0,,,,61,30.2,CLR:00,30.06,10,42,50,,3,,,,,,,,,,,,,,,,,,,,,,,,,,,,,,,,,,,,,MET10911/13/19 17:53:02 METAR KPNS 132353Z 05003KT 10SM CLR 09/02 A3019 RMK AO2 SLP227 T00890017 10133 20089 $ (BB),FM-15,7,,,,,,,,,,,,,,,,,,,,,,,,,,,,
72222313899,2019-11-13T18:00:00,SHEF ,4,,,,,,,,,,,,,,,,,,,,,,,,,,,,,,,,,,,,,,,,,,,,,,,,,,,,,,,,,,,,,,,,,,,,,,,,,,,,,,,,,,,,,,,,,,,SHEF ,4,,,,,,,,,,,,,,,,,,,,,,,,,,,,
72222313899,2019-11-13T18:53:00,FM-15,7,,,,,,,,,,,,,,,,,,,,,,,,,,,,,,,,,,,,,,30.2,36,48,0,,,,63,30.21,CLR:00,30.07,10,43,40,,5,,,,,,,,,,,,,,,,,,,,,,,,,,,,,,,,,,,,,MET09211/13/19 18:53:01 METAR KPNS 140053Z 04004KT 10SM CLR 09/02 A3020 RMK AO2 SLP230 T00890022 $,FM-15,7,,,,,,,,,,,,,,,,,,,,,,,,,,,,
72222313899,2019-11-13T19:53:00,FM-15,7,,,,,,,,,,,,,,,,,,,,,,,,,,,,,,,,,,,,,,30.22,34,49,0,,,,56,30.23,CLR:00,30.09,10,42,50,,5,,,,,,,,,,,,,,,,,,,,,,,,,,,,,,,,,,,,,MET09211/13/19 19:53:01 METAR KPNS 140153Z 05004KT 10SM CLR 09/01 A3022 RMK AO2 SLP238 T00940011 $,FM-15,7,,,,,,,,,,,,,,,,,,,,,,,,,,,,
72222313899,2019-11-13T20:53:00,FM-15,7,,,,,,,,,,,,,,,,,,,,,,,,,,,,,,,,,,,,,,30.24,33,48,0,,-0.05,3,56,30.25,CLR:00,30.11,10,42,60,,5,,,,,,,,,,,,,,,,,,,,,,,,,,,,,,,,,,,,,MET09811/13/19 20:53:01 METAR KPNS 140253Z 06004KT 10SM CLR 09/01 A3024 RMK AO2 SLP244 T00890006 53017 $,FM-15,7,,,,,,,,,,,,,,,,,,,,,,,,,,,,
72222313899,2019-11-13T21:53:00,FM-15,7,,,,,,,,,,,,,,,,,,,,,,,,,,,,,,,,,,,,,,30.24,34,48,0,,,,58,30.24,CLR:00,30.11,10,42,50,,7,,,,,,,,,,,,,,,,,,,,,,,,,,,,,,,,,,,,,MET09211/13/19 21:53:01 METAR KPNS 140353Z 05006KT 10SM CLR 09/01 A3024 RMK AO2 SLP242 T00890011 $,FM-15,7,,,,,,,,,,,,,,,,,,,,,,,,,,,,
72222313899,2019-11-13T22:53:00,FM-15,7,,,,,,,,,,,,,,,,,,,,,,,,,,,,,,,,,,,,,,30.22,33,48,0,,,,56,30.23,CLR:00,30.09,10,41,50,,7,,,,,,,,,,,,,,,,,,,,,,,,,,,,,,,,,,,,,MET09211/13/19 22:53:02 METAR KPNS 140453Z 05006KT 10SM CLR 09/01 A3022 RMK AO2 SLP237 T00890006 $,FM-15,7,,,,,,,,,,,,,,,,,,,,,,,,,,,,
72222313899,2019-11-13T23:53:00,FM-15,7,,,,,,,,,,,,,,,,,,,,,,,,,,,,,,,,,,,,,,30.21,33,47,0,,0.03,8,59,30.22,CLR:00,30.08,10,41,50,,7,,,,,,,,,,,,,,,,,,,,,,,,,,,,,,,,,,,,,MET12011/13/19 23:53:02 METAR KPNS 140553Z 05006KT 10SM CLR 08/01 A3021 RMK AO2 SLP233 T00830006 10100 20083 401331017 58010 $,FM-15,7,,,,,,,,,,,,,,,,,,,,,,,,,,,,
72222313899,2019-11-13T23:59:00,SOD  ,6,,,,,,,,,,,,,,,30,43,58,30.24,30.11,38,7.8,0,-18.7,22,56,29,360,28,0,,,360,20,,,,,,,,,,,,,,,,,,,,,,,,,,,,,,,,,,,,,,,,,,,,,,,,,,,,,,,,,SOD74324 HR PRECIPITATION (IN): 0.00 SNOW DEPTH (IN):0     24 HR SNOWFALL (IN):0.0  24 HR MAX TEMP (F): 5624 HR MIN TEMP (F): 29AVERAGE STATION PRESSURE(D):30.114 MINIMUM SEA LEVEL PRESSURE:30.19 TIME OF OCCURRENCE:1736 PEAK WIND SPEED (MPH): 28 PEAK WIND DIR (DEG):360 PEAK WIND TIME (LST):      FASTEST 2MIN SPEED (MPH): 20FASTEST 2MIN DIR (DEG):360 FASTEST 2MIN TIME (LST):     AVERAGE WIND SPEED (MPH): 7.8 24 HR AVG TEMP (F): 43DEPART FROM NORMAL:-18  HEATING DEGREE DAYS: 22 COOLING DEGREE DAYS:  0 LATEST DAY MAX TEMP (0700-1900 LST): 56 LATEST NIGHT MIN TEMP(1900-0800 LST):29 HOURLY INCREMENTAL PRECIPITATION VALUES (IN):0.00 0.00 0.00 0.00 0.00 0.00 0.00 0.00 0.00 0.00 0.00 0.00 0.00 0.00 0.00 0.00 0.00 0.00 0.00 0.00 0.00 0.00 0.00 0.00,SOD  ,6,,,,,,,,,,,,,,,,,,,,,,,,,613,1653,,
72222313899,2019-11-14T00:53:00,FM-15,7,,,,,,,,,,,,,,,,,,,,,,,,,,,,,,,,,,,,,,30.22,33,46,0,,,,61,30.22,CLR:00,30.09,10,40,50,,6,,,,,,,,,,,,,,,,,,,,,,,,,,,,,,,,,,,,,MET09211/14/19 00:53:02 METAR KPNS 140653Z 05005KT 10SM CLR 08/01 A3022 RMK AO2 SLP235 T00780006 $,FM-15,7,,,,,,,,,,,,,,,,,,,,,,,,,,,,
72222313899,2019-11-14T01:53:00,FM-15,7,,,,,,,,,,,,,,,,,,,,,,,,,,,,,,,,,,,,,,30.2,33,46,0,,,,61,30.21,CLR:00,30.07,10,40,40,,6,,,,,,,,,,,,,,,,,,,,,,,,,,,,,,,,,,,,,MET09211/14/19 01:53:02 METAR KPNS 140753Z 04005KT 10SM CLR 08/01 A3020 RMK AO2 SLP230 T00780006 $,FM-15,7,,,,,,,,,,,,,,,,,,,,,,,,,,,,
72222313899,2019-11-14T02:53:00,FM-15,7,,,,,,,,,,,,,,,,,,,,,,,,,,,,,,,,,,,,,,30.2,34,46,0,,0.01,8,63,30.2,CLR:00,30.07,10,41,40,,6,,,,,,,,,,,,,,,,,,,,,,,,,,,,,,,,,,,,,MET09811/14/19 02:53:02 METAR KPNS 140853Z 04005KT 10SM CLR 08/01 A3020 RMK AO2 SLP228 T00780011 58005 $,FM-15,7,,,,,,,,,,,,,,,,,,,,,,,,,,,,
72222313899,2019-11-14T03:53:00,FM-15,7,,,,,,,,,,,,,,,,,,,,,,,,,,,,,,,,,,,,,,30.19,35,46,0,,,,66,30.19,CLR:00,30.06,10,41,40,,6,,,,,,,,,,,,,,,,,,,,,,,,,,,,,,,,,,,,,MET09211/14/19 03:53:02 METAR KPNS 140953Z 04005KT 10SM CLR 08/02 A3019 RMK AO2 SLP225 T00780017 $,FM-15,7,,,,,,,,,,,,,,,,,,,,,,,,,,,,
72222313899,2019-11-14T04:53:00,FM-15,7,,,,,,,,,,,,,,,,,,,,,,,,,,,,,,,,,,,,,,30.19,36,45,0,,,,71,30.2,CLR:00,30.06,10,41,40,,6,,,,,,,,,,,,,,,,,,,,,,,,,,,,,,,,,,,,,MET09211/14/19 04:53:02 METAR KPNS 141053Z 04005KT 10SM CLR 07/02 A3019 RMK AO2 SLP226 T00720022 $,FM-15,7,,,,,,,,,,,,,,,,,,,,,,,,,,,,
72222313899,2019-11-14T05:53:00,FM-15,7,,,,,,,,,,,,,,,,,,,,,,,,,,,,,,,,,,,,,,30.22,36,44,0,,-0.02,3,73,30.22,CLR:00,30.09,10,41,10,,7,,,,,,,,,,,,,,,,,,,,,,,,,,,,,,,,,,,,,MET11011/14/19 05:53:02 METAR KPNS 141153Z 01006KT 10SM CLR 07/02 A3022 RMK AO2 SLP235 T00670022 10083 20067 53007 $,FM-15,7,,,,,,,,,,,,,,,,,,,,,,,,,,,,
72222313899,2019-11-14T06:53:00,FM-15,7,,,,,,,,,,,,,,,,,,,,,,,,,,,,,,,,,,,,,,30.21,36,45,0,,,,71,30.22,CLR:00,30.08,10,41,40,,9,,,,,,,,,,,,,,,,,,,,,,,,,,,,,,,,,,,,,MET09711/14/19 06:53:02 METAR KPNS 141253Z 04008KT 10SM CLR 07/02 A3021 RMK AO2 SLP232 T00720022 $ (WS),FM-15,7,,,,,,,,,,,,,,,,,,,,,,,,,,,,
72222313899,2019-11-14T07:53:00,FM-15,7,,,,,,,,,,,,,,,,,,,,,,,,,,,,,,,,,,,,,,30.22,38,47,0,,,,71,30.23,FEW:02 55,30.09,10,43,20,,8,,,,,,,,,,,,,,,,,,,,,,,,,,,,,,,,,,,,,MET10011/14/19 07:53:02 METAR KPNS 141353Z 02007KT 10SM FEW055 08/03 A3022 RMK AO2 SLP238 T00830033 $ (WS),FM-15,7,,,,,,,,,,,,,,,,,,,,,,,,,,,,
72222313899,2019-11-14T08:53:00,FM-15,7,,,,,,,,,,,,,,,,,,,,,,,,,,,,,,,,,,,,,,30.23,38,48,0,,-0.02,3,68,30.24,FEW:02 50,30.1,10,43,30,,8,,,,,,,,,,,,,,,,,,,,,,,,,,,,,,,,,,,,,MET10611/14/19 08:53:02 METAR KPNS 141453Z 03007KT 10SM FEW050 09/03 A3023 RMK AO2 SLP241 T00890033 53006 $ (KT),FM-15,7,,,,,,,,,,,,,,,,,,,,,,,,,,,,
72222313899,2019-11-14T09:53:00,FM-15,7,,,,,,,,,,,,,,,,,,,,,,,,,,,,,,,,,,,,,,30.22,40,49,0,,,,71,30.23,OVC:08 120,30.09,10,45,360,,9,,,,,,,,,,,,,,,,,,,,,,,,,,,,,,,,,,,,,MET10011/14/19 09:53:02 METAR KPNS 141553Z 36008KT 10SM OVC120 09/04 A3022 RMK AO2 SLP237 T00940044 $ (KT),FM-15,7,,,,,,,,,,,,,,,,,,,,,,,,,,,,
72222313899,2019-11-14T10:53:00,FM-15,7,,,,,,,,,,,,,,,,,,,,,,,,,,,,,,,,,,,,,,30.22,42,50,T,-RA:02 |RA |RA,,,74,30.22,FEW:02 60 OVC:08 110,30.09,10,46,360,,7,,,,,,,,,,,,,,,,,,,,,,,,,,,,,,,,,,,,,MET12311/14/19 10:53:02 METAR KPNS 141653Z 36006KT 10SM -RA FEW060 OVC110 10/06 A3022 RMK AO2 RAB48 SLP235 P0000 T01000056 $ (KT),FM-15,7,,,,,,,,,,,,,,,,,,,,,,,,,,,,
72222313899,2019-11-14T11:53:00,FM-15,7,,,,,,,,,,,,,,,,,,,,,,,,,,,,,,,,,,,,,,30.2,43,52,T,,0.04,8,72,30.21,OVC:08 55,30.07,10,48,340,,6,,,,,,,,,,,,,,,,,,,,,,,,,,,,,,,,,,,,,MET13611/14/19 11:53:02 METAR KPNS 141753Z 34005KT 10SM OVC055 11/06 A3020 RMK AO2 RAE05 SLP229 P0000 60000 T01110061 10111 20067 58012 $ (KT),FM-15,7,,,,,,,,,,,,,,,,,,,,,,,,,,,,
72222313899,2019-11-14T12:53:00,FM-15,7,,,,,,,,,,,,,,,,,,,,,,,,,,,,,,,,,,,,,,30.16,44,53,T,,,,72,30.17,OVC:08 55,30.03,10,49,350,,8,,,,,,,,,,,,,,,,,,,,,,,,,,,,,,,,,,,,,MET10011/14/19 12:53:02 METAR KPNS 141853Z 35007KT 10SM OVC055 12/07 A3016 RMK AO2 SLP217 T01170067 $ (KT),FM-15,7,,,,,,,,,,,,,,,,,,,,,,,,,,,,
72222313899,2019-11-14T13:53:00,FM-15,7,,,,,,,,,,,,,,,,,,,,,,,,,,,,,,,,,,,,,,30.16,45,52,T,,,,77,30.17,OVC:08 50,30.03,10,49,350,,10,,,,,,,,,,,,,,,,,,,,,,,,,,,,,,,,,,,,,MET11711/14/19 13:53:02 METAR KPNS 141953Z 35009KT 10SM OVC050 11/07 A3016 RMK AO2 RAB1856E41 SLP216 P0000 T01110072 $ (KT),FM-15,7,,,,,,,,,,,,,,,,,,,,,,,,,,,,
72222313899,2019-11-14T14:54:00,FM-15,7,,,,,,,,,,,,,,,,,,,,,,,,,,,,,,,,,,,,,,30.17,47,51,0.01s,|RA |,,,86,30.18,,,10,,350,,8,,,,,,,,,,,,,,,,,,,,,,,,,,,,,,,,,,,,,MET05411/14/19 14:54:02 METAR KPNS 142054Z 35007KT RVRNO RMK,FM-15,7,,,,,,,,,,,,,,,,,,,,,,,,,,,,
72222313899,2019-11-14T15:53:00,FM-15,7,,,,,,,,,,,,,,,,,,,,,,,,,,,,,,,,,,,,,,30.18,47,51,T,-RA:02 |RA |RA,,,86,30.19,BKN:07 50 OVC:08 70,30.05,10,49,350,,8,,,,,,,,,,,,,,,,,,,,,,,,,,,,,,,,,,,,,MET12611/14/19 15:53:02 METAR KPNS 142153Z 35007KT 10SM -RA BKN050 OVC070 11/08 A3018 RMK AO2 RAE26B50 SLP222 P0000 T01060083 $ (BB),FM-15,7,,,,,,,,,,,,,,,,,,,,,,,,,,,,
72222313899,2019-11-14T16:53:00,FM-15,7,,,,,,,,,,,,,,,,,,,,,,,,,,,,,,,,,,,,,,30.18,47,49,T,,,,93,30.19,OVC:08 48,30.05,10,48,360,,11,,,,,,,,,,,,,,,,,,,,,,,,,,,,,,,,,,,,,MET11211/14/19 16:53:02 METAR KPNS 142253Z 36010KT 10SM OVC048 09/08 A3018 RMK AO2 RAE13 SLP224 P0000 T00940083 $ (KP),FM-15,7,,,,,,,,,,,,,,,,,,,,,,,,,,,,
72222313899,2019-11-14T17:53:00,FM-15,7,,,,,,,,,,,,,,,,,,,,,,,,,,,,,,,,,,,,,,30.18,47,49,T,-RA:02 |RA |RA,0,0,93,30.18,FEW:02 48 BKN:07 60 OVC:08 80,30.05,10,48,360,,10,,,,,,,,,,,,,,,,,,,,,,,,,,,,,,,,,,,,,MET15411/14/19 17:53:02 METAR KPNS 142353Z 36009KT 10SM -RA FEW048 BKN060 OVC080 09/08 A3018 RMK AO2 RAB28 SLP221 P0000 60001 T00940083 10117 20094 50001 $ (KP),FM-15,7,,,,,,,,,,,,,,,,,,,,,,,,,,,,
72222313899,2019-11-14T18:00:00,SHEF ,4,,,,,,,,,,,,,,,,,,,,,,,,,,,,,,,,,,,,,,,,,,,,,,,,,,,,,,,,,,,,,,,,,,,,,,,,,,,,,,,,,,,,,,,,,,,SHEF ,4,,,,,,,,,,,,,,,,,,,,,,,,,,,,
72222313899,2019-11-14T18:53:00,FM-15,7,,,,,,,,,,,,,,,,,,,,,,,,,,,,,,,,,,,,,,30.17,47,49,0.01,-RA:02 |RA |RA,,,93,30.18,OVC:08 47,30.04,10,48,360,,8,,,,,,,,,,,,,,,,,,,,,,,,,,,,,,,,,,,,,MET10511/14/19 18:53:01 METAR KPNS 150053Z 36007KT 10SM -RA OVC047 09/08 A3017 RMK AO2 SLP220 P0001 T00940083 $,FM-15,7,,,,,,,,,,,,,,,,,,,,,,,,,,,,
72222313899,2019-11-14T19:53:00,FM-15,7,,,,,,,,,,,,,,,,,,,,,,,,,,,,,,,,,,,,,,30.17,47,48,T,-RA:02 |RA |RA,,,96,30.18,FEW:02 20 BKN:07 60 OVC:08 120,30.04,10,48,360,,9,,,,,,,,,,,,,,,,,,,,,,,,,,,,,,,,,,,,,MET12811/14/19 19:53:01 METAR KPNS 150153Z 36008KT 10SM -RA FEW020 BKN060 OVC120 09/08 A3017 RMK AO2 RAE11B39 SLP221 P0000 T00890083 $,FM-15,7,,,,,,,,,,,,,,,,,,,,,,,,,,,,
72222313899,2019-11-14T19:57:00,FM-16,7,,,,,,,,,,,,,,,,,,,,,,,,,,,,,,,,,,,,,,30.18,47,48,T,-RA:02 |RA |RA,,,96,,BKN:07 6 BKN:07 55 OVC:08 120,30.05,10,48,360,,10,,,,,,,,,,,,,,,,,,,,,,,,,,,,,,,,,,,,,MET11211/14/19 19:57:01 SPECI KPNS 150157Z 36009KT 10SM -RA BKN006 BKN055 OVC120 09/08 A3018 RMK AO2 P0000 T00890083 $,FM-16,7,,,,,,,,,,,,,,,,,,,,,,,,,,,,
72222313899,2019-11-14T20:53:00,FM-15,7,,,,,,,,,,,,,,,,,,,,,,,,,,,,,,,,,,,,,,30.18,47,47,0.01,-RA:02 |RA |RA,-0.01,3,100,30.19,BKN:07 6 BKN:07 55 OVC:08 120,30.05,10,47,360,,7,,,,,,,,,,,,,,,,,,,,,,,,,,,,,,,,,,,,,MET13111/14/19 20:53:01 METAR KPNS 150253Z 36006KT 10SM -RA BKN006 BKN055 OVC120 08/08 A3018 RMK AO2 SLP224 P0001 60002 T00830083 53002 $,FM-15,7,,,,,,,,,,,,,,,,,,,,,,,,,,,,
72222313899,2019-11-14T21:53:00,FM-15,7,,,,,,,,,,,,,,,,,,,,,,,,,,,,,,,,,,,,,,30.19,47,47,0.01,,,,100,30.2,OVC:08 6,30.06,10,47,360,,9,,,,,,,,,,,,,,,,,,,,,,,,,,,,,,,,,,,,,MET10711/14/19 21:53:01 METAR KPNS 150353Z 36008KT 10SM OVC006 08/08 A3019 RMK AO2 RAE36 SLP226 P0001 T00830083 $,FM-15,7,,,,,,,,,,,,,,,,,,,,,,,,,,,,
72222313899,2019-11-14T22:53:00,FM-15,7,,,,,,,,,,,,,,,,,,,,,,,,,,,,,,,,,,,,,,30.19,46,47,0,,,,97,30.2,OVC:08 7,30.06,10,47,330,,10,,,,,,,,,,,,,,,,,,,,,,,,,,,,,,,,,,,,,MET10711/14/19 22:53:02 METAR KPNS 150453Z 33009KT 10SM OVC007 08/08 A3019 RMK AO2 CIG 005V009 SLP228 T00830078 $,FM-15,7,,,,,,,,,,,,,,,,,,,,,,,,,,,,
72222313899,2019-11-14T23:53:00,FM-15,7,,,,,,,,,,,,,,,,,,,,,,,,,,,,,,,,,,,,,,30.18,46,46,0,,0,8,100,30.19,OVC:08 6,30.05,10,46,340,,11,,,,,,,,,,,,,,,,,,,,,,,,,,,,,,,,,,,,,MET12911/14/19 23:53:02 METAR KPNS 150553Z 34010KT 10SM OVC006 08/08 A3018 RMK AO2 SLP223 60003 T00780078 10094 20078 401170067 58000 $,FM-15,7,,,,,,,,,,,,,,,,,,,,,,,,,,,,
72222313899,2019-11-14T23:59:00,SOD  ,6,,,,,,,,,,,,,,,42,49,81,30.19,30.06,46,8.1,0,-12.4,16,53,44,320,20,0.04,,,330,16,RA,,,,,,,,,,,,,,,,,,,,,,,,,,,,,,,,,,,,,,,,,,,,,,,,,,,,,,,,SOD74324 HR PRECIPITATION (IN): 0.04 SNOW DEPTH (IN):0     24 HR SNOWFALL (IN):0.0  24 HR MAX TEMP (F): 5324 HR MIN TEMP (F): 44AVERAGE STATION PRESSURE(D):30.065 MINIMUM SEA LEVEL PRESSURE:30.16 TIME OF OCCURRENCE:1532 PEAK WIND SPEED (MPH): 20 PEAK WIND DIR (DEG):320 PEAK WIND TIME (LST):      FASTEST 2MIN SPEED (MPH): 16FASTEST 2MIN DIR (DEG):330 FASTEST 2MIN TIME (LST):     AVERAGE WIND SPEED (MPH): 8.1 24 HR AVG TEMP (F): 49DEPART FROM NORMAL:-12  HEATING DEGREE DAYS: 16 COOLING DEGREE DAYS:  0 LATEST DAY MAX TEMP (0700-1900 LST): 53 LATEST NIGHT MIN TEMP(1900-0800 LST):44 HOURLY INCREMENTAL PRECIPITATION VALUES (IN):0.00 0.00 0.00 0.00 0.00 0.00 0.00 0.00 0.00 0.00T    T    T    T     0.01T    T    T     0.01T     0.01 0.01 0.00 0.00,SOD  ,6,,,,,,,,,,,,,,,,,,,,,,,,,614,1652,,
72222313899,2019-11-15T00:53:00,FM-15,7,,,,,,,,,,,,,,,,,,,,,,,,,,,,,,,,,,,,,,30.18,46,46,0,,,,100,30.19,OVC:08 6,30.05,10,46,350,,9,,,,,,,,,,,,,,,,,,,,,,,,,,,,,,,,,,,,,MET09511/15/19 00:53:02 METAR KPNS 150653Z 35008KT 10SM OVC006 08/08 A3018 RMK AO2 SLP222 T00780078 $,FM-15,7,,,,,,,,,,,,,,,,,,,,,,,,,,,,
72222313899,2019-11-15T01:53:00,FM-15,7,,,,,,,,,,,,,,,,,,,,,,,,,,,,,,,,,,,,,,30.17,46,46,0,,,,100,30.18,OVC:08 6,30.04,10,46,350,,11,,,,,,,,,,,,,,,,,,,,,,,,,,,,,,,,,,,,,MET09511/15/19 01:53:02 METAR KPNS 150753Z 35010KT 10SM OVC006 08/08 A3017 RMK AO2 SLP219 T00780078 $,FM-15,7,,,,,,,,,,,,,,,,,,,,,,,,,,,,
72222313899,2019-11-15T02:53:00,FM-15,7,,,,,,,,,,,,,,,,,,,,,,,,,,,,,,,,,,,,,,30.14,46,46,0,,0.04,8,100,30.15,OVC:08 6,30.01,10,46,350,,10,,,,,,,,,,,,,,,,,,,,,,,,,,,,,,,,,,,,,MET10111/15/19 02:53:02 METAR KPNS 150853Z 35009KT 10SM OVC006 08/08 A3014 RMK AO2 SLP210 T00780078 58014 $,FM-15,7,,,,,,,,,,,,,,,,,,,,,,,,,,,,
72222313899,2019-11-15T03:53:00,FM-15,7,,,,,,,,,,,,,,,,,,,,,,,,,,,,,,,,,,,,,,30.14,46,46,0,,,,100,30.15,OVC:08 6,30.01,10,46,340,,15,,,,,,,,,,,,,,,,,,,,,,,,,,,,,,,,,,,,,MET10711/15/19 03:53:02 METAR KPNS 150953Z 34013KT 10SM OVC006 08/08 A3014 RMK AO2 CIG 005V011 SLP209 T00780078 $,FM-15,7,,,,,,,,,,,,,,,,,,,,,,,,,,,,
72222313899,2019-11-15T04:53:00,FM-15,7,,,,,,,,,,,,,,,,,,,,,,,,,,,,,,,,,,,,,,30.15,46,46,0,,,,100,30.15,OVC:08 7,30.02,10,46,340,25,17,,,,,,,,,,,,,,,,,,,,,,,,,,,,,,,,,,,,,MET09811/15/19 04:53:02 METAR KPNS 151053Z 34015G22KT 10SM OVC007 08/08 A3015 RMK AO2 SLP211 T00780078 $,FM-15,7,,,,,,,,,,,,,,,,,,,,,,,,,,,,
72222313899,2019-11-15T05:29:00,FM-16,7,,,,,,,,,,,,,,,,,,,,,,,,,,,,,,,,,,,,,,30.15,45,47,,,,,93,,OVC:08 11,30.02,10,46,340,22,16,,,,,,,,,,,,,,,,,,,,,,,,,,,,,,,,,,,,,MET09111/15/19 05:29:02 SPECI KPNS 151129Z 34014G19KT 10SM OVC011 08/07 A3015 RMK AO2 T00830072 $,FM-16,7,,,,,,,,,,,,,,,,,,,,,,,,,,,,
72222313899,2019-11-15T05:31:00,FM-16,7,,,,,,,,,,,,,,,,,,,,,,,,,,,,,,,,,,,,,,30.15,45,47,,,,,93,,OVC:08 7,30.02,10,46,340,22,15,,,,,,,,,,,,,,,,,,,,,,,,,,,,,,,,,,,,,MET09611/15/19 05:31:02 SPECI KPNS 151131Z 34013G19KT 10SM OVC007 08/07 A3015 RMK AO2 T00830072 $ (JH),FM-16,7,,,,,,,,,,,,,,,,,,,,,,,,,,,,
72222313899,2019-11-15T05:53:00,FM-15,7,,,,,,,,,,,,,,,,,,,,,,,,,,,,,,,,,,,,,,30.16,44,46,0,,-0.01,3,93,30.16,OVC:08 7,30.03,10,45,330,24,16,,,,,,,,,,,,,,,,,,,,,,,,,,,,,,,,,,,,,MET12711/15/19 05:53:02 METAR KPNS 151153Z 33014G21KT 10SM OVC007 08/07 A3016 RMK AO2 SLP215 70004 T00780067 10083 20078 53005 $ (JH),FM-15,7,,,,,,,,,,,,,,,,,,,,,,,,,,,,
72222313899,2019-11-15T06:00:00,FM-16,7,,,,,,,,,,,,,,,,,,,,,,,,,,,,,,,,,,,,,,30.15,44,46,,,,,93,,BKN:07 12 OVC:08 21,30.02,10,45,340,,16,,,,,,,,,,,,,,,,,,,,,,,,,,,,,,,,,,,,,MET10011/15/19 06:00:02 SPECI KPNS 151200Z 34014KT 10SM BKN012 OVC021 08/07 A3015 RMK AO2 T00780067 $ (JH),FM-16,7,,,,,,,,,,,,,,,,,,,,,,,,,,,,
72222313899,2019-11-15T06:51:00,FM-16,6,,,,,,,,,,,,,,,,,,,,,,,,,,,,,,,,,,,,,,30.16,43,46,,,,,87,,BKN:07 24 OVC:08 34,30.03,10,45,340,24,17,,,,,,,,,,,,,,,,,,,,,,,,,,,,,,,,,,,,,MET09811/15/19 06:51:02 SPECI KPNS 151251Z 34015G21KT 10SM BKN024 OVC034 08/06 A3016 RMK AO2 $ FIBI (JH),FM-16,6,,,,,,,,,,,,,,,,,,,,,,,,,,,,
72222313899,2019-11-15T06:53:00,FM-15,7,,,,,,,,,,,,,,,,,,,,,,,,,,,,,,,,,,,,,,30.16,43,47,0,,,,86,30.17,BKN:07 24 OVC:08 34,30.03,10,45,340,24,16,,,,,,,,,,,,,,,,,,,,,,,,,,,,,,,,,,,,,MET11011/15/19 06:53:02 METAR KPNS 151253Z 34014G21KT 10SM BKN024 OVC034 08/06 A3016 RMK AO2 SLP216 T00830061 $ (JH),FM-15,7,,,,,,,,,,,,,,,,,,,,,,,,,,,,
72222313899,2019-11-15T07:01:00,FM-16,7,,,,,,,,,,,,,,,,,,,,,,,,,,,,,,,,,,,,,,30.15,43,47,,,,,86,,SCT:04 24 OVC:08 34,30.02,10,45,360,,14,,,,,,,,,,,,,,,,,,,,,,,,,,,,,,,,,,,,,MET10011/15/19 07:01:02 SPECI KPNS 151301Z 36012KT 10SM SCT024 OVC034 08/06 A3015 RMK AO2 T00830061 $ (JH),FM-16,7,,,,,,,,,,,,,,,,,,,,,,,,,,,,
72222313899,2019-11-15T07:53:00,FM-15,7,,,,,,,,,,,,,,,,,,,,,,,,,,,,,,,,,,,,,,30.16,42,49,0,,,,77,30.17,OVC:08 35,30.03,10,46,360,,11,,,,,,,,,,,,,,,,,,,,,,,,,,,,,,,,,,,,,MET10011/15/19 07:53:02 METAR KPNS 151353Z 36010KT 10SM OVC035 09/06 A3016 RMK AO2 SLP217 T00940056 $ (JH),FM-15,7,,,,,,,,,,,,,,,,,,,,,,,,,,,,
72222313899,2019-11-15T08:53:00,FM-15,7,,,,,,,,,,,,,,,,,,,,,,,,,,,,,,,,,,,,,,30.16,40,52,0,,-0.01,1,64,30.17,BKN:07 35,30.03,10,46,360,22,13,,,,,,,,,,,,,,,,,,,,,,,,,,,,,,,,,,,,,MET10911/15/19 08:53:02 METAR KPNS 151453Z 36011G19KT 10SM BKN035 11/04 A3016 RMK AO2 SLP217 T01110044 51002 $ (MT),FM-15,7,,,,,,,,,,,,,,,,,,,,,,,,,,,,
72222313899,2019-11-15T09:53:00,FM-15,7,,,,,,,,,,,,,,,,,,,,,,,,,,,,,,,,,,,,,,30.15,40,57,0,,,,53,30.15,CLR:00,30.02,10,49,340,21,14,,,,,,,,,,,,,,,,,,,,,,,,,,,,,,,,,,,,,MET10011/15/19 09:53:02 METAR KPNS 151553Z 34012G18KT 10SM CLR 14/04 A3015 RMK AO2 SLP211 T01390044 $ (MT),FM-15,7,,,,,,,,,,,,,,,,,,,,,,,,,,,,
72222313899,2019-11-15T10:53:00,FM-15,7,,,,,,,,,,,,,,,,,,,,,,,,,,,,,,,,,,,,,,30.12,39,59,0,,,,48,30.13,CLR:00,29.99,10,49,350,,11,,,,,,,,,,,,,,,,,,,,,,,,,,,,,,,,,,,,,MET09711/15/19 10:53:02 METAR KPNS 151653Z 35010KT 10SM CLR 15/04 A3012 RMK AO2 SLP203 T01500039 $ (MT),FM-15,7,,,,,,,,,,,,,,,,,,,,,,,,,,,,
72222313899,2019-11-15T11:53:00,FM-15,7,,,,,,,,,,,,,,,,,,,,,,,,,,,,,,,,,,,,,,30.09,41,62,0,,,,46,30.1,,29.96,10,51,340,,15,,,,,,,,,,,,,,,,,,,,,,,,,,,,,,,,,,,,,MET10011/15/19 11:53:02 METAR KPNS 151753Z 34013KT 10SM 17/05 A3009 RMK AO2 SLP192 T01670050 10172 20078 $,FM-15,7,,,,,,,,,,,,,,,,,,,,,,,,,,,,
72222313899,2019-11-15T12:53:00,FM-15,7,,,,,,,,,,,,,,,,,,,,,,,,,,,,,,,,,,,,,,30.07,42,63,0,,,,47,30.07,CLR:00,29.94,10,52,320,23,14,,,,,,,,,,,,,,,,,,,,,,,,,,,,,,,,,,,,,MET09511/15/19 12:53:02 METAR KPNS 151853Z 32012G20KT 10SM CLR 17/06 A3007 RMK AO2 SLP184 T01720056 $,FM-15,7,,,,,,,,,,,,,,,,,,,,,,,,,,,,
72222313899,2019-11-15T13:53:00,FM-15,7,,,,,,,,,,,,,,,,,,,,,,,,,,,,,,,,,,,,,,30.06,42,64,0,,,,45,30.06,OVC:08 36,29.93,10,53,350,23,16,,,,,,,,,,,,,,,,,,,,,,,,,,,,,,,,,,,,,MET10311/15/19 13:53:02 METAR KPNS 151953Z 35014G20KT 10SM OVC036 18/06 A3006 RMK AO2 SLP181 T01780056 $ (CL),FM-15,7,,,,,,,,,,,,,,,,,,,,,,,,,,,,
72222313899,2019-11-15T14:53:00,FM-15,7,,,,,,,,,,,,,,,,,,,,,,,,,,,,,,,,,,,,,,30.07,41,62,0,,0.03,5,46,30.07,OVC:08 43,29.94,10,51,350,21,13,,,,,,,,,,,,,,,,,,,,,,,,,,,,,,,,,,,,,MET10911/15/19 14:53:02 METAR KPNS 152053Z 35011G18KT 10SM OVC043 17/05 A3007 RMK AO2 SLP183 T01670050 55009 $ (CL),FM-15,7,,,,,,,,,,,,,,,,,,,,,,,,,,,,
72222313899,2019-11-15T15:53:00,FM-15,7,,,,,,,,,,,,,,,,,,,,,,,,,,,,,,,,,,,,,,30.07,39,60,0,,,,46,30.08,SCT:04 46,29.94,10,50,360,25,20,,,,,,,,,,,,,,,,,,,,,,,,,,,,,,,,,,,,,MET10311/15/19 15:53:02 METAR KPNS 152153Z 36017G22KT 10SM SCT046 16/04 A3007 RMK AO2 SLP185 T01560039 $ (CL),FM-15,7,,,,,,,,,,,,,,,,,,,,,,,,,,,,
72222313899,2019-11-15T16:53:00,FM-15,7,,,,,,,,,,,,,,,,,,,,,,,,,,,,,,,,,,,,,,30.09,35,57,0,,,,44,30.09,OVC:08 48,29.96,10,47,360,24,14,,,,,,,,,,,,,,,,,,,,,,,,,,,,,,,,,,,,,MET10311/15/19 16:53:02 METAR KPNS 152253Z 36012G21KT 10SM OVC048 14/02 A3009 RMK AO2 SLP191 T01390017 $ (SN),FM-15,7,,,,,,,,,,,,,,,,,,,,,,,,,,,,
72222313899,2019-11-15T17:53:00,FM-15,7,,,,,,,,,,,,,,,,,,,,,,,,,,,,,,,,,,,,,,30.11,34,56,0,,-0.04,3,44,30.12,OVC:08 40,29.98,10,46,350,,11,,,,,,,,,,,,,,,,,,,,,,,,,,,,,,,,,,,,,MET11811/15/19 17:53:02 METAR KPNS 152353Z 35010KT 10SM OVC040 13/01 A3011 RMK AO2 SLP199 T01330011 10178 20133 53015 $ (SN),FM-15,7,,,,,,,,,,,,,,,,,,,,,,,,,,,,
72222313899,2019-11-15T18:53:00,FM-15,7,,,,,,,,,,,,,,,,,,,,,,,,,,,,,,,,,,,,,,30.12,35,54,0,,,,49,30.13,OVC:08 41,29.99,10,45,350,,10,,,,,,,,,,,,,,,,,,,,,,,,,,,,,,,,,,,,,MET09511/15/19 18:53:01 METAR KPNS 160053Z 35009KT 10SM OVC041 12/02 A3012 RMK AO2 SLP204 T01220017 $,FM-15,7,,,,,,,,,,,,,,,,,,,,,,,,,,,,
72222313899,2019-11-15T19:53:00,FM-15,7,,,,,,,,,,,,,,,,,,,,,,,,,,,,,,,,,,,,,,30.13,33,52,0,,,,49,30.14,OVC:08 47,30,10,44,350,,13,,,,,,,,,,,,,,,,,,,,,,,,,,,,,,,,,,,,,MET09511/15/19 19:53:01 METAR KPNS 160153Z 35011KT 10SM OVC047 11/01 A3013 RMK AO2 SLP206 T01110006 $,FM-15,7,,,,,,,,,,,,,,,,,,,,,,,,,,,,
72222313899,2019-11-15T20:53:00,FM-15,7,,,,,,,,,,,,,,,,,,,,,,,,,,,,,,,,,,,,,,30.14,34,49,0,,-0.03,1,56,30.15,CLR:00,30.01,10,42,350,,9,,,,,,,,,,,,,,,,,,,,,,,,,,,,,,,,,,,,,MET09811/15/19 20:53:01 METAR KPNS 160253Z 35008KT 10SM CLR 09/01 A3014 RMK AO2 SLP209 T00940011 51009 $,FM-15,7,,,,,,,,,,,,,,,,,,,,,,,,,,,,
72222313899,2019-11-15T21:53:00,FM-15,7,,,,,,,,,,,,,,,,,,,,,,,,,,,,,,,,,,,,,,30.14,35,49,0,,,,59,30.15,CLR:00,30.01,10,43,350,,11,,,,,,,,,,,,,,,,,,,,,,,,,,,,,,,,,,,,,MET09211/15/19 21:53:01 METAR KPNS 160353Z 35010KT 10SM CLR 09/02 A3014 RMK AO2 SLP209 T00940017 $,FM-15,7,,,,,,,,,,,,,,,,,,,,,,,,,,,,
72222313899,2019-11-15T22:53:00,FM-15,7,,,,,,,,,,,,,,,,,,,,,,,,,,,,,,,,,,,,,,30.12,34,48,0,,,,58,30.13,,29.99,10,42,350,,10,,,,,,,,,,,,,,,,,,,,,,,,,,,,,,,,,,,,,MET08811/15/19 22:53:02 METAR KPNS 160453Z 35009KT 10SM 09/01 A3012 RMK AO2 SLP202 T00890011 $,FM-15,7,,,,,,,,,,,,,,,,,,,,,,,,,,,,
72222313899,2019-11-15T23:53:00,FM-15,7,,,,,,,,,,,,,,,,,,,,,,,,,,,,,,,,,,,,,,30.12,36,46,0,,,,68,30.12,CLR:00,29.99,10,42,320,,13,,,,,,,,,,,,,,,,,,,,,,,,,,,,,,,,,,,,,MET11411/15/19 23:53:02 METAR KPNS 160553Z 32011KT 10SM CLR 08/02 A3012 RMK AO2 SLP201 T00780022 10133 20078 401780078 $,FM-15,7,,,,,,,,,,,,,,,,,,,,,,,,,,,,
72222313899,2019-11-15T23:59:00,SOD  ,6,,,,,,,,,,,,,,,39,55,64,30.13,30,46,13.1,0,-6.2,10,64,46,340,28,0,,,340,23,,,,,,,,,,,,,,,,,,,,,,,,,,,,,,,,,,,,,,,,,,,,,,,,,,,,,,,,,SOD74324 HR PRECIPITATION (IN): 0.00 SNOW DEPTH (IN):0     24 HR SNOWFALL (IN):0.0  24 HR MAX TEMP (F): 6424 HR MIN TEMP (F): 46AVERAGE STATION PRESSURE(D):30.003 MINIMUM SEA LEVEL PRESSURE:30.06 TIME OF OCCURRENCE:1522 PEAK WIND SPEED (MPH): 28 PEAK WIND DIR (DEG):340 PEAK WIND TIME (LST):      FASTEST 2MIN SPEED (MPH): 23FASTEST 2MIN DIR (DEG):340 FASTEST 2MIN TIME (LST):     AVERAGE WIND SPEED (MPH):13.1 24 HR AVG TEMP (F): 55DEPART FROM NORMAL: -6  HEATING DEGREE DAYS: 10 COOLING DEGREE DAYS:  0 LATEST DAY MAX TEMP (0700-1900 LST): 64 LATEST NIGHT MIN TEMP(1900-0800 LST):46 HOURLY INCREMENTAL PRECIPITATION VALUES (IN):0.00 0.00 0.00 0.00 0.00 0.00 0.00 0.00 0.00 0.00 0.00 0.00 0.00 0.00 0.00 0.00 0.00 0.00 0.00 0.00 0.00 0.00 0.00 0.00,SOD  ,6,,,,,,,,,,,,,,,,,,,,,,,,,615,1652,,
72222313899,2019-11-16T00:53:00,FM-15,7,,,,,,,,,,,,,,,,,,,,,,,,,,,,,,,,,,,,,,30.1,35,47,0,,,,63,30.11,CLR:00,29.97,10,42,350,22,15,,,,,,,,,,,,,,,,,,,,,,,,,,,,,,,,,,,,,MET09511/16/19 00:53:02 METAR KPNS 160653Z 35013G19KT 10SM CLR 08/02 A3010 RMK AO2 SLP195 T00830017 $,FM-15,7,,,,,,,,,,,,,,,,,,,,,,,,,,,,
72222313899,2019-11-16T01:53:00,FM-15,7,,,,,,,,,,,,,,,,,,,,,,,,,,,,,,,,,,,,,,30.08,34,45,0,,,,66,30.09,CLR:00,29.95,10,40,350,,11,,,,,,,,,,,,,,,,,,,,,,,,,,,,,,,,,,,,,MET09211/16/19 01:53:02 METAR KPNS 160753Z 35010KT 10SM CLR 07/01 A3008 RMK AO2 SLP188 T00720011 $,FM-15,7,,,,,,,,,,,,,,,,,,,,,,,,,,,,
72222313899,2019-11-16T02:53:00,FM-15,7,,,,,,,,,,,,,,,,,,,,,,,,,,,,,,,,,,,,,,30.08,35,45,0,,0.04,6,68,30.08,CLR:00,29.95,10,41,340,,16,,,,,,,,,,,,,,,,,,,,,,,,,,,,,,,,,,,,,MET09811/16/19 02:53:02 METAR KPNS 160853Z 34014KT 10SM CLR 07/02 A3008 RMK AO2 SLP187 T00720017 56014 $,FM-15,7,,,,,,,,,,,,,,,,,,,,,,,,,,,,
72222313899,2019-11-16T03:53:00,FM-15,7,,,,,,,,,,,,,,,,,,,,,,,,,,,,,,,,,,,,,,30.08,34,43,0,,,,71,30.09,CLR:00,29.95,10,39,350,,9,,,,,,,,,,,,,,,,,,,,,,,,,,,,,,,,,,,,,MET09211/16/19 03:53:02 METAR KPNS 160953Z 35008KT 10SM CLR 06/01 A3008 RMK AO2 SLP188 T00610011 $,FM-15,7,,,,,,,,,,,,,,,,,,,,,,,,,,,,
72222313899,2019-11-16T04:53:00,FM-15,7,,,,,,,,,,,,,,,,,,,,,,,,,,,,,,,,,,,,,,30.09,34,42,0,,,,73,30.1,CLR:00,29.96,10,39,330,,13,,,,,,,,,,,,,,,,,,,,,,,,,,,,,,,,,,,,,MET09211/16/19 04:53:02 METAR KPNS 161053Z 33011KT 10SM CLR 06/01 A3009 RMK AO2 SLP193 T00560011 $,FM-15,7,,,,,,,,,,,,,,,,,,,,,,,,,,,,
72222313899,2019-11-16T05:53:00,FM-15,7,,,,,,,,,,,,,,,,,,,,,,,,,,,,,,,,,,,,,,30.1,33,42,0,,-0.02,3,71,30.11,CLR:00,29.97,10,38,350,,13,,,,,,,,,,,,,,,,,,,,,,,,,,,,,,,,,,,,,MET11511/16/19 05:53:02 METAR KPNS 161153Z 35011KT 10SM CLR 06/01 A3010 RMK AO2 SLP196 T00560006 10089 20056 53008 $ (MT),FM-15,7,,,,,,,,,,,,,,,,,,,,,,,,,,,,
72222313899,2019-11-16T06:53:00,FM-15,7,,,,,,,,,,,,,,,,,,,,,,,,,,,,,,,,,,,,,,30.12,34,42,0,,,,73,30.12,CLR:00,29.99,10,39,340,,10,,,,,,,,,,,,,,,,,,,,,,,,,,,,,,,,,,,,,MET09711/16/19 06:53:02 METAR KPNS 161253Z 34009KT 10SM CLR 06/01 A3012 RMK AO2 SLP201 T00560011 $ (MT),FM-15,7,,,,,,,,,,,,,,,,,,,,,,,,,,,,
72222313899,2019-11-16T07:53:00,FM-15,7,,,,,,,,,,,,,,,,,,,,,,,,,,,,,,,,,,,,,,30.12,33,46,0,,,,61,30.13,CLR:00,29.99,10,40,340,,16,,,,,,,,,,,,,,,,,,,,,,,,,,,,,,,,,,,,,MET09711/16/19 07:53:02 METAR KPNS 161353Z 34014KT 10SM CLR 08/01 A3012 RMK AO2 SLP203 T00780006 $ (MT),FM-15,7,,,,,,,,,,,,,,,,,,,,,,,,,,,,
72222313899,2019-11-16T08:53:00,FM-15,7,,,,,,,,,,,,,,,,,,,,,,,,,,,,,,,,,,,,,,30.12,34,49,0,,-0.02,0,56,30.13,CLR:00,29.99,10,42,360,,13,,,,,,,,,,,,,,,,,,,,,,,,,,,,,,,,,,,,,MET10311/16/19 08:53:02 METAR KPNS 161453Z 36011KT 10SM CLR 09/01 A3012 RMK AO2 SLP203 T00940011 50007 $ (KP),FM-15,7,,,,,,,,,,,,,,,,,,,,,,,,,,,,
72222313899,2019-11-16T09:53:00,FM-15,7,,,,,,,,,,,,,,,,,,,,,,,,,,,,,,,,,,,,,,30.11,36,54,0,,,,51,30.12,CLR:00,29.98,10,46,340,,10,,,,,,,,,,,,,,,,,,,,,,,,,,,,,,,,,,,,,MET09711/16/19 09:53:02 METAR KPNS 161553Z 34009KT 10SM CLR 12/02 A3011 RMK AO2 SLP200 T01220022 $ (KP),FM-15,7,,,,,,,,,,,,,,,,,,,,,,,,,,,,
72222313899,2019-11-16T10:53:00,FM-15,7,,,,,,,,,,,,,,,,,,,,,,,,,,,,,,,,,,,,,,30.09,37,59,0,,,,44,30.09,CLR:00,29.96,10,48,360,,11,,,,,,,,,,,,,,,,,,,,,,,,,,,,,,,,,,,,,MET09711/16/19 10:53:02 METAR KPNS 161653Z 36010KT 10SM CLR 15/03 A3009 RMK AO2 SLP189 T01500028 $ (KP),FM-15,7,,,,,,,,,,,,,,,,,,,,,,,,,,,,
72222313899,2019-11-16T11:53:00,FM-15,7,,,,,,,,,,,,,,,,,,,,,,,,,,,,,,,,,,,,,,30.05,37,63,0,,0.07,8,38,30.06,CLR:00,29.92,10,50,340,,13,,,,,,,,,,,,,,,,,,,,,,,,,,,,,,,,,,,,,MET11511/16/19 11:53:02 METAR KPNS 161753Z 34011KT 10SM CLR 17/03 A3005 RMK AO2 SLP179 T01720028 10172 20050 58023 $ (KP),FM-15,7,,,,,,,,,,,,,,,,,,,,,,,,,,,,
72222313899,2019-11-16T12:53:00,FM-15,7,,,,,,,,,,,,,,,,,,,,,,,,,,,,,,,,,,,,,,30.03,39,65,0,,,,39,30.03,CLR:00,29.9,10,52,20,17,13,,,,,,,,,,,,,,,,,,,,,,,,,,,,,,,,,,,,,MET10011/16/19 12:53:02 METAR KPNS 161853Z 02011G15KT 10SM CLR 18/04 A3003 RMK AO2 SLP171 T01830039 $ (BB),FM-15,7,,,,,,,,,,,,,,,,,,,,,,,,,,,,
72222313899,2019-11-16T13:53:00,FM-15,7,,,,,,,,,,,,,,,,,,,,,,,,,,,,,,,,,,,,,,30.01,40,66,0,,,,39,30.02,CLR:00,29.88,10,53,340,17,8,,,,,,,,,,,,,,,,,,,,,,,,,,,,,,,,,,,,,MET10011/16/19 13:53:02 METAR KPNS 161953Z 34007G15KT 10SM CLR 19/04 A3001 RMK AO2 SLP166 T01890044 $ (BB),FM-15,7,,,,,,,,,,,,,,,,,,,,,,,,,,,,
72222313899,2019-11-16T14:53:00,FM-15,7,,,,,,,,,,,,,,,,,,,,,,,,,,,,,,,,,,,,,,30.01,40,66,0,,,,39,30.01,CLR:00,29.88,10,53,340,,8,,,,,,,,,,,,,,,,,,,,,,,,,,,,,,,,,,,,,MET09711/16/19 14:53:02 METAR KPNS 162053Z 34007KT 10SM CLR 19/04 A3001 RMK AO2 SLP164 T01890044 $ (BB),FM-15,7,,,,,,,,,,,,,,,,,,,,,,,,,,,,
72222313899,2019-11-16T15:53:00,FM-15,7,,,,,,,,,,,,,,,,,,,,,,,,,,,,,,,,,,,,,,30.01,41,65,0,,,,42,30.01,CLR:00,29.88,10,53,360,,8,,,,,,,,,,,,,,,,,,,,,,,,,,,,,,,,,,,,,MET09711/16/19 15:53:02 METAR KPNS 162153Z 36007KT 10SM CLR 18/05 A3001 RMK AO2 SLP164 T01830050 $ (BB),FM-15,7,,,,,,,,,,,,,,,,,,,,,,,,,,,,
72222313899,2019-11-16T16:53:00,FM-15,7,,,,,,,,,,,,,,,,,,,,,,,,,,,,,,,,,,,,,,30.02,42,57,0,,,,58,30.02,CLR:00,29.89,10,50,330,,6,,,,,,,,,,,,,,,,,,,,,,,,,,,,,,,,,,,,,MET09711/16/19 16:53:02 METAR KPNS 162253Z 33005KT 10SM CLR 14/06 A3002 RMK AO2 SLP167 T01390056 $ (AB),FM-15,7,,,,,,,,,,,,,,,,,,,,,,,,,,,,
72222313899,2019-11-16T17:53:00,FM-15,7,,,,,,,,,,,,,,,,,,,,,,,,,,,,,,,,,,,,,,30.03,42,53,0,,-0.02,3,66,30.04,CLR:00,29.9,10,48,340,,8,,,,,,,,,,,,,,,,,,,,,,,,,,,,,,,,,,,,,MET11511/16/19 17:53:02 METAR KPNS 162353Z 34007KT 10SM CLR 12/06 A3003 RMK AO2 SLP172 T01170056 10194 20117 53007 $ (AB),FM-15,7,,,,,,,,,,,,,,,,,,,,,,,,,,,,
72222313899,2019-11-16T18:00:00,SHEF ,4,,,,,,,,,,,,,,,,,,,,,,,,,,,,,,,,,,,,,,,,,,,,,,,,,,,,,,,,,,,,,,,,,,,,,,,,,,,,,,,,,,,,,,,,,,,SHEF ,4,,,,,,,,,,,,,,,,,,,,,,,,,,,,
72222313899,2019-11-16T18:53:00,FM-15,7,,,,,,,,,,,,,,,,,,,,,,,,,,,,,,,,,,,,,,30.04,42,53,0,,,,66,30.05,CLR:00,29.91,10,48,330,,6,,,,,,,,,,,,,,,,,,,,,,,,,,,,,,,,,,,,,MET09211/16/19 18:53:01 METAR KPNS 170053Z 33005KT 10SM CLR 12/06 A3004 RMK AO2 SLP175 T01170056 $,FM-15,7,,,,,,,,,,,,,,,,,,,,,,,,,,,,
72222313899,2019-11-16T19:53:00,FM-15,7,,,,,,,,,,,,,,,,,,,,,,,,,,,,,,,,,,,,,,30.05,42,52,0,,,,69,30.06,CLR:00,29.92,10,47,350,,8,,,,,,,,,,,,,,,,,,,,,,,,,,,,,,,,,,,,,MET09211/16/19 19:53:01 METAR KPNS 170153Z 35007KT 10SM CLR 11/06 A3005 RMK AO2 SLP179 T01110056 $,FM-15,7,,,,,,,,,,,,,,,,,,,,,,,,,,,,
72222313899,2019-11-16T20:53:00,FM-15,7,,,,,,,,,,,,,,,,,,,,,,,,,,,,,,,,,,,,,,30.05,41,51,0,,-0.02,1,69,30.06,CLR:00,29.92,10,46,350,,7,,,,,,,,,,,,,,,,,,,,,,,,,,,,,,,,,,,,,MET09811/16/19 20:53:01 METAR KPNS 170253Z 35006KT 10SM CLR 11/05 A3005 RMK AO2 SLP179 T01060050 51007 $,FM-15,7,,,,,,,,,,,,,,,,,,,,,,,,,,,,
72222313899,2019-11-16T21:53:00,FM-15,7,,,,,,,,,,,,,,,,,,,,,,,,,,,,,,,,,,,,,,30.05,40,52,0,,,,64,30.06,CLR:00,29.92,10,46,360,,9,,,,,,,,,,,,,,,,,,,,,,,,,,,,,,,,,,,,,MET09211/16/19 21:53:01 METAR KPNS 170353Z 36008KT 10SM CLR 11/04 A3005 RMK AO2 SLP178 T01110044 $,FM-15,7,,,,,,,,,,,,,,,,,,,,,,,,,,,,
72222313899,2019-11-16T22:53:00,FM-15,7,,,,,,,,,,,,,,,,,,,,,,,,,,,,,,,,,,,,,,30.04,40,51,0,,,,66,30.05,CLR:00,29.91,10,46,360,,8,,,,,,,,,,,,,,,,,,,,,,,,,,,,,,,,,,,,,MET09211/16/19 22:53:02 METAR KPNS 170453Z 36007KT 10SM CLR 11/04 A3004 RMK AO2 SLP175 T01060044 $,FM-15,7,,,,,,,,,,,,,,,,,,,,,,,,,,,,
72222313899,2019-11-16T23:53:00,FM-15,7,,,,,,,,,,,,,,,,,,,,,,,,,,,,,,,,,,,,,,30.04,39,50,0,,0.01,8,66,30.04,CLR:00,29.91,10,45,360,,9,,,,,,,,,,,,,,,,,,,,,,,,,,,,,,,,,,,,,MET12011/16/19 23:53:02 METAR KPNS 170553Z 36008KT 10SM CLR 10/04 A3004 RMK AO2 SLP173 T01000039 10117 20094 401940050 58005 $,FM-15,7,,,,,,,,,,,,,,,,,,,,,,,,,,,,
72222313899,2019-11-16T23:59:00,SOD  ,6,,,,,,,,,,,,,,,38,54,59,30.07,29.93,46,10.4,0,-6.9,11,67,41,330,23,0,,,340,17,,,,,,,,,,,,,,,,,,,,,,,,,,,,,,,,,,,,,,,,,,,,,,,,,,,,,,,,,SOD74324 HR PRECIPITATION (IN): 0.00 SNOW DEPTH (IN):0     24 HR SNOWFALL (IN):0.0  24 HR MAX TEMP (F): 6724 HR MIN TEMP (F): 41AVERAGE STATION PRESSURE(D):29.936 MINIMUM SEA LEVEL PRESSURE:30.01 TIME OF OCCURRENCE:1611 PEAK WIND SPEED (MPH): 23 PEAK WIND DIR (DEG):330 PEAK WIND TIME (LST):      FASTEST 2MIN SPEED (MPH): 17FASTEST 2MIN DIR (DEG):340 FASTEST 2MIN TIME (LST):     AVERAGE WIND SPEED (MPH):10.4 24 HR AVG TEMP (F): 54DEPART FROM NORMAL: -7  HEATING DEGREE DAYS: 11 COOLING DEGREE DAYS:  0 LATEST DAY MAX TEMP (0700-1900 LST): 67 LATEST NIGHT MIN TEMP(1900-0800 LST):41 HOURLY INCREMENTAL PRECIPITATION VALUES (IN):0.00 0.00 0.00 0.00 0.00 0.00 0.00 0.00 0.00 0.00 0.00 0.00 0.00 0.00 0.00 0.00 0.00 0.00 0.00 0.00 0.00 0.00 0.00 0.00,SOD  ,6,,,,,,,,,,,,,,,,,,,,,,,,,615,1651,,
72222313899,2019-11-17T00:53:00,FM-15,7,,,,,,,,,,,,,,,,,,,,,,,,,,,,,,,,,,,,,,30.04,39,49,0,,,,69,30.04,CLR:00,29.91,10,44,350,,8,,,,,,,,,,,,,,,,,,,,,,,,,,,,,,,,,,,,,MET09211/17/19 00:53:02 METAR KPNS 170653Z 35007KT 10SM CLR 09/04 A3004 RMK AO2 SLP173 T00940039 $,FM-15,7,,,,,,,,,,,,,,,,,,,,,,,,,,,,
72222313899,2019-11-17T01:53:00,FM-15,7,,,,,,,,,,,,,,,,,,,,,,,,,,,,,,,,,,,,,,30.02,39,48,0,,,,71,30.03,CLR:00,29.89,10,44,360,,7,,,,,,,,,,,,,,,,,,,,,,,,,,,,,,,,,,,,,MET09211/17/19 01:53:02 METAR KPNS 170753Z 36006KT 10SM CLR 09/04 A3002 RMK AO2 SLP169 T00890039 $,FM-15,7,,,,,,,,,,,,,,,,,,,,,,,,,,,,
72222313899,2019-11-17T02:53:00,FM-15,7,,,,,,,,,,,,,,,,,,,,,,,,,,,,,,,,,,,,,,30.03,38,48,0,,0.01,5,68,30.03,CLR:00,29.9,10,43,360,,8,,,,,,,,,,,,,,,,,,,,,,,,,,,,,,,,,,,,,MET09811/17/19 02:53:02 METAR KPNS 170853Z 36007KT 10SM CLR 09/03 A3003 RMK AO2 SLP170 T00890033 55004 $,FM-15,7,,,,,,,,,,,,,,,,,,,,,,,,,,,,
72222313899,2019-11-17T03:53:00,FM-15,7,,,,,,,,,,,,,,,,,,,,,,,,,,,,,,,,,,,,,,30.03,39,47,0,,,,74,30.03,CLR:00,29.9,10,43,10,,7,,,,,,,,,,,,,,,,,,,,,,,,,,,,,,,,,,,,,MET09211/17/19 03:53:02 METAR KPNS 170953Z 01006KT 10SM CLR 08/04 A3003 RMK AO2 SLP170 T00830039 $,FM-15,7,,,,,,,,,,,,,,,,,,,,,,,,,,,,
72222313899,2019-11-17T04:53:00,FM-15,7,,,,,,,,,,,,,,,,,,,,,,,,,,,,,,,,,,,,,,30.02,39,46,0,,,,77,30.03,CLR:00,29.89,10,43,10,,5,,,,,,,,,,,,,,,,,,,,,,,,,,,,,,,,,,,,,MET09211/17/19 04:53:02 METAR KPNS 171053Z 01004KT 10SM CLR 08/04 A3002 RMK AO2 SLP169 T00780039 $,FM-15,7,,,,,,,,,,,,,,,,,,,,,,,,,,,,
72222313899,2019-11-17T05:53:00,FM-15,7,,,,,,,,,,,,,,,,,,,,,,,,,,,,,,,,,,,,,,30.03,40,45,0,,-0.01,3,83,30.04,CLR:00,29.9,10,43,20,,6,,,,,,,,,,,,,,,,,,,,,,,,,,,,,,,,,,,,,MET11511/17/19 05:53:02 METAR KPNS 171153Z 02005KT 10SM CLR 07/04 A3003 RMK AO2 SLP173 T00720044 10100 20072 53002 $ (SN),FM-15,7,,,,,,,,,,,,,,,,,,,,,,,,,,,,
72222313899,2019-11-17T06:53:00,FM-15,7,,,,,,,,,,,,,,,,,,,,,,,,,,,,,,,,,,,,,,30.04,42,47,0,,,,83,30.05,CLR:00,29.91,10,45,40,,6,,,,,,,,,,,,,,,,,,,,,,,,,,,,,,,,,,,,,MET09711/17/19 06:53:02 METAR KPNS 171253Z 04005KT 10SM CLR 08/06 A3004 RMK AO2 SLP177 T00830056 $ (SN),FM-15,7,,,,,,,,,,,,,,,,,,,,,,,,,,,,
72222313899,2019-11-17T07:53:00,FM-15,7,,,,,,,,,,,,,,,,,,,,,,,,,,,,,,,,,,,,,,30.05,46,54,0,,,,75,30.06,FEW:02 37,29.92,10,50,VRB,,3,,,,,,,,,,,,,,,,,,,,,,,,,,,,,,,,,,,,,MET10011/17/19 07:53:02 METAR KPNS 171353Z VRB03KT 10SM FEW037 12/08 A3005 RMK AO2 SLP180 T01220078 $ (SN),FM-15,7,,,,,,,,,,,,,,,,,,,,,,,,,,,,
72222313899,2019-11-17T08:53:00,FM-15,7,,,,,,,,,,,,,,,,,,,,,,,,,,,,,,,,,,,,,,30.06,49,59,0,,-0.02,1,69,30.06,SCT:04 39,29.93,10,54,VRB,,7,,,,,,,,,,,,,,,,,,,,,,,,,,,,,,,,,,,,,MET10611/17/19 08:53:02 METAR KPNS 171453Z VRB06KT 10SM SCT039 15/09 A3006 RMK AO2 SLP180 T01500094 51008 $ (KP),FM-15,7,,,,,,,,,,,,,,,,,,,,,,,,,,,,
72222313899,2019-11-17T09:53:00,FM-15,7,,,,,,,,,,,,,,,,,,,,,,,,,,,,,,,,,,,,,,30.04,49,63,0,,,,60,30.05,CLR:00,29.91,10,55,110,,10,,,,,,,,,,,,,,,,,,,,,,,,,,,,,,,,,,,,,MET09711/17/19 09:53:02 METAR KPNS 171553Z 11009KT 10SM CLR 17/09 A3004 RMK AO2 SLP175 T01720094 $ (KP),FM-15,7,,,,,,,,,,,,,,,,,,,,,,,,,,,,
72222313899,2019-11-17T10:53:00,FM-15,7,,,,,,,,,,,,,,,,,,,,,,,,,,,,,,,,,,,,,,30.03,48,66,0,,,,52,30.03,CLR:00,29.9,10,56,VRB,,5,,,,,,,,,,,,,,,,,,,,,,,,,,,,,,,,,,,,,MET09711/17/19 10:53:02 METAR KPNS 171653Z VRB04KT 10SM CLR 19/09 A3003 RMK AO2 SLP171 T01890089 $ (KP),FM-15,7,,,,,,,,,,,,,,,,,,,,,,,,,,,,
72222313899,2019-11-17T11:53:00,FM-15,7,,,,,,,,,,,,,,,,,,,,,,,,,,,,,,,,,,,,,,30,48,65,0,,0.06,8,54,30,CLR:00,29.87,10,56,VRB,,3,,,,,,,,,,,,,,,,,,,,,,,,,,,,,,,,,,,,,MET11511/17/19 11:53:02 METAR KPNS 171753Z VRB03KT 10SM CLR 18/09 A3000 RMK AO2 SLP160 T01830089 10194 20072 58020 $ (KP),FM-15,7,,,,,,,,,,,,,,,,,,,,,,,,,,,,
72222313899,2019-11-17T12:53:00,FM-15,7,,,,,,,,,,,,,,,,,,,,,,,,,,,,,,,,,,,,,,29.96,47,68,0,,,,47,29.97,CLR:00,29.83,10,57,0,,0,,,,,,,,,,,,,,,,,,,,,,,,,,,,,,,,,,,,,MET09711/17/19 12:53:02 METAR KPNS 171853Z 00000KT 10SM CLR 20/08 A2996 RMK AO2 SLP149 T02000083 $ (KP),FM-15,7,,,,,,,,,,,,,,,,,,,,,,,,,,,,
72222313899,2019-11-17T13:53:00,FM-15,7,,,,,,,,,,,,,,,,,,,,,,,,,,,,,,,,,,,,,,29.94,50,65,0,,,,59,29.95,CLR:00,29.81,10,57,150,,7,,,,,,,,,,,,,,,,,,,,,,,,,,,,,,,,,,,,,MET09711/17/19 13:53:02 METAR KPNS 171953Z 15006KT 10SM CLR 18/10 A2994 RMK AO2 SLP141 T01830100 $ (KP),FM-15,7,,,,,,,,,,,,,,,,,,,,,,,,,,,,
72222313899,2019-11-17T14:53:00,FM-15,7,,,,,,,,,,,,,,,,,,,,,,,,,,,,,,,,,,,,,,29.94,51,66,0,,0.06,6,59,29.94,CLR:00,29.81,10,58,190,,6,,,,,,,,,,,,,,,,,,,,,,,,,,,,,,,,,,,,,MET10311/17/19 14:53:02 METAR KPNS 172053Z 19005KT 10SM CLR 19/11 A2994 RMK AO2 SLP139 T01890106 56021 $ (KP),FM-15,7,,,,,,,,,,,,,,,,,,,,,,,,,,,,
72222313899,2019-11-17T15:53:00,FM-15,7,,,,,,,,,,,,,,,,,,,,,,,,,,,,,,,,,,,,,,29.92,53,65,0,,,,66,29.93,CLR:00,29.79,10,58,220,,6,,,,,,,,,,,,,,,,,,,,,,,,,,,,,,,,,,,,,MET09711/17/19 15:53:02 METAR KPNS 172153Z 22005KT 10SM CLR 18/12 A2992 RMK AO2 SLP134 T01830117 $ (KP),FM-15,7,,,,,,,,,,,,,,,,,,,,,,,,,,,,
72222313899,2019-11-17T16:53:00,FM-15,7,,,,,,,,,,,,,,,,,,,,,,,,,,,,,,,,,,,,,,29.92,53,61,0,,,,75,29.92,CLR:00,29.79,10,57,220,,5,,,,,,,,,,,,,,,,,,,,,,,,,,,,,,,,,,,,,MET09711/17/19 16:53:02 METAR KPNS 172253Z 22004KT 10SM CLR 16/12 A2992 RMK AO2 SLP132 T01610117 $ (DD),FM-15,7,,,,,,,,,,,,,,,,,,,,,,,,,,,,
72222313899,2019-11-17T17:53:00,FM-15,7,,,,,,,,,,,,,,,,,,,,,,,,,,,,,,,,,,,,,,29.93,53,60,0,,0.01,5,78,29.94,CLR:00,29.8,10,56,290,,5,,,,,,,,,,,,,,,,,,,,,,,,,,,,,,,,,,,,,MET11511/17/19 17:53:02 METAR KPNS 172353Z 29004KT 10SM CLR 16/12 A2993 RMK AO2 SLP138 T01560117 10200 20156 55002 $ (DD),FM-15,7,,,,,,,,,,,,,,,,,,,,,,,,,,,,
72222313899,2019-11-17T18:53:00,FM-15,7,,,,,,,,,,,,,,,,,,,,,,,,,,,,,,,,,,,,,,29.94,52,58,0,,,,81,29.95,CLR:00,29.81,10,55,300,,6,,,,,,,,,,,,,,,,,,,,,,,,,,,,,,,,,,,,,MET09211/17/19 18:53:01 METAR KPNS 180053Z 30005KT 10SM CLR 14/11 A2994 RMK AO2 SLP141 T01440111 $,FM-15,7,,,,,,,,,,,,,,,,,,,,,,,,,,,,
72222313899,2019-11-17T19:53:00,FM-15,7,,,,,,,,,,,,,,,,,,,,,,,,,,,,,,,,,,,,,,29.92,52,55,0,,,,90,29.93,CLR:00,29.79,10,53,0,,0,,,,,,,,,,,,,,,,,,,,,,,,,,,,,,,,,,,,,MET09211/17/19 19:53:01 METAR KPNS 180153Z 00000KT 10SM CLR 13/11 A2992 RMK AO2 SLP134 T01280111 $,FM-15,7,,,,,,,,,,,,,,,,,,,,,,,,,,,,
72222313899,2019-11-17T20:53:00,FM-15,7,,,,,,,,,,,,,,,,,,,,,,,,,,,,,,,,,,,,,,29.93,51,53,0,,0,5,93,29.93,CLR:00,29.8,10,52,300,,6,,,,,,,,,,,,,,,,,,,,,,,,,,,,,,,,,,,,,MET09811/17/19 20:53:01 METAR KPNS 180253Z 30005KT 10SM CLR 12/11 A2993 RMK AO2 SLP137 T01170106 55000 $,FM-15,7,,,,,,,,,,,,,,,,,,,,,,,,,,,,
72222313899,2019-11-17T21:53:00,FM-15,7,,,,,,,,,,,,,,,,,,,,,,,,,,,,,,,,,,,,,,29.92,50,53,0,,,,89,29.93,CLR:00,29.79,10,51,280,,3,,,,,,,,,,,,,,,,,,,,,,,,,,,,,,,,,,,,,MET09211/17/19 21:53:01 METAR KPNS 180353Z 28003KT 10SM CLR 12/10 A2992 RMK AO2 SLP134 T01170100 $,FM-15,7,,,,,,,,,,,,,,,,,,,,,,,,,,,,
72222313899,2019-11-17T22:53:00,FM-15,7,,,,,,,,,,,,,,,,,,,,,,,,,,,,,,,,,,,,,,29.93,49,53,0,,,,86,29.93,CLR:00,29.8,10,51,300,,3,,,,,,,,,,,,,,,,,,,,,,,,,,,,,,,,,,,,,MET09211/17/19 22:53:02 METAR KPNS 180453Z 30003KT 10SM CLR 12/09 A2993 RMK AO2 SLP135 T01170094 $,FM-15,7,,,,,,,,,,,,,,,,,,,,,,,,,,,,
72222313899,2019-11-17T23:53:00,FM-15,7,,,,,,,,,,,,,,,,,,,,,,,,,,,,,,,,,,,,,,29.92,49,52,0,,0.01,6,89,29.92,CLR:00,29.79,10,50,320,,3,,,,,,,,,,,,,,,,,,,,,,,,,,,,,,,,,,,,,MET12011/17/19 23:53:02 METAR KPNS 180553Z 32003KT 10SM CLR 11/09 A2992 RMK AO2 SLP132 T01110094 10156 20100 402000072 56005 $,FM-15,7,,,,,,,,,,,,,,,,,,,,,,,,,,,,
72222313899,2019-11-17T23:59:00,SOD  ,6,,,,,,,,,,,,,,,47,57,73,29.99,29.85,51,5.2,0,-3.6,8,68,45,110,14,0,,,100,12,,,,,,,,,,,,,,,,,,,,,,,,,,,,,,,,,,,,,,,,,,,,,,,,,,,,,,,,,SOD74324 HR PRECIPITATION (IN): 0.00 SNOW DEPTH (IN):0     24 HR SNOWFALL (IN):0.0  24 HR MAX TEMP (F): 6824 HR MIN TEMP (F): 45AVERAGE STATION PRESSURE(D):29.854 MINIMUM SEA LEVEL PRESSURE:29.91 TIME OF OCCURRENCE:1647 PEAK WIND SPEED (MPH): 14 PEAK WIND DIR (DEG):110 PEAK WIND TIME (LST):      FASTEST 2MIN SPEED (MPH): 12FASTEST 2MIN DIR (DEG):100 FASTEST 2MIN TIME (LST):     AVERAGE WIND SPEED (MPH): 5.2 24 HR AVG TEMP (F): 57DEPART FROM NORMAL: -3  HEATING DEGREE DAYS:  8 COOLING DEGREE DAYS:  0 LATEST DAY MAX TEMP (0700-1900 LST): 68 LATEST NIGHT MIN TEMP(1900-0800 LST):45 HOURLY INCREMENTAL PRECIPITATION VALUES (IN):0.00 0.00 0.00 0.00 0.00 0.00 0.00 0.00 0.00 0.00 0.00 0.00 0.00 0.00 0.00 0.00 0.00 0.00 0.00 0.00 0.00 0.00 0.00 0.00,SOD  ,6,,,,,,,,,,,,,,,,,,,,,,,,,616,1651,,
72222313899,2019-11-18T00:53:00,FM-15,7,,,,,,,,,,,,,,,,,,,,,,,,,,,,,,,,,,,,,,29.92,47,50,0,,,,89,29.92,CLR:00,29.79,10,48,320,,5,,,,,,,,,,,,,,,,,,,,,,,,,,,,,,,,,,,,,MET09211/18/19 00:53:02 METAR KPNS 180653Z 32004KT 10SM CLR 10/08 A2992 RMK AO2 SLP133 T01000083 $,FM-15,7,,,,,,,,,,,,,,,,,,,,,,,,,,,,
72222313899,2019-11-18T01:53:00,FM-15,7,,,,,,,,,,,,,,,,,,,,,,,,,,,,,,,,,,,,,,29.92,46,48,0,,,,93,29.93,CLR:00,29.79,10,47,320,,5,,,,,,,,,,,,,,,,,,,,,,,,,,,,,,,,,,,,,MET09211/18/19 01:53:02 METAR KPNS 180753Z 32004KT 10SM CLR 09/08 A2992 RMK AO2 SLP135 T00890078 $,FM-15,7,,,,,,,,,,,,,,,,,,,,,,,,,,,,
72222313899,2019-11-18T02:53:00,FM-15,7,,,,,,,,,,,,,,,,,,,,,,,,,,,,,,,,,,,,,,29.91,45,47,0,,0.01,8,93,29.91,CLR:00,29.78,10,46,340,,5,,,,,,,,,,,,,,,,,,,,,,,,,,,,,,,,,,,,,MET09811/18/19 02:53:02 METAR KPNS 180853Z 34004KT 10SM CLR 08/07 A2991 RMK AO2 SLP129 T00830072 58003 $,FM-15,7,,,,,,,,,,,,,,,,,,,,,,,,,,,,
72222313899,2019-11-18T03:53:00,FM-15,7,,,,,,,,,,,,,,,,,,,,,,,,,,,,,,,,,,,,,,29.89,45,47,0,,,,93,29.9,CLR:00,29.76,10,46,300,,5,,,,,,,,,,,,,,,,,,,,,,,,,,,,,,,,,,,,,MET09211/18/19 03:53:02 METAR KPNS 180953Z 30004KT 10SM CLR 08/07 A2989 RMK AO2 SLP124 T00830072 $,FM-15,7,,,,,,,,,,,,,,,,,,,,,,,,,,,,
72222313899,2019-11-18T04:53:00,FM-15,7,,,,,,,,,,,,,,,,,,,,,,,,,,,,,,,,,,,,,,29.9,43,44,0,,,,96,29.91,CLR:00,29.77,10,44,330,,7,,,,,,,,,,,,,,,,,,,,,,,,,,,,,,,,,,,,,MET09211/18/19 04:53:02 METAR KPNS 181053Z 33006KT 10SM CLR 07/06 A2990 RMK AO2 SLP129 T00670061 $,FM-15,7,,,,,,,,,,,,,,,,,,,,,,,,,,,,
72222313899,2019-11-18T05:53:00,FM-15,7,,,,,,,,,,,,,,,,,,,,,,,,,,,,,,,,,,,,,,29.92,41,43,0,,-0.01,3,93,29.93,CLR:00,29.79,10,42,330,,6,,,,,,,,,,,,,,,,,,,,,,,,,,,,,,,,,,,,,MET11011/18/19 05:53:02 METAR KPNS 181153Z 33005KT 10SM CLR 06/05 A2992 RMK AO2 SLP134 T00610050 10111 20061 53004 $,FM-15,7,,,,,,,,,,,,,,,,,,,,,,,,,,,,
72222313899,2019-11-18T06:53:00,FM-15,7,,,,,,,,,,,,,,,,,,,,,,,,,,,,,,,,,,,,,,29.92,41,44,0,,,,89,29.93,CLR:00,29.79,10,43,340,,6,,,,,,,,,,,,,,,,,,,,,,,,,,,,,,,,,,,,,MET09211/18/19 06:53:02 METAR KPNS 181253Z 34005KT 10SM CLR 07/05 A2992 RMK AO2 SLP135 T00670050 $,FM-15,7,,,,,,,,,,,,,,,,,,,,,,,,,,,,
72222313899,2019-11-18T07:53:00,FM-15,7,,,,,,,,,,,,,,,,,,,,,,,,,,,,,,,,,,,,,,29.92,43,53,0,,,,69,29.93,CLR:00,29.79,10,48,340,,6,,,,,,,,,,,,,,,,,,,,,,,,,,,,,,,,,,,,,MET09211/18/19 07:53:02 METAR KPNS 181353Z 34005KT 10SM CLR 12/06 A2992 RMK AO2 SLP134 T01170061 $,FM-15,7,,,,,,,,,,,,,,,,,,,,,,,,,,,,
72222313899,2019-11-18T08:53:00,FM-15,7,,,,,,,,,,,,,,,,,,,,,,,,,,,,,,,,,,,,,,29.93,39,59,0,,,,48,29.93,,29.8,10,49,340,,6,,,,,,,,,,,,,,,,,,,,,,,,,,,,,,,,,,,,,MET08811/18/19 08:53:02 METAR KPNS 181453Z 34005KT 10SM 15/04 A2993 RMK AO2 SLP137 T01500039 $,FM-15,7,,,,,,,,,,,,,,,,,,,,,,,,,,,,
72222313899,2019-11-18T09:53:00,FM-15,7,,,,,,,,,,,,,,,,,,,,,,,,,,,,,,,,,,,,,,29.93,38,64,0,,,,38,29.93,CLR:00,29.8,10,51,360,,9,,,,,,,,,,,,,,,,,,,,,,,,,,,,,,,,,,,,,MET09211/18/19 09:53:02 METAR KPNS 181553Z 36008KT 10SM CLR 18/03 A2993 RMK AO2 SLP137 T01780033 $,FM-15,7,,,,,,,,,,,,,,,,,,,,,,,,,,,,
72222313899,2019-11-18T10:53:00,FM-15,7,,,,,,,,,,,,,,,,,,,,,,,,,,,,,,,,,,,,,,29.91,36,66,0,,,,33,29.91,CLR:00,29.78,10,51,300,,10,,,,,,,,,,,,,,,,,,,,,,,,,,,,,,,,,,,,,MET09211/18/19 10:53:02 METAR KPNS 181653Z 30009KT 10SM CLR 19/02 A2991 RMK AO2 SLP130 T01890022 $,FM-15,7,,,,,,,,,,,,,,,,,,,,,,,,,,,,
72222313899,2019-11-18T11:53:00,FM-15,7,,,,,,,,,,,,,,,,,,,,,,,,,,,,,,,,,,,,,,29.88,35,67,0,,0.05,8,31,29.88,CLR:00,29.75,10,51,330,,10,,,,,,,,,,,,,,,,,,,,,,,,,,,,,,,,,,,,,MET10811/18/19 11:53:02 METAR KPNS 181753Z 33009KT 10SM CLR 19/02 A2988 RMK AO2 SLP119 T01940017 10194 20061 58018,FM-15,7,,,,,,,,,,,,,,,,,,,,,,,,,,,,
72222313899,2019-11-18T12:53:00,FM-15,7,,,,,,,,,,,,,,,,,,,,,,,,,,,,,,,,,,,,,,29.85,36,68,0,,,,31,29.85,CLR:00,29.72,10,52,VRB,,7,,,,,,,,,,,,,,,,,,,,,,,,,,,,,,,,,,,,,MET09011/18/19 12:53:02 METAR KPNS 181853Z VRB06KT 10SM CLR 20/02 A2985 RMK AO2 SLP109 T02000022,FM-15,7,,,,,,,,,,,,,,,,,,,,,,,,,,,,
72222313899,2019-11-18T13:53:00,FM-15,7,,,,,,,,,,,,,,,,,,,,,,,,,,,,,,,,,,,,,,29.83,36,68,0,,,,31,29.84,CLR:00,29.7,10,52,300,,8,,,,,,,,,,,,,,,,,,,,,,,,,,,,,,,,,,,,,MET09011/18/19 13:53:02 METAR KPNS 181953Z 30007KT 10SM CLR 20/02 A2983 RMK AO2 SLP105 T02000022,FM-15,7,,,,,,,,,,,,,,,,,,,,,,,,,,,,
72222313899,2019-11-18T14:53:00,FM-15,7,,,,,,,,,,,,,,,,,,,,,,,,,,,,,,,,,,,,,,29.83,37,68,0,,0.05,6,32,29.83,CLR:00,29.7,10,53,320,,7,,,,,,,,,,,,,,,,,,,,,,,,,,,,,,,,,,,,,MET09611/18/19 14:53:02 METAR KPNS 182053Z 32006KT 10SM CLR 20/03 A2983 RMK AO2 SLP102 T02000028 56017,FM-15,7,,,,,,,,,,,,,,,,,,,,,,,,,,,,
72222313899,2019-11-18T15:53:00,FM-15,7,,,,,,,,,,,,,,,,,,,,,,,,,,,,,,,,,,,,,,29.83,39,66,0,,,,37,29.84,CLR:00,29.7,10,52,320,,7,,,,,,,,,,,,,,,,,,,,,,,,,,,,,,,,,,,,,MET09011/18/19 15:53:02 METAR KPNS 182153Z 32006KT 10SM CLR 19/04 A2983 RMK AO2 SLP104 T01890039,FM-15,7,,,,,,,,,,,,,,,,,,,,,,,,,,,,
72222313899,2019-11-18T16:53:00,FM-15,7,,,,,,,,,,,,,,,,,,,,,,,,,,,,,,,,,,,,,,29.85,41,60,0,,,,50,29.85,CLR:00,29.72,10,51,310,,6,,,,,,,,,,,,,,,,,,,,,,,,,,,,,,,,,,,,,MET09011/18/19 16:53:02 METAR KPNS 182253Z 31005KT 10SM CLR 16/05 A2985 RMK AO2 SLP109 T01560050,FM-15,7,,,,,,,,,,,,,,,,,,,,,,,,,,,,
72222313899,2019-11-18T17:53:00,FM-15,7,,,,,,,,,,,,,,,,,,,,,,,,,,,,,,,,,,,,,,29.85,43,57,0,,-0.02,3,60,29.86,CLR:00,29.72,10,50,290,,6,,,,,,,,,,,,,,,,,,,,,,,,,,,,,,,,,,,,,MET10811/18/19 17:53:02 METAR KPNS 182353Z 29005KT 10SM CLR 14/06 A2985 RMK AO2 SLP112 T01390061 10206 20139 53008,FM-15,7,,,,,,,,,,,,,,,,,,,,,,,,,,,,
72222313899,2019-11-18T18:53:00,FM-15,7,,,,,,,,,,,,,,,,,,,,,,,,,,,,,,,,,,,,,,29.87,43,54,0,,,,67,29.88,CLR:00,29.74,10,49,320,,6,,,,,,,,,,,,,,,,,,,,,,,,,,,,,,,,,,,,,MET09011/18/19 18:53:01 METAR KPNS 190053Z 32005KT 10SM CLR 12/06 A2987 RMK AO2 SLP119 T01220061,FM-15,7,,,,,,,,,,,,,,,,,,,,,,,,,,,,
72222313899,2019-11-18T19:53:00,FM-15,7,,,,,,,,,,,,,,,,,,,,,,,,,,,,,,,,,,,,,,29.88,43,54,0,,,,67,29.88,CLR:00,29.75,10,49,280,,5,,,,,,,,,,,,,,,,,,,,,,,,,,,,,,,,,,,,,MET09011/18/19 19:53:01 METAR KPNS 190153Z 28004KT 10SM CLR 12/06 A2988 RMK AO2 SLP119 T01220061,FM-15,7,,,,,,,,,,,,,,,,,,,,,,,,,,,,
72222313899,2019-11-18T20:53:00,FM-15,7,,,,,,,,,,,,,,,,,,,,,,,,,,,,,,,,,,,,,,29.9,46,52,0,,-0.05,1,80,29.9,CLR:00,29.77,10,49,290,,6,,,,,,,,,,,,,,,,,,,,,,,,,,,,,,,,,,,,,MET09611/18/19 20:53:01 METAR KPNS 190253Z 29005KT 10SM CLR 11/08 A2990 RMK AO2 SLP126 T01110078 51016,FM-15,7,,,,,,,,,,,,,,,,,,,,,,,,,,,,
72222313899,2019-11-18T21:53:00,FM-15,7,,,,,,,,,,,,,,,,,,,,,,,,,,,,,,,,,,,,,,29.91,47,51,0,,,,86,29.91,CLR:00,29.78,10,49,290,,6,,,,,,,,,,,,,,,,,,,,,,,,,,,,,,,,,,,,,MET09011/18/19 21:53:01 METAR KPNS 190353Z 29005KT 10SM CLR 11/08 A2991 RMK AO2 SLP130 T01060083,FM-15,7,,,,,,,,,,,,,,,,,,,,,,,,,,,,
72222313899,2019-11-18T22:53:00,FM-15,7,,,,,,,,,,,,,,,,,,,,,,,,,,,,,,,,,,,,,,29.9,46,50,0,,,,86,29.91,CLR:00,29.77,10,48,0,,0,,,,,,,,,,,,,,,,,,,,,,,,,,,,,,,,,,,,,MET09011/18/19 22:53:02 METAR KPNS 190453Z 00000KT 10SM CLR 10/08 A2990 RMK AO2 SLP127 T01000078,FM-15,7,,,,,,,,,,,,,,,,,,,,,,,,,,,,
72222313899,2019-11-18T23:53:00,FM-15,7,,,,,,,,,,,,,,,,,,,,,,,,,,,,,,,,,,,,,,29.9,46,48,0,,0,0,93,29.91,CLR:00,29.77,10,47,290,,5,,,,,,,,,,,,,,,,,,,,,,,,,,,,,,,,,,,,,MET11811/18/19 23:53:02 METAR KPNS 190553Z 29004KT 10SM CLR 09/08 A2990 RMK AO2 SLP127 T00890078 10139 20089 402060061 50000,FM-15,7,,,,,,,,,,,,,,,,,,,,,,,,,,,,
72222313899,2019-11-18T23:59:00,SOD  ,6,,,,,,,,,,,,,,,41,56,65,29.9,29.76,48,6,0,-4.3,9,69,43,290,17,0,,,300,14,,,,,,,,,,,,,,,,,,,,,,,,,,,,,,,,,,,,,,,,,,,,,,,,,,,,,,,,,SOD74324 HR PRECIPITATION (IN): 0.00 SNOW DEPTH (IN):0     24 HR SNOWFALL (IN):0.0  24 HR MAX TEMP (F): 6924 HR MIN TEMP (F): 43AVERAGE STATION PRESSURE(D):29.763 MINIMUM SEA LEVEL PRESSURE:29.83 TIME OF OCCURRENCE:1537 PEAK WIND SPEED (MPH): 17 PEAK WIND DIR (DEG):290 PEAK WIND TIME (LST):      FASTEST 2MIN SPEED (MPH): 14FASTEST 2MIN DIR (DEG):300 FASTEST 2MIN TIME (LST):     AVERAGE WIND SPEED (MPH): 6.0 24 HR AVG TEMP (F): 56DEPART FROM NORMAL: -4  HEATING DEGREE DAYS:  9 COOLING DEGREE DAYS:  0 LATEST DAY MAX TEMP (0700-1900 LST): 69 LATEST NIGHT MIN TEMP(1900-0800 LST):43 HOURLY INCREMENTAL PRECIPITATION VALUES (IN):0.00 0.00 0.00 0.00 0.00 0.00 0.00 0.00 0.00 0.00 0.00 0.00 0.00 0.00 0.00 0.00 0.00 0.00 0.00 0.00 0.00 0.00 0.00 0.00,SOD  ,6,,,,,,,,,,,,,,,,,,,,,,,,,617,1651,,
72222313899,2019-11-19T00:53:00,FM-15,7,,,,,,,,,,,,,,,,,,,,,,,,,,,,,,,,,,,,,,29.89,46,50,,,,,86,29.89,CLR:00,29.76,10,48,300,,3,,,,,,,,,,,,,,,,,,,,,,,,,,,,,,,,,,,,,MET09011/19/19 00:53:02 METAR KPNS 190653Z 30003KT 10SM CLR 10/08 A2989 RMK AO2 SLP123 T01000078,FM-15,7,,,,,,,,,,,,,,,,,,,,,,,,,,,,
72222313899,2019-11-19T01:53:00,FM-15,4,,,,,,,,,,,,,,,,,,,,,,,,,,,,,,,,,,,,,,29.9,45,50,,,,,83,29.91,,,10,,320,,5,,,,,,,,,,,,,,,,,,,,,,,,,,,,,,,,,,,,,MET078METAR KPNS 190753Z AUTO 32004KT 10SM CLR 10/07 A2990 RMK AO2 SLP127 T01000072=,FM-15,4,,,,,,,,,,,,,,,,,,,,,,,,,,,,
72222313899,2019-11-19T02:53:00,FM-15,4,,,,,,,,,,,,,,,,,,,,,,,,,,,,,,,,,,,,,,29.92,45,47,,,,,93,29.92,,,10,,350,,7,,,,,,,,,,,,,,,,,,,,,,,,,,,,,,,,,,,,,MET084METAR KPNS 190853Z AUTO 35006KT 10SM CLR 08/07 A2992 RMK AO2 SLP132 T00830072 53005=,FM-15,4,,,,,,,,,,,,,,,,,,,,,,,,,,,,
72222313899,2019-11-19T03:53:00,FM-15,4,,,,,,,,,,,,,,,,,,,,,,,,,,,,,,,,,,,,,,29.92,45,47,,,,,93,29.93,,,10,,350,,7,,,,,,,,,,,,,,,,,,,,,,,,,,,,,,,,,,,,,MET078METAR KPNS 190953Z AUTO 35006KT 10SM CLR 08/07 A2992 RMK AO2 SLP135 T00830072=,FM-15,4,,,,,,,,,,,,,,,,,,,,,,,,,,,,
72222313899,2019-11-19T04:53:00,FM-15,4,,,,,,,,,,,,,,,,,,,,,,,,,,,,,,,,,,,,,,29.93,44,45,,,,,97,29.93,,,9,,350,,6,,,,,,,,,,,,,,,,,,,,,,,,,,,,,,,,,,,,,MET077METAR KPNS 191053Z AUTO 35005KT 9SM CLR 07/07 A2993 RMK AO2 SLP137 T00720067=,FM-15,4,,,,,,,,,,,,,,,,,,,,,,,,,,,,
72222313899,2019-11-19T05:53:00,FM-15,4,,,,,,,,,,,,,,,,,,,,,,,,,,,,,,,,,,,,,,29.95,43,44,,,,,96,29.96,,,8,,350,,3,,,,,,,,,,,,,,,,,,,,,,,,,,,,,,,,,,,,,MET090METAR KPNS 191153Z 35003KT 8SM CLR 07/06 A2995 RMK AO2 SLP145 T00670061 10100 20061 53012=,FM-15,4,,,,,,,,,,,,,,,,,,,,,,,,,,,,
72222313899,2019-11-19T06:53:00,FM-15,4,,,,,,,,,,,,,,,,,,,,,,,,,,,,,,,,,,,,,,29.97,44,44,,,,,100,29.98,,,4,,330,,3,,,,,,,,,,,,,,,,,,,,,,,,,,,,,,,,,,,,,MET075METAR KPNS 191253Z 33003KT 4SM BR CLR 07/07 A2997 RMK AO2 SLP153 T00670067=,FM-15,4,,,,,,,,,,,,,,,,,,,,,,,,,,,,
72222313899,2019-11-19T07:53:00,FM-15,4,,,,,,,,,,,,,,,,,,,,,,,,,,,,,,,,,,,,,,29.99,48,55,,,,,77,29.99,,,8,,0,,0,,,,,,,,,,,,,,,,,,,,,,,,,,,,,,,,,,,,,MET074METAR KPNS 191353Z 00000KT 8SM CLR 13/09 A2999 RMK AO2 SLP157 T01280089 $=,FM-15,4,,,,,,,,,,,,,,,,,,,,,,,,,,,,
72222313899,2019-11-19T15:53:00,FM-15,6,,,,,,,,,,,,,,,,,,,,,,,,,,,,,,,,,,,,,,29.95,41,71,,,,,34,,,29.82,10,55,250,,15,,,,,,,,,,,,,,,,,,,,,,,,,,,,,,,,,,,,,MET08511/19/19 15:53:02 METAR KPNS 192153Z 25013KT 10SM 22/05 A2995 RMK AO2 SLPNO T02170050,FM-15,6,,,,,,,,,,,,,,,,,,,,,,,,,,,,
72222313899,2019-11-19T16:53:00,FM-15,7,,,,,,,,,,,,,,,,,,,,,,,,,,,,,,,,,,,,,,29.97,44,64,0,,,,48,,,29.84,10,54,260,,7,,,,,,,,,,,,,,,,,,,,,,,,,,,,,,,,,,,,,MET08511/19/19 16:53:02 METAR KPNS 192253Z 26006KT 18/07 A2997 RMK AO2 SLPNO T01780067 (MT),FM-15,7,,,,,,,,,,,,,,,,,,,,,,,,,,,,
72222313899,2019-11-19T17:53:00,FM-15,7,,,,,,,,,,,,,,,,,,,,,,,,,,,,,,,,,,,,,,29.99,48,61,0,,,,63,,,29.86,10,54,250,,8,,,,,,,,,,,,,,,,,,,,,,,,,,,,,,,,,,,,,MET09311/19/19 17:53:02 METAR KPNS 192353Z 25007KT 16/09 A2999 RMK AO2 SLPNO 6//// T01610089 $ (MT),FM-15,7,,,,,,,,,,,,,,,,,,,,,,,,,,,,
72222313899,2019-11-19T18:00:00,SHEF ,4,,,,,,,,,,,,,,,,,,,,,,,,,,,,,,,,,,,,,,,,,,,,,,,,,,,,,,,,,,,,,,,,,,,,,,,,,,,,,,,,,,,,,,,,,,,SHEF ,4,,,,,,,,,,,,,,,,,,,,,,,,,,,,
72222313899,2019-11-19T18:53:00,FM-15,7,,,,,,,,,,,,,,,,,,,,,,,,,,,,,,,,,,,,,,30.01,48,59,0,,,,67,,CLR:00,29.88,10,53,250,,7,,,,,,,,,,,,,,,,,,,,,,,,,,,,,,,,,,,,,MET09111/19/19 18:53:01 METAR KPNS 200053Z 25006KT 10SM CLR 15/09 A3001 RMK AO2 SLPNO T01500089 $,FM-15,7,,,,,,,,,,,,,,,,,,,,,,,,,,,,
72222313899,2019-11-19T19:53:00,FM-15,7,,,,,,,,,,,,,,,,,,,,,,,,,,,,,,,,,,,,,,30.02,49,59,0,,,,69,,CLR:00,29.89,10,54,260,,7,,,,,,,,,,,,,,,,,,,,,,,,,,,,,,,,,,,,,MET09111/19/19 19:53:01 METAR KPNS 200153Z 26006KT 10SM CLR 15/09 A3002 RMK AO2 SLPNO T01500094 $,FM-15,7,,,,,,,,,,,,,,,,,,,,,,,,,,,,
72222313899,2019-11-19T20:53:00,FM-15,7,,,,,,,,,,,,,,,,,,,,,,,,,,,,,,,,,,,,,,30.03,52,58,0,,-0.04,1,81,,CLR:00,29.9,10,55,260,,7,,,,,,,,,,,,,,,,,,,,,,,,,,,,,,,,,,,,,MET09711/19/19 20:53:01 METAR KPNS 200253Z 26006KT 10SM CLR 14/11 A3003 RMK AO2 SLPNO T01440111 51014 $,FM-15,7,,,,,,,,,,,,,,,,,,,,,,,,,,,,
72222313899,2019-11-19T21:53:00,FM-15,7,,,,,,,,,,,,,,,,,,,,,,,,,,,,,,,,,,,,,,30.04,53,57,0,,,,87,,CLR:00,29.91,10,55,280,,6,,,,,,,,,,,,,,,,,,,,,,,,,,,,,,,,,,,,,MET09111/19/19 21:53:01 METAR KPNS 200353Z 28005KT 10SM CLR 14/12 A3004 RMK AO2 SLPNO T01390117 $,FM-15,7,,,,,,,,,,,,,,,,,,,,,,,,,,,,
72222313899,2019-11-19T22:53:00,FM-15,7,,,,,,,,,,,,,,,,,,,,,,,,,,,,,,,,,,,,,,30.05,52,55,0,,,,90,,CLR:00,29.92,10,53,280,,5,,,,,,,,,,,,,,,,,,,,,,,,,,,,,,,,,,,,,MET09111/19/19 22:53:02 METAR KPNS 200453Z 28004KT 10SM CLR 13/11 A3005 RMK AO2 SLPNO T01280111 $,FM-15,7,,,,,,,,,,,,,,,,,,,,,,,,,,,,
72222313899,2019-11-19T23:53:00,FM-15,7,,,,,,,,,,,,,,,,,,,,,,,,,,,,,,,,,,,,,,30.06,51,53,0,,-0.02,3,93,,CLR:00,29.93,10,52,300,,5,,,,,,,,,,,,,,,,,,,,,,,,,,,,,,,,,,,,,MET11911/19/19 23:53:02 METAR KPNS 200553Z 30004KT 10SM CLR 12/11 A3006 RMK AO2 SLPNO T01170106 10161 20117 402220117 53008 $,FM-15,7,,,,,,,,,,,,,,,,,,,,,,,,,,,,
72222313899,2019-11-19T23:59:00,SOD  ,6,,,,,,,,,,,,,,,,58,,,,,5.3,0,-2,7,72,43,230,20,0,,,230,16,BR,,,,,,,,,,,,,,,,,,,,,,,,,,,,,,,,,,,,,,,,,,,,,,,,,,,,,,,,SOD58724 HR PRECIPITATION (IN): 0.00 SNOW DEPTH (IN):0     24 HR SNOWFALL (IN):0.0  WEATHER(CODE):1  24 HR MAX TEMP (F): 7224 HR MIN TEMP (F): 43PEAK WIND SPEED (MPH): 20 PEAK WIND DIR (DEG):230 PEAK WIND TIME (LST):      FASTEST 2MIN SPEED (MPH): 16FASTEST 2MIN DIR (DEG):230 FASTEST 2MIN TIME (LST):     AVERAGE WIND SPEED (MPH): 5.3 24 HR AVG TEMP (F): 58DEPART FROM NORMAL: -2  HEATING DEGREE DAYS:  7 COOLING DEGREE DAYS:  0 HOURLY INCREMENTAL PRECIPITATION VALUES (IN):    M    M    M    M    M    M    M    M    M    M    M    M    M    M    M    0.00 0.00 0.00 0.00 0.00 0.00 0.00 0.00,SOD  ,6,,,,,,,,,,,,,,,,,,,,,,,,,618,1650,,
72222313899,2019-11-20T00:53:00,FM-15,7,,,,,,,,,,,,,,,,,,,,,,,,,,,,,,,,,,,,,,30.06,51,52,0,,,,97,,CLR:00,29.93,8,51,320,,6,,,,,,,,,,,,,,,,,,,,,,,,,,,,,,,,,,,,,MET09011/20/19 00:53:02 METAR KPNS 200653Z 32005KT 8SM CLR 11/11 A3006 RMK AO2 SLPNO T01110106 $,FM-15,7,,,,,,,,,,,,,,,,,,,,,,,,,,,,
72222313899,2019-11-20T01:53:00,FM-15,7,,,,,,,,,,,,,,,,,,,,,,,,,,,,,,,,,,,,,,30.07,51,52,0,,,,97,,CLR:00,29.94,8,51,350,,5,,,,,,,,,,,,,,,,,,,,,,,,,,,,,,,,,,,,,MET09011/20/19 01:53:02 METAR KPNS 200753Z 35004KT 8SM CLR 11/11 A3007 RMK AO2 SLPNO T01110106 $,FM-15,7,,,,,,,,,,,,,,,,,,,,,,,,,,,,
72222313899,2019-11-20T02:53:00,FM-15,7,,,,,,,,,,,,,,,,,,,,,,,,,,,,,,,,,,,,,,30.08,48,48,0,,-0.03,3,100,30.09,CLR:00,29.95,8,48,350,,6,,,,,,,,,,,,,,,,,,,,,,,,,,,,,,,,,,,,,MET09711/20/19 02:53:02 METAR KPNS 200853Z 35005KT 8SM CLR 09/09 A3008 RMK AO2 SLP189 T00890089 53009 $,FM-15,7,,,,,,,,,,,,,,,,,,,,,,,,,,,,
72222313899,2019-11-20T03:53:00,FM-15,7,,,,,,,,,,,,,,,,,,,,,,,,,,,,,,,,,,,,,,30.1,45,48,0,,,,89,,CLR:00,29.97,10,47,340,,6,,,,,,,,,,,,,,,,,,,,,,,,,,,,,,,,,,,,,MET09111/20/19 03:53:02 METAR KPNS 200953Z 34005KT 10SM CLR 09/07 A3010 RMK AO2 SLPNO T00890072 $,FM-15,7,,,,,,,,,,,,,,,,,,,,,,,,,,,,
72222313899,2019-11-20T04:53:00,FM-15,7,,,,,,,,,,,,,,,,,,,,,,,,,,,,,,,,,,,,,,30.12,44,50,0,,,,80,30.12,CLR:00,29.99,10,47,360,,3,,,,,,,,,,,,,,,,,,,,,,,,,,,,,,,,,,,,,MET09211/20/19 04:53:02 METAR KPNS 201053Z 36003KT 10SM CLR 10/07 A3012 RMK AO2 SLP200 T01000067 $,FM-15,7,,,,,,,,,,,,,,,,,,,,,,,,,,,,
72222313899,2019-11-20T05:53:00,FM-15,7,,,,,,,,,,,,,,,,,,,,,,,,,,,,,,,,,,,,,,30.14,44,51,0,,-0.06,3,77,30.14,CLR:00,30.01,10,48,20,,5,,,,,,,,,,,,,,,,,,,,,,,,,,,,,,,,,,,,,MET11611/20/19 05:53:02 METAR KPNS 201153Z 02004KT 10SM CLR 11/07 A3014 RMK AO2 SLP208 7//// T01060067 10117 20072 53019 $,FM-15,7,,,,,,,,,,,,,,,,,,,,,,,,,,,,
72222313899,2019-11-20T06:53:00,FM-15,7,,,,,,,,,,,,,,,,,,,,,,,,,,,,,,,,,,,,,,30.17,45,51,0,,,,80,30.17,CLR:00,30.04,10,48,0,,0,,,,,,,,,,,,,,,,,,,,,,,,,,,,,,,,,,,,,MET09511/20/19 06:53:02 METAR KPNS 201253Z 00000KT 10SM CLR 11/07 A3017 RMK AO2 SLP217 T01060072 (DW),FM-15,7,,,,,,,,,,,,,,,,,,,,,,,,,,,,
72222313899,2019-11-20T07:53:00,FM-15,7,,,,,,,,,,,,,,,,,,,,,,,,,,,,,,,,,,,,,,30.18,42,57,0,,,,58,30.19,CLR:00,30.05,10,50,60,,8,,,,,,,,,,,,,,,,,,,,,,,,,,,,,,,,,,,,,MET09511/20/19 07:53:02 METAR KPNS 201353Z 06007KT 10SM CLR 14/06 A3018 RMK AO2 SLP223 T01390056 (DW),FM-15,7,,,,,,,,,,,,,,,,,,,,,,,,,,,,
72222313899,2019-11-20T08:53:00,FM-15,7,,,,,,,,,,,,,,,,,,,,,,,,,,,,,,,,,,,,,,30.21,42,60,0,,-0.07,2,52,30.22,CLR:00,30.08,10,51,60,,8,,,,,,,,,,,,,,,,,,,,,,,,,,,,,,,,,,,,,MET10111/20/19 08:53:02 METAR KPNS 201453Z 06007KT 10SM CLR 16/06 A3021 RMK AO2 SLP232 T01560056 52024 (WS),FM-15,7,,,,,,,,,,,,,,,,,,,,,,,,,,,,
72222313899,2019-11-20T09:53:00,FM-15,7,,,,,,,,,,,,,,,,,,,,,,,,,,,,,,,,,,,,,,30.22,43,64,0,,,,46,30.23,CLR:00,30.09,10,53,VRB,,3,,,,,,,,,,,,,,,,,,,,,,,,,,,,,,,,,,,,,MET09511/20/19 09:53:02 METAR KPNS 201553Z VRB03KT 10SM CLR 18/06 A3022 RMK AO2 SLP236 T01780061 (WS),FM-15,7,,,,,,,,,,,,,,,,,,,,,,,,,,,,
72222313899,2019-11-20T10:53:00,FM-15,7,,,,,,,,,,,,,,,,,,,,,,,,,,,,,,,,,,,,,,30.22,43,67,0,,,,42,30.22,CLR:00,30.09,10,55,VRB,,3,,,,,,,,,,,,,,,,,,,,,,,,,,,,,,,,,,,,,MET09511/20/19 10:53:02 METAR KPNS 201653Z VRB03KT 10SM CLR 19/06 A3022 RMK AO2 SLP234 T01940061 (WS),FM-15,7,,,,,,,,,,,,,,,,,,,,,,,,,,,,
72222313899,2019-11-20T11:53:00,FM-15,7,,,,,,,,,,,,,,,,,,,,,,,,,,,,,,,,,,,,,,30.19,40,70,0,,0.02,8,34,30.19,CLR:00,30.06,10,55,360,,6,,,,,,,,,,,,,,,,,,,,,,,,,,,,,,,,,,,,,MET11311/20/19 11:53:02 METAR KPNS 201753Z 36005KT 10SM CLR 21/04 A3019 RMK AO2 SLP224 T02110044 10211 20094 58008 (WS),FM-15,7,,,,,,,,,,,,,,,,,,,,,,,,,,,,
72222313899,2019-11-20T12:53:00,FM-15,7,,,,,,,,,,,,,,,,,,,,,,,,,,,,,,,,,,,,,,30.16,39,69,0,,,,33,30.17,CLR:00,30.03,10,54,VRB,,6,,,,,,,,,,,,,,,,,,,,,,,,,,,,,,,,,,,,,MET09511/20/19 12:53:02 METAR KPNS 201853Z VRB05KT 10SM CLR 21/04 A3016 RMK AO2 SLP216 T02060039 (WS),FM-15,7,,,,,,,,,,,,,,,,,,,,,,,,,,,,
72222313899,2019-11-20T13:53:00,FM-15,7,,,,,,,,,,,,,,,,,,,,,,,,,,,,,,,,,,,,,,30.16,39,73,0,,,,29,30.16,CLR:00,30.03,10,55,VRB,,5,,,,,,,,,,,,,,,,,,,,,,,,,,,,,,,,,,,,,MET09511/20/19 13:53:02 METAR KPNS 201953Z VRB04KT 10SM CLR 23/04 A3016 RMK AO2 SLP213 T02280039 (WS),FM-15,7,,,,,,,,,,,,,,,,,,,,,,,,,,,,
72222313899,2019-11-20T14:53:00,FM-15,7,,,,,,,,,,,,,,,,,,,,,,,,,,,,,,,,,,,,,,30.15,40,72,0,,0.04,6,31,30.15,CLR:00,30.02,10,55,60,,7,,,,,,,,,,,,,,,,,,,,,,,,,,,,,,,,,,,,,MET10111/20/19 14:53:02 METAR KPNS 202053Z 06006KT 10SM CLR 22/04 A3015 RMK AO2 SLP210 T02220044 56014 (WS),FM-15,7,,,,,,,,,,,,,,,,,,,,,,,,,,,,
72222313899,2019-11-20T15:53:00,FM-15,7,,,,,,,,,,,,,,,,,,,,,,,,,,,,,,,,,,,,,,30.15,41,71,0,,,,34,30.16,CLR:00,30.02,10,55,30,,3,,,,,,,,,,,,,,,,,,,,,,,,,,,,,,,,,,,,,MET09511/20/19 15:53:02 METAR KPNS 202153Z 03003KT 10SM CLR 22/05 A3015 RMK AO2 SLP213 T02170050 (WS),FM-15,7,,,,,,,,,,,,,,,,,,,,,,,,,,,,
72222313899,2019-11-20T16:53:00,FM-15,7,,,,,,,,,,,,,,,,,,,,,,,,,,,,,,,,,,,,,,30.16,45,62,0,,,,54,30.16,CLR:00,30.03,10,53,0,,0,,,,,,,,,,,,,,,,,,,,,,,,,,,,,,,,,,,,,MET09511/20/19 16:53:02 METAR KPNS 202253Z 00000KT 10SM CLR 17/07 A3016 RMK AO2 SLP214 T01670072 (KT),FM-15,7,,,,,,,,,,,,,,,,,,,,,,,,,,,,
72222313899,2019-11-20T17:53:00,FM-15,7,,,,,,,,,,,,,,,,,,,,,,,,,,,,,,,,,,,,,,30.17,46,58,0,,-0.02,3,65,30.17,CLR:00,30.04,10,52,0,,0,,,,,,,,,,,,,,,,,,,,,,,,,,,,,,,,,,,,,MET11311/20/19 17:53:02 METAR KPNS 202353Z 00000KT 10SM CLR 14/08 A3017 RMK AO2 SLP218 T01440078 10228 20144 53007 (KT),FM-15,7,,,,,,,,,,,,,,,,,,,,,,,,,,,,
72222313899,2019-11-20T18:00:00,SHEF ,4,,,,,,,,,,,,,,,,,,,,,,,,,,,,,,,,,,,,,,,,,,,,,,,,,,,,,,,,,,,,,,,,,,,,,,,,,,,,,,,,,,,,,,,,,,,SHEF ,4,,,,,,,,,,,,,,,,,,,,,,,,,,,,
72222313899,2019-11-20T18:53:00,FM-15,7,,,,,,,,,,,,,,,,,,,,,,,,,,,,,,,,,,,,,,30.18,46,56,0,,,,70,30.18,CLR:00,30.05,10,51,0,,0,,,,,,,,,,,,,,,,,,,,,,,,,,,,,,,,,,,,,MET09511/20/19 18:53:03 METAR KPNS 210053Z 00000KT 10SM CLR 13/08 A3018 RMK AO2 SLP221 T01330078 (KT),FM-15,7,,,,,,,,,,,,,,,,,,,,,,,,,,,,
72222313899,2019-11-20T19:53:00,FM-15,7,,,,,,,,,,,,,,,,,,,,,,,,,,,,,,,,,,,,,,30.19,46,53,0,,,,77,30.19,CLR:00,30.06,10,49,0,,0,,,,,,,,,,,,,,,,,,,,,,,,,,,,,,,,,,,,,MET09511/20/19 19:53:03 METAR KPNS 210153Z 00000KT 10SM CLR 12/08 A3019 RMK AO2 SLP224 T01170078 (KT),FM-15,7,,,,,,,,,,,,,,,,,,,,,,,,,,,,
72222313899,2019-11-20T20:53:00,FM-15,7,,,,,,,,,,,,,,,,,,,,,,,,,,,,,,,,,,,,,,30.19,46,52,0,,-0.02,1,80,30.19,CLR:00,30.06,10,49,0,,0,,,,,,,,,,,,,,,,,,,,,,,,,,,,,,,,,,,,,MET10111/20/19 20:53:03 METAR KPNS 210253Z 00000KT 10SM CLR 11/08 A3019 RMK AO2 SLP224 T01110078 51006 (KT),FM-15,7,,,,,,,,,,,,,,,,,,,,,,,,,,,,
72222313899,2019-11-20T21:53:00,FM-15,7,,,,,,,,,,,,,,,,,,,,,,,,,,,,,,,,,,,,,,30.18,46,50,0,,,,86,30.19,CLR:00,30.05,10,48,0,,0,,,,,,,,,,,,,,,,,,,,,,,,,,,,,,,,,,,,,MET09511/20/19 21:53:03 METAR KPNS 210353Z 00000KT 10SM CLR 10/08 A3018 RMK AO2 SLP222 T01000078 (KT),FM-15,7,,,,,,,,,,,,,,,,,,,,,,,,,,,,
72222313899,2019-11-20T22:53:00,FM-15,7,,,,,,,,,,,,,,,,,,,,,,,,,,,,,,,,,,,,,,30.18,48,52,0,,,,86,30.19,CLR:00,30.05,10,50,50,,3,,,,,,,,,,,,,,,,,,,,,,,,,,,,,,,,,,,,,MET09011/20/19 22:53:03 METAR KPNS 210453Z 05003KT 10SM CLR 11/09 A3018 RMK AO2 SLP222 T01110089,FM-15,7,,,,,,,,,,,,,,,,,,,,,,,,,,,,
72222313899,2019-11-20T23:53:00,FM-15,7,,,,,,,,,,,,,,,,,,,,,,,,,,,,,,,,,,,,,,30.18,46,51,0,,0,5,83,30.19,CLR:00,30.05,10,49,40,,3,,,,,,,,,,,,,,,,,,,,,,,,,,,,,,,,,,,,,MET11811/20/19 23:53:03 METAR KPNS 210553Z 04003KT 10SM CLR 11/08 A3018 RMK AO2 SLP223 T01060078 10161 20100 402280072 55001,FM-15,7,,,,,,,,,,,,,,,,,,,,,,,,,,,,
72222313899,2019-11-20T23:59:00,SOD  ,6,,,,,,,,,,,,,,,44,59,64,30.14,30.03,51,3.6,0,-0.8,6,73,45,30,16,0,,,20,9,,,,,,,,,,,,,,,,,,,,,,,,,,,,,,,,,,,,,,,,,,,,,,,,,,,,,,,,,SOD75624 HR PRECIPITATION (IN): 0.00 SNOW DEPTH (IN):0     24 HR SNOWFALL (IN):0.0  WEATHER(CODE):1  24 HR MAX TEMP (F): 7324 HR MIN TEMP (F): 45AVERAGE STATION PRESSURE:30.035 MINIMUM SEA LEVEL PRESSURE:30.08 TIME OF OCCURRENCE:0250 PEAK WIND SPEED (MPH): 16 PEAK WIND DIR (DEG): 30 PEAK WIND TIME (LST):      FASTEST 2MIN SPEED (MPH):  9FASTEST 2MIN DIR (DEG): 20 FASTEST 2MIN TIME (LST):     AVERAGE WIND SPEED (MPH): 3.6 24 HR AVG TEMP (F): 59DEPART FROM NORMAL: -1  HEATING DEGREE DAYS:  6 COOLING DEGREE DAYS:  0 LATEST DAY MAX TEMP (0700-1900 LST):73  LATEST NIGHT MIN TEMP(1900-0800 LST):45 HOURLY INCREMENTAL PRECIPITATION VALUES (IN):.00 0.00 0.00 0.00 0.00 0.00 0.00 0.00 0.00 0.00 0.00 0.00 0.00 0.00 0.00 0.00 0.00 0.00 0.00 0.00 0.00 0.00 0.00 0.00,SOD  ,6,,,,,,,,,,,,,,,,,,,,,,,,,619,1650,,
72222313899,2019-11-21T00:53:00,FM-15,7,,,,,,,,,,,,,,,,,,,,,,,,,,,,,,,,,,,,,,30.19,45,52,0,,,,77,30.19,CLR:00,30.06,10,49,50,,5,,,,,,,,,,,,,,,,,,,,,,,,,,,,,,,,,,,,,MET09011/21/19 00:53:02 METAR KPNS 210653Z 05004KT 10SM CLR 11/07 A3019 RMK AO2 SLP224 T01110072,FM-15,7,,,,,,,,,,,,,,,,,,,,,,,,,,,,
72222313899,2019-11-21T01:53:00,FM-15,7,,,,,,,,,,,,,,,,,,,,,,,,,,,,,,,,,,,,,,30.2,44,49,0,,,,83,30.2,CLR:00,30.07,10,47,30,,5,,,,,,,,,,,,,,,,,,,,,,,,,,,,,,,,,,,,,MET09011/21/19 01:53:02 METAR KPNS 210753Z 03004KT 10SM CLR 09/07 A3020 RMK AO2 SLP227 T00940067,FM-15,7,,,,,,,,,,,,,,,,,,,,,,,,,,,,
72222313899,2019-11-21T02:53:00,FM-15,7,,,,,,,,,,,,,,,,,,,,,,,,,,,,,,,,,,,,,,30.19,44,51,0,,-0.01,0,77,30.2,CLR:00,30.06,10,48,70,,6,,,,,,,,,,,,,,,,,,,,,,,,,,,,,,,,,,,,,MET09611/21/19 02:53:02 METAR KPNS 210853Z 07005KT 10SM CLR 11/07 A3019 RMK AO2 SLP226 T01060067 50003,FM-15,7,,,,,,,,,,,,,,,,,,,,,,,,,,,,
72222313899,2019-11-21T03:53:00,FM-15,7,,,,,,,,,,,,,,,,,,,,,,,,,,,,,,,,,,,,,,30.19,43,52,0,,,,72,30.2,CLR:00,30.06,10,48,60,,7,,,,,,,,,,,,,,,,,,,,,,,,,,,,,,,,,,,,,MET09011/21/19 03:53:02 METAR KPNS 210953Z 06006KT 10SM CLR 11/06 A3019 RMK AO2 SLP227 T01110061,FM-15,7,,,,,,,,,,,,,,,,,,,,,,,,,,,,
72222313899,2019-11-21T04:53:00,FM-15,7,,,,,,,,,,,,,,,,,,,,,,,,,,,,,,,,,,,,,,30.21,43,52,0,,,,72,30.21,CLR:00,30.08,10,48,50,,7,,,,,,,,,,,,,,,,,,,,,,,,,,,,,,,,,,,,,MET09011/21/19 04:53:02 METAR KPNS 211053Z 05006KT 10SM CLR 11/06 A3021 RMK AO2 SLP231 T01110061,FM-15,7,,,,,,,,,,,,,,,,,,,,,,,,,,,,
72222313899,2019-11-21T05:53:00,FM-15,7,,,,,,,,,,,,,,,,,,,,,,,,,,,,,,,,,,,,,,30.22,44,51,0,,-0.02,3,77,30.22,CLR:00,30.09,10,48,60,,6,,,,,,,,,,,,,,,,,,,,,,,,,,,,,,,,,,,,,MET10811/21/19 05:53:02 METAR KPNS 211153Z 06005KT 10SM CLR 11/07 A3022 RMK AO2 SLP234 T01060067 10117 20089 53008,FM-15,7,,,,,,,,,,,,,,,,,,,,,,,,,,,,
72222313899,2019-11-21T06:53:00,FM-15,7,,,,,,,,,,,,,,,,,,,,,,,,,,,,,,,,,,,,,,30.22,48,53,0,,,,83,30.22,CLR:00,30.09,10,50,70,,7,,,,,,,,,,,,,,,,,,,,,,,,,,,,,,,,,,,,,MET09511/21/19 06:53:02 METAR KPNS 211253Z 07006KT 10SM CLR 12/09 A3022 RMK AO2 SLP235 T01170089 (WS),FM-15,7,,,,,,,,,,,,,,,,,,,,,,,,,,,,
72222313899,2019-11-21T07:53:00,FM-15,7,,,,,,,,,,,,,,,,,,,,,,,,,,,,,,,,,,,,,,30.23,51,58,0,,,,78,30.24,CLR:00,30.1,10,54,70,,6,,,,,,,,,,,,,,,,,,,,,,,,,,,,,,,,,,,,,MET09511/21/19 07:53:02 METAR KPNS 211353Z 07005KT 10SM CLR 14/11 A3023 RMK AO2 SLP240 T01440106 (WS),FM-15,7,,,,,,,,,,,,,,,,,,,,,,,,,,,,
72222313899,2019-11-21T08:53:00,FM-15,7,,,,,,,,,,,,,,,,,,,,,,,,,,,,,,,,,,,,,,30.23,53,59,0,,-0.01,0,81,30.24,CLR:00,30.1,10,56,110,,9,,,,,,,,,,,,,,,,,,,,,,,,,,,,,,,,,,,,,MET10111/21/19 08:53:02 METAR KPNS 211453Z 11008KT 10SM CLR 15/12 A3023 RMK AO2 SLP239 T01500117 50005 (JH),FM-15,7,,,,,,,,,,,,,,,,,,,,,,,,,,,,
72222313899,2019-11-21T09:53:00,FM-15,7,,,,,,,,,,,,,,,,,,,,,,,,,,,,,,,,,,,,,,30.22,56,67,0,,,,68,30.23,CLR:00,30.09,10,61,100,,8,,,,,,,,,,,,,,,,,,,,,,,,,,,,,,,,,,,,,MET09511/21/19 09:53:02 METAR KPNS 211553Z 10007KT 10SM CLR 19/13 A3022 RMK AO2 SLP236 T01940133 (JH),FM-15,7,,,,,,,,,,,,,,,,,,,,,,,,,,,,
72222313899,2019-11-21T10:53:00,FM-15,7,,,,,,,,,,,,,,,,,,,,,,,,,,,,,,,,,,,,,,30.21,59,70,0,,,,68,30.22,CLR:00,30.08,10,63,120,,14,,,,,,,,,,,,,,,,,,,,,,,,,,,,,,,,,,,,,MET09511/21/19 10:53:02 METAR KPNS 211653Z 12012KT 10SM CLR 21/15 A3021 RMK AO2 SLP233 T02110150 (JH),FM-15,7,,,,,,,,,,,,,,,,,,,,,,,,,,,,
72222313899,2019-11-21T11:53:00,FM-15,7,,,,,,,,,,,,,,,,,,,,,,,,,,,,,,,,,,,,,,30.18,61,71,0,,0.05,8,71,30.19,CLR:00,30.05,10,65,100,,11,,,,,,,,,,,,,,,,,,,,,,,,,,,,,,,,,,,,,MET11311/21/19 11:53:02 METAR KPNS 211753Z 10010KT 10SM CLR 22/16 A3018 RMK AO2 SLP222 T02170161 10217 20100 58017 (JH),FM-15,7,,,,,,,,,,,,,,,,,,,,,,,,,,,,
72222313899,2019-11-21T12:46:00,FM-16,7,,,,,,,,,,,,,,,,,,,,,,,,,,,,,,,,,,,,,,30.17,61,69,,,,,76,,BKN:07 27,30.04,10,64,100,,10,,,,,,,,,,,,,,,,,,,,,,,,,,,,,,,,,,,,,MET09111/21/19 12:46:02 SPECI KPNS 211846Z 10009KT 10SM BKN027 21/16 A3017 RMK AO2 T02060161 (JH),FM-16,7,,,,,,,,,,,,,,,,,,,,,,,,,,,,
72222313899,2019-11-21T12:53:00,FM-15,7,,,,,,,,,,,,,,,,,,,,,,,,,,,,,,,,,,,,,,30.17,61,70,0,,,,73,30.17,BKN:07 27,30.04,10,65,100,,8,,,,,,,,,,,,,,,,,,,,,,,,,,,,,,,,,,,,,MET09811/21/19 12:53:02 METAR KPNS 211853Z 10007KT 10SM BKN027 21/16 A3017 RMK AO2 SLP218 T02110161 (JH),FM-15,7,,,,,,,,,,,,,,,,,,,,,,,,,,,,
72222313899,2019-11-21T13:41:00,FM-16,7,,,,,,,,,,,,,,,,,,,,,,,,,,,,,,,,,,,,,,30.15,61,70,,,,,73,,SCT:04 27,30.02,10,65,130,,13,,,,,,,,,,,,,,,,,,,,,,,,,,,,,,,,,,,,,MET09111/21/19 13:41:02 SPECI KPNS 211941Z 13011KT 10SM SCT027 21/16 A3015 RMK AO2 T02110161 (JH),FM-16,7,,,,,,,,,,,,,,,,,,,,,,,,,,,,
72222313899,2019-11-21T13:53:00,FM-15,7,,,,,,,,,,,,,,,,,,,,,,,,,,,,,,,,,,,,,,30.15,61,70,0,,,,73,30.16,SCT:04 27,30.02,10,65,90,,10,,,,,,,,,,,,,,,,,,,,,,,,,,,,,,,,,,,,,MET09811/21/19 13:53:02 METAR KPNS 211953Z 09009KT 10SM SCT027 21/16 A3015 RMK AO2 SLP213 T02110161 (JH),FM-15,7,,,,,,,,,,,,,,,,,,,,,,,,,,,,
72222313899,2019-11-21T14:06:00,FM-16,7,,,,,,,,,,,,,,,,,,,,,,,,,,,,,,,,,,,,,,30.16,61,70,,,,,73,,BKN:07 27,30.03,10,65,100,,9,,,,,,,,,,,,,,,,,,,,,,,,,,,,,,,,,,,,,MET09111/21/19 14:06:02 SPECI KPNS 212006Z 10008KT 10SM BKN027 21/16 A3016 RMK AO2 T02110161 (JH),FM-16,7,,,,,,,,,,,,,,,,,,,,,,,,,,,,
72222313899,2019-11-21T14:34:00,FM-16,7,,,,,,,,,,,,,,,,,,,,,,,,,,,,,,,,,,,,,,30.15,61,70,,,,,73,,SCT:04 27,30.02,10,65,110,,8,,,,,,,,,,,,,,,,,,,,,,,,,,,,,,,,,,,,,MET09111/21/19 14:34:02 SPECI KPNS 212034Z 11007KT 10SM SCT027 21/16 A3015 RMK AO2 T02110161 (JH),FM-16,7,,,,,,,,,,,,,,,,,,,,,,,,,,,,
72222313899,2019-11-21T14:53:00,FM-15,7,,,,,,,,,,,,,,,,,,,,,,,,,,,,,,,,,,,,,,30.15,61,66,0,,0.03,6,84,30.16,CLR:00,30.02,10,63,100,,9,,,,,,,,,,,,,,,,,,,,,,,,,,,,,,,,,,,,,MET10111/21/19 14:53:02 METAR KPNS 212053Z 10008KT 10SM CLR 19/16 A3015 RMK AO2 SLP213 T01890161 56009 (JH),FM-15,7,,,,,,,,,,,,,,,,,,,,,,,,,,,,
72222313899,2019-11-21T15:17:00,FM-16,7,,,,,,,,,,,,,,,,,,,,,,,,,,,,,,,,,,,,,,30.16,61,69,,,,,76,,BKN:07 25,30.03,10,64,100,,8,,,,,,,,,,,,,,,,,,,,,,,,,,,,,,,,,,,,,MET09111/21/19 15:17:02 SPECI KPNS 212117Z 10007KT 10SM BKN025 21/16 A3016 RMK AO2 T02060161 (JH),FM-16,7,,,,,,,,,,,,,,,,,,,,,,,,,,,,
72222313899,2019-11-21T15:53:00,FM-15,7,,,,,,,,,,,,,,,,,,,,,,,,,,,,,,,,,,,,,,30.16,61,68,0,,,,78,30.17,BKN:07 24,30.03,10,64,100,,7,,,,,,,,,,,,,,,,,,,,,,,,,,,,,,,,,,,,,MET09811/21/19 15:53:02 METAR KPNS 212153Z 10006KT 10SM BKN024 20/16 A3016 RMK AO2 SLP216 T02000161 (JH),FM-15,7,,,,,,,,,,,,,,,,,,,,,,,,,,,,
72222313899,2019-11-21T16:51:00,FM-16,6,,,,,,,,,,,,,,,,,,,,,,,,,,,,,,,,,,,,,,30.16,61,64,,,,,88,,SCT:04 29,30.03,10,62,90,,5,,,,,,,,,,,,,,,,,,,,,,,,,,,,,,,,,,,,,MET08611/21/19 16:51:02 SPECI KPNS 212251Z 09004KT 10SM SCT029 18/16 A3016 RMK AO2 FIBI (KP),FM-16,6,,,,,,,,,,,,,,,,,,,,,,,,,,,,
72222313899,2019-11-21T16:53:00,FM-15,7,,,,,,,,,,,,,,,,,,,,,,,,,,,,,,,,,,,,,,30.16,61,65,0,,,,87,30.16,SCT:04 29,30.03,10,63,90,,7,,,,,,,,,,,,,,,,,,,,,,,,,,,,,,,,,,,,,MET09811/21/19 16:53:02 METAR KPNS 212253Z 09006KT 10SM SCT029 18/16 A3016 RMK AO2 SLP214 T01830161 (KP),FM-15,7,,,,,,,,,,,,,,,,,,,,,,,,,,,,
72222313899,2019-11-21T17:53:00,FM-15,7,,,,,,,,,,,,,,,,,,,,,,,,,,,,,,,,,,,,,,30.15,61,63,0,,0,8,93,30.16,CLR:00,30.02,10,62,90,,7,,,,,,,,,,,,,,,,,,,,,,,,,,,,,,,,,,,,,MET11311/21/19 17:53:02 METAR KPNS 212353Z 09006KT 10SM CLR 17/16 A3015 RMK AO2 SLP212 T01720161 10222 20172 58001 (KP),FM-15,7,,,,,,,,,,,,,,,,,,,,,,,,,,,,
72222313899,2019-11-21T18:00:00,SHEF ,4,,,,,,,,,,,,,,,,,,,,,,,,,,,,,,,,,,,,,,,,,,,,,,,,,,,,,,,,,,,,,,,,,,,,,,,,,,,,,,,,,,,,,,,,,,,SHEF ,4,,,,,,,,,,,,,,,,,,,,,,,,,,,,
72222313899,2019-11-21T18:53:00,FM-15,7,,,,,,,,,,,,,,,,,,,,,,,,,,,,,,,,,,,,,,30.15,61,63,0,,,,93,30.15,CLR:00,30.02,10,62,80,,7,,,,,,,,,,,,,,,,,,,,,,,,,,,,,,,,,,,,,MET09511/21/19 18:53:03 METAR KPNS 220053Z 08006KT 10SM CLR 17/16 A3015 RMK AO2 SLP210 T01720161 (KP),FM-15,7,,,,,,,,,,,,,,,,,,,,,,,,,,,,
72222313899,2019-11-21T19:53:00,FM-15,7,,,,,,,,,,,,,,,,,,,,,,,,,,,,,,,,,,,,,,30.15,61,62,0,,,,96,30.15,CLR:00,30.02,10,61,100,,6,,,,,,,,,,,,,,,,,,,,,,,,,,,,,,,,,,,,,MET09511/21/19 19:53:03 METAR KPNS 220153Z 10005KT 10SM CLR 17/16 A3015 RMK AO2 SLP210 T01670161 (KP),FM-15,7,,,,,,,,,,,,,,,,,,,,,,,,,,,,
72222313899,2019-11-21T20:53:00,FM-15,7,,,,,,,,,,,,,,,,,,,,,,,,,,,,,,,,,,,,,,30.14,62,62,0,,0.01,7,100,30.14,CLR:00,30.01,10,62,100,,7,,,,,,,,,,,,,,,,,,,,,,,,,,,,,,,,,,,,,MET10111/21/19 20:53:03 METAR KPNS 220253Z 10006KT 10SM CLR 17/17 A3014 RMK AO2 SLP208 T01670167 57004 (KP),FM-15,7,,,,,,,,,,,,,,,,,,,,,,,,,,,,
72222313899,2019-11-21T21:53:00,FM-15,7,,,,,,,,,,,,,,,,,,,,,,,,,,,,,,,,,,,,,,30.14,61,61,0,,,,100,30.14,CLR:00,30.01,10,61,100,,6,,,,,,,,,,,,,,,,,,,,,,,,,,,,,,,,,,,,,MET09511/21/19 21:53:03 METAR KPNS 220353Z 10005KT 10SM CLR 16/16 A3014 RMK AO2 SLP208 T01610161 (KP),FM-15,7,,,,,,,,,,,,,,,,,,,,,,,,,,,,
72222313899,2019-11-21T22:53:00,FM-15,7,,,,,,,,,,,,,,,,,,,,,,,,,,,,,,,,,,,,,,30.13,60,60,0,,,,100,30.13,CLR:00,30,10,60,100,,6,,,,,,,,,,,,,,,,,,,,,,,,,,,,,,,,,,,,,MET09011/21/19 22:53:03 METAR KPNS 220453Z 10005KT 10SM CLR 16/16 A3013 RMK AO2 SLP204 T01560156,FM-15,7,,,,,,,,,,,,,,,,,,,,,,,,,,,,
72222313899,2019-11-21T23:53:00,FM-15,4,,,,,,,,,,,,,,,,,,,,,,,,,,,,,,,,,,,,,,30.12,59,61,,,,,93,30.12,,,10,,100,,6,,,,,,,,,,,,,,,,,,,,,,,,,,,,,,,,,,,,,MET106METAR KPNS 220553Z AUTO 10005KT 10SM CLR 16/15 A3012 RMK AO2 SLP200 T01610150 10172 20156 402220089 58008=,FM-15,4,,,,,,,,,,,,,,,,,,,,,,,,,,,,
72222313899,2019-11-21T23:59:00,SOD  ,6,,,,,,,,,,,,,,,56,60,83,30.17,30.03,58,7.3,0,0.5,5,72,48,120,19,0,,,120,15,,,,,,,,,,,,,,,,,,,,,,,,,,,,,,,,,,,,,,,,,,,,,,,,,,,,,,,,,SOD73924 HR PRECIPITATION (IN): 0.00 SNOW DEPTH (IN):0     24 HR SNOWFALL (IN):0.0  24 HR MAX TEMP (F): 7224 HR MIN TEMP (F): 48AVERAGE STATION PRESSURE:30.035 MINIMUM SEA LEVEL PRESSURE:30.12 TIME OF OCCURRENCE:2359 PEAK WIND SPEED (MPH): 19 PEAK WIND DIR (DEG):120 PEAK WIND TIME (LST):      FASTEST 2MIN SPEED (MPH): 15FASTEST 2MIN DIR (DEG):120 FASTEST 2MIN TIME (LST):     AVERAGE WIND SPEED (MPH): 7.3 24 HR AVG TEMP (F): 60DEPART FROM NORMAL:  1  HEATING DEGREE DAYS:  5 COOLING DEGREE DAYS:  0 LATEST DAY MAX TEMP (0700-1900 LST):72  LATEST NIGHT MIN TEMP(1900-0800 LST):48 HOURLY INCREMENTAL PRECIPITATION VALUES (IN):.00 0.00 0.00 0.00 0.00 0.00 0.00 0.00 0.00 0.00 0.00 0.00 0.00 0.00 0.00 0.00 0.00 0.00 0.00 0.00 0.00 0.00 0.00 0.00,SOD  ,6,,,,,,,,,,,,,,,,,,,,,,,,,620,1649,,
72222313899,2019-11-22T00:53:00,FM-15,7,,,,,,,,,,,,,,,,,,,,,,,,,,,,,,,,,,,,,,30.11,59,59,,,,,100,30.11,FEW:02 31,29.98,10,59,80,,6,,,,,,,,,,,,,,,,,,,,,,,,,,,,,,,,,,,,,MET09311/22/19 00:53:02 METAR KPNS 220653Z 08005KT 10SM FEW031 15/15 A3011 RMK AO2 SLP197 T01500150,FM-15,7,,,,,,,,,,,,,,,,,,,,,,,,,,,,
72222313899,2019-11-22T01:53:00,FM-15,7,,,,,,,,,,,,,,,,,,,,,,,,,,,,,,,,,,,,,,30.11,58,58,,,,,100,30.11,FEW:02 30,29.98,10,58,10,,3,,,,,,,,,,,,,,,,,,,,,,,,,,,,,,,,,,,,,MET09311/22/19 01:53:02 METAR KPNS 220753Z 01003KT 10SM FEW030 14/14 A3011 RMK AO2 SLP197 T01440144,FM-15,7,,,,,,,,,,,,,,,,,,,,,,,,,,,,
72222313899,2019-11-22T02:53:00,FM-15,7,,,,,,,,,,,,,,,,,,,,,,,,,,,,,,,,,,,,,,30.08,57,57,,,0.04,8,100,30.08,SCT:04 31,29.95,10,57,0,,0,,,,,,,,,,,,,,,,,,,,,,,,,,,,,,,,,,,,,MET09911/22/19 02:53:02 METAR KPNS 220853Z 00000KT 10SM SCT031 14/14 A3008 RMK AO2 SLP186 T01390139 58014,FM-15,7,,,,,,,,,,,,,,,,,,,,,,,,,,,,
72222313899,2019-11-22T03:53:00,FM-15,7,,,,,,,,,,,,,,,,,,,,,,,,,,,,,,,,,,,,,,30.06,57,57,,,,,100,30.06,CLR:00,29.93,10,57,0,,0,,,,,,,,,,,,,,,,,,,,,,,,,,,,,,,,,,,,,MET09011/22/19 03:53:02 METAR KPNS 220953Z 00000KT 10SM CLR 14/14 A3006 RMK AO2 SLP180 T01390139,FM-15,7,,,,,,,,,,,,,,,,,,,,,,,,,,,,
72222313899,2019-11-22T04:53:00,FM-15,7,,,,,,,,,,,,,,,,,,,,,,,,,,,,,,,,,,,,,,30.06,58,58,,,,,100,30.07,CLR:00,29.93,10,58,0,,0,,,,,,,,,,,,,,,,,,,,,,,,,,,,,,,,,,,,,MET09011/22/19 04:53:02 METAR KPNS 221053Z 00000KT 10SM CLR 14/14 A3006 RMK AO2 SLP182 T01440144,FM-15,7,,,,,,,,,,,,,,,,,,,,,,,,,,,,
72222313899,2019-11-22T05:53:00,FM-15,7,,,,,,,,,,,,,,,,,,,,,,,,,,,,,,,,,,,,,,30.08,61,61,,,0,3,100,30.08,BKN:07 36,29.95,10,61,0,,0,,,,,,,,,,,,,,,,,,,,,,,,,,,,,,,,,,,,,MET11611/22/19 05:53:02 METAR KPNS 221153Z 00000KT 10SM BKN036 16/16 A3008 RMK AO2 SLP187 T01610161 10161 20139 53001 (JH),FM-15,7,,,,,,,,,,,,,,,,,,,,,,,,,,,,
72222313899,2019-11-22T06:53:00,FM-15,7,,,,,,,,,,,,,,,,,,,,,,,,,,,,,,,,,,,,,,30.08,60,60,,,,,100,30.08,SCT:04 38,29.95,10,60,90,,3,,,,,,,,,,,,,,,,,,,,,,,,,,,,,,,,,,,,,MET09811/22/19 06:53:02 METAR KPNS 221253Z 09003KT 10SM SCT038 16/16 A3008 RMK AO2 SLP187 T01560156 (JH),FM-15,7,,,,,,,,,,,,,,,,,,,,,,,,,,,,
72222313899,2019-11-22T07:53:00,FM-15,7,,,,,,,,,,,,,,,,,,,,,,,,,,,,,,,,,,,,,,30.09,62,63,,,,,97,30.1,SCT:04 37,29.96,10,62,0,,0,,,,,,,,,,,,,,,,,,,,,,,,,,,,,,,,,,,,,MET09811/22/19 07:53:02 METAR KPNS 221353Z 00000KT 10SM SCT037 17/17 A3009 RMK AO2 SLP193 T01720167 (JH),FM-15,7,,,,,,,,,,,,,,,,,,,,,,,,,,,,
72222313899,2019-11-22T08:53:00,FM-15,7,,,,,,,,,,,,,,,,,,,,,,,,,,,,,,,,,,,,,,30.11,65,68,,,-0.04,3,90,30.12,SCT:04 34,29.98,10,66,0,,0,,,,,,,,,,,,,,,,,,,,,,,,,,,,,,,,,,,,,MET10411/22/19 08:53:02 METAR KPNS 221453Z 00000KT 10SM SCT034 20/18 A3011 RMK AO2 SLP199 T02000183 53012 (MT),FM-15,7,,,,,,,,,,,,,,,,,,,,,,,,,,,,
72222313899,2019-11-22T09:53:00,FM-15,7,,,,,,,,,,,,,,,,,,,,,,,,,,,,,,,,,,,,,,30.11,65,74,,,,,74,30.11,CLR:00,29.98,10,68,180,,6,,,,,,,,,,,,,,,,,,,,,,,,,,,,,,,,,,,,,MET09511/22/19 09:53:02 METAR KPNS 221553Z 18005KT 10SM CLR 23/18 A3011 RMK AO2 SLP197 T02330183 (MT),FM-15,7,,,,,,,,,,,,,,,,,,,,,,,,,,,,
72222313899,2019-11-22T10:53:00,FM-15,7,,,,,,,,,,,,,,,,,,,,,,,,,,,,,,,,,,,,,,30.1,64,75,,,,,69,30.1,CLR:00,29.97,10,68,180,,9,,,,,,,,,,,,,,,,,,,,,,,,,,,,,,,,,,,,,MET09511/22/19 10:53:02 METAR KPNS 221653Z 18008KT 10SM CLR 24/18 A3010 RMK AO2 SLP193 T02390178 (MT),FM-15,7,,,,,,,,,,,,,,,,,,,,,,,,,,,,
72222313899,2019-11-22T11:53:00,FM-15,7,,,,,,,,,,,,,,,,,,,,,,,,,,,,,,,,,,,,,,30.06,63,77,,,0.05,8,62,30.07,CLR:00,29.93,10,68,180,,10,,,,,,,,,,,,,,,,,,,,,,,,,,,,,,,,,,,,,MET11311/22/19 11:53:02 METAR KPNS 221753Z 18009KT 10SM CLR 25/17 A3006 RMK AO2 SLP182 T02500172 10256 20156 58017 (MT),FM-15,7,,,,,,,,,,,,,,,,,,,,,,,,,,,,
72222313899,2019-11-22T12:53:00,FM-15,7,,,,,,,,,,,,,,,,,,,,,,,,,,,,,,,,,,,,,,30.03,63,77,,,,,62,30.04,BKN:07 35,29.9,10,68,180,,11,,,,,,,,,,,,,,,,,,,,,,,,,,,,,,,,,,,,,MET09811/22/19 12:53:02 METAR KPNS 221853Z 18010KT 10SM BKN035 25/17 A3003 RMK AO2 SLP172 T02500172 (MT),FM-15,7,,,,,,,,,,,,,,,,,,,,,,,,,,,,
72222313899,2019-11-22T13:53:00,FM-15,7,,,,,,,,,,,,,,,,,,,,,,,,,,,,,,,,,,,,,,30.01,63,75,,,,,66,30.01,FEW:02 35,29.88,10,67,190,,15,,,,,,,,,,,,,,,,,,,,,,,,,,,,,,,,,,,,,MET09811/22/19 13:53:02 METAR KPNS 221953Z 19013KT 10SM FEW035 24/17 A3001 RMK AO2 SLP164 T02390172 (MT),FM-15,7,,,,,,,,,,,,,,,,,,,,,,,,,,,,
72222313899,2019-11-22T14:53:00,FM-15,7,,,,,,,,,,,,,,,,,,,,,,,,,,,,,,,,,,,,,,30.01,63,75,,,0.06,6,66,30.01,FEW:02 30,29.88,10,67,180,,11,,,,,,,,,,,,,,,,,,,,,,,,,,,,,,,,,,,,,MET10411/22/19 14:53:02 METAR KPNS 222053Z 18010KT 10SM FEW030 24/17 A3001 RMK AO2 SLP162 T02390172 56020 (MT),FM-15,7,,,,,,,,,,,,,,,,,,,,,,,,,,,,
72222313899,2019-11-22T15:53:00,FM-15,7,,,,,,,,,,,,,,,,,,,,,,,,,,,,,,,,,,,,,,30.01,63,74,,,,,69,30.01,CLR:00,29.88,10,67,190,,9,,,,,,,,,,,,,,,,,,,,,,,,,,,,,,,,,,,,,MET09511/22/19 15:53:02 METAR KPNS 222153Z 19008KT 10SM CLR 23/17 A3001 RMK AO2 SLP164 T02330172 (MT),FM-15,7,,,,,,,,,,,,,,,,,,,,,,,,,,,,
72222313899,2019-11-22T16:53:00,FM-15,7,,,,,,,,,,,,,,,,,,,,,,,,,,,,,,,,,,,,,,30.02,64,70,,,,,82,30.02,CLR:00,29.89,10,66,220,,3,,,,,,,,,,,,,,,,,,,,,,,,,,,,,,,,,,,,,MET09511/22/19 16:53:02 METAR KPNS 222253Z 22003KT 10SM CLR 21/18 A3002 RMK AO2 SLP167 T02110178 (SN),FM-15,7,,,,,,,,,,,,,,,,,,,,,,,,,,,,
72222313899,2019-11-22T17:53:00,FM-15,7,,,,,,,,,,,,,,,,,,,,,,,,,,,,,,,,,,,,,,30.02,64,67,,,-0.01,1,91,30.02,CLR:00,29.89,10,65,0,,0,,,,,,,,,,,,,,,,,,,,,,,,,,,,,,,,,,,,,MET11311/22/19 17:53:02 METAR KPNS 222353Z 00000KT 10SM CLR 19/18 A3002 RMK AO2 SLP167 T01940178 10256 20194 51005 (SN),FM-15,7,,,,,,,,,,,,,,,,,,,,,,,,,,,,
72222313899,2019-11-22T18:53:00,FM-15,7,,,,,,,,,,,,,,,,,,,,,,,,,,,,,,,,,,,,,,30.02,64,66,,,,,93,30.02,CLR:00,29.89,10,65,170,,5,,,,,,,,,,,,,,,,,,,,,,,,,,,,,,,,,,,,,MET09511/22/19 18:53:03 METAR KPNS 230053Z 17004KT 10SM CLR 19/18 A3002 RMK AO2 SLP167 T01890178 (SN),FM-15,7,,,,,,,,,,,,,,,,,,,,,,,,,,,,
72222313899,2019-11-22T19:53:00,FM-15,7,,,,,,,,,,,,,,,,,,,,,,,,,,,,,,,,,,,,,,30.01,65,67,,,,,93,30.01,CLR:00,29.88,10,66,110,,5,,,,,,,,,,,,,,,,,,,,,,,,,,,,,,,,,,,,,MET09511/22/19 19:53:03 METAR KPNS 230153Z 11004KT 10SM CLR 19/18 A3001 RMK AO2 SLP164 T01940183 (SN),FM-15,7,,,,,,,,,,,,,,,,,,,,,,,,,,,,
72222313899,2019-11-22T20:53:00,FM-15,7,,,,,,,,,,,,,,,,,,,,,,,,,,,,,,,,,,,,,,30.01,65,65,,,0.01,8,100,30.01,CLR:00,29.88,10,65,120,,5,,,,,,,,,,,,,,,,,,,,,,,,,,,,,,,,,,,,,MET10111/22/19 20:53:03 METAR KPNS 230253Z 12004KT 10SM CLR 18/18 A3001 RMK AO2 SLP163 T01830183 58004 (SN),FM-15,7,,,,,,,,,,,,,,,,,,,,,,,,,,,,
72222313899,2019-11-22T21:53:00,FM-15,7,,,,,,,,,,,,,,,,,,,,,,,,,,,,,,,,,,,,,,30,65,65,,,,,100,30,CLR:00,29.87,10,65,120,,6,,,,,,,,,,,,,,,,,,,,,,,,,,,,,,,,,,,,,MET09511/22/19 21:53:03 METAR KPNS 230353Z 12005KT 10SM CLR 18/18 A3000 RMK AO2 SLP160 T01830183 (SN),FM-15,7,,,,,,,,,,,,,,,,,,,,,,,,,,,,
72222313899,2019-11-22T22:53:00,FM-15,7,,,,,,,,,,,,,,,,,,,,,,,,,,,,,,,,,,,,,,30,65,65,,,,,100,30,,29.87,10,65,130,,3,,,,,,,,,,,,,,,,,,,,,,,,,,,,,,,,,,,,,MET08811/22/19 22:53:03 METAR KPNS 230453Z 13003KT 10SM 18/18 A3000 RMK AO2 SLP159 T01830183 $,FM-15,7,,,,,,,,,,,,,,,,,,,,,,,,,,,,
72222313899,2019-11-22T23:53:00,FM-15,7,,,,,,,,,,,,,,,,,,,,,,,,,,,,,,,,,,,,,,29.98,65,65,,,,,100,29.99,CLR:00,29.85,10,65,0,,0,,,,,,,,,,,,,,,,,,,,,,,,,,,,,,,,,,,,,MET11411/22/19 23:53:03 METAR KPNS 230553Z 00000KT 10SM CLR 18/18 A2998 RMK AO2 SLP155 T01830183 10194 20172 402560139 $,FM-15,7,,,,,,,,,,,,,,,,,,,,,,,,,,,,
72222313899,2019-11-22T23:59:00,SOD  ,6,,,,,,,,,,,,,,,62,68,88,30.05,29.92,63,4.6,3,8.8,0,78,57,170,19,0,,,180,15,,,,,,,,,,,,,,,,,,,,,,,,,,,,,,,,,,,,,,,,,,,,,,,,,,,,,,,,,SOD44124 HR PRECIPITATION (IN): 0.00 SNOW DEPTH (IN):0     24 HR SNOWFALL (IN):0.0  24 HR MAX TEMP (F): 7824 HR MIN TEMP (F): 57AVERAGE STATION PRESSURE(D):29.921 PEAK WIND SPEED (MPH): 19 PEAK WIND DIR (DEG):170 PEAK WIND TIME (LST):      FASTEST 2MIN SPEED (MPH): 15FASTEST 2MIN DIR (DEG):180 FASTEST 2MIN TIME (LST):     AVERAGE WIND SPEED (MPH): 4.6 24 HR AVG TEMP (F): 68DEPART FROM NORMAL:  9  HEATING DEGREE DAYS:  0 COOLING DEGREE DAYS:  3,SOD  ,6,,,,,,,,,,,,,,,,,,,,,,,,,620,1649,,
72222313899,2019-11-23T00:53:00,FM-15,7,,,,,,,,,,,,,,,,,,,,,,,,,,,,,,,,,,,,,,29.97,66,66,0,,,,100,29.98,OVC:08 49,29.84,10,66,150,,3,,,,,,,,,,,,,,,,,,,,,,,,,,,,,,,,,,,,,MET09511/23/19 00:53:02 METAR KPNS 230653Z 15003KT 10SM OVC049 19/19 A2997 RMK AO2 SLP152 T01890189 $,FM-15,7,,,,,,,,,,,,,,,,,,,,,,,,,,,,
72222313899,2019-11-23T01:53:00,FM-15,7,,,,,,,,,,,,,,,,,,,,,,,,,,,,,,,,,,,,,,29.95,67,67,0,,,,100,29.96,SCT:04 55,29.82,10,67,0,,0,,,,,,,,,,,,,,,,,,,,,,,,,,,,,,,,,,,,,MET09511/23/19 01:53:02 METAR KPNS 230753Z 00000KT 10SM SCT055 19/19 A2995 RMK AO2 SLP145 T01940194 $,FM-15,7,,,,,,,,,,,,,,,,,,,,,,,,,,,,
72222313899,2019-11-23T02:53:00,FM-15,7,,,,,,,,,,,,,,,,,,,,,,,,,,,,,,,,,,,,,,29.94,66,66,0,,0.04,8,100,29.95,FEW:02 55,29.81,10,66,190,,7,,,,,,,,,,,,,,,,,,,,,,,,,,,,,,,,,,,,,MET10111/23/19 02:53:02 METAR KPNS 230853Z 19006KT 10SM FEW055 19/19 A2994 RMK AO2 SLP141 T01890189 58014 $,FM-15,7,,,,,,,,,,,,,,,,,,,,,,,,,,,,
72222313899,2019-11-23T03:53:00,FM-15,7,,,,,,,,,,,,,,,,,,,,,,,,,,,,,,,,,,,,,,29.93,67,67,0,,,,100,29.94,FEW:02 32 FEW:02 40 SCT:04 55,29.8,10,67,210,,7,,,,,,,,,,,,,,,,,,,,,,,,,,,,,,,,,,,,,MET10911/23/19 03:53:02 METAR KPNS 230953Z 21006KT 10SM FEW032 FEW040 SCT055 19/19 A2993 RMK AO2 SLP138 T01940194 $,FM-15,7,,,,,,,,,,,,,,,,,,,,,,,,,,,,
72222313899,2019-11-23T04:53:00,FM-15,7,,,,,,,,,,,,,,,,,,,,,,,,,,,,,,,,,,,,,,29.92,69,69,T,,,,100,29.92,SCT:04 42 BKN:07 55,29.79,10,69,210,,8,,,,,,,,,,,,,,,,,,,,,,,,,,,,,,,,,,,,,MET10211/23/19 04:53:02 METAR KPNS 231053Z 21007KT 10SM SCT042 BKN055 21/21 A2992 RMK AO2 SLP132 T02060206 $,FM-15,7,,,,,,,,,,,,,,,,,,,,,,,,,,,,
72222313899,2019-11-23T05:53:00,FM-15,7,,,,,,,,,,,,,,,,,,,,,,,,,,,,,,,,,,,,,,29.92,69,69,0.01,,0.02,5,100,29.93,CLR:00,29.79,10,69,220,,8,,,,,,,,,,,,,,,,,,,,,,,,,,,,,,,,,,,,,MET14411/23/19 05:53:02 METAR KPNS 231153Z 22007KT 10SM CLR 21/21 A2992 RMK AO2 RAB1055E06 SLP135 P0001 60001 70001 T02060206 10211 20183 55006 $ (SN),FM-15,7,,,,,,,,,,,,,,,,,,,,,,,,,,,,
72222313899,2019-11-23T06:53:00,FM-15,7,,,,,,,,,,,,,,,,,,,,,,,,,,,,,,,,,,,,,,29.92,70,70,0,,,,100,29.93,FEW:02 22,29.79,10,70,210,,8,,,,,,,,,,,,,,,,,,,,,,,,,,,,,,,,,,,,,MET10011/23/19 06:53:02 METAR KPNS 231253Z 21007KT 10SM FEW022 21/21 A2992 RMK AO2 SLP134 T02110211 $ (SN),FM-15,7,,,,,,,,,,,,,,,,,,,,,,,,,,,,
72222313899,2019-11-23T07:53:00,FM-15,7,,,,,,,,,,,,,,,,,,,,,,,,,,,,,,,,,,,,,,29.92,71,73,0,,,,94,29.93,CLR:00,29.79,10,72,210,21,15,,,,,,,,,,,,,,,,,,,,,,,,,,,,,,,,,,,,,MET10011/23/19 07:53:02 METAR KPNS 231353Z 21013G18KT 10SM CLR 23/22 A2992 RMK AO2 SLP135 T02280217 $ (SN),FM-15,7,,,,,,,,,,,,,,,,,,,,,,,,,,,,
72222313899,2019-11-23T08:53:00,FM-15,7,,,,,,,,,,,,,,,,,,,,,,,,,,,,,,,,,,,,,,29.93,70,76,0,,0,3,82,29.93,SCT:04 25,29.8,10,72,210,28,18,,,,,,,,,,,,,,,,,,,,,,,,,,,,,,,,,,,,,MET10911/23/19 08:53:02 METAR KPNS 231453Z 21016G24KT 10SM SCT025 24/21 A2993 RMK AO2 SLP136 T02440211 53001 $ (SN),FM-15,7,,,,,,,,,,,,,,,,,,,,,,,,,,,,
72222313899,2019-11-23T09:53:00,FM-15,7,,,,,,,,,,,,,,,,,,,,,,,,,,,,,,,,,,,,,,29.92,69,77,0,,,,77,29.93,FEW:02 22 BKN:07 48 BKN:07 80,29.79,10,72,220,30,21,,,,,,,,,,,,,,,,,,,,,,,,,,,,,,,,,,,,,MET13511/23/19 09:53:02 METAR KPNS 231553Z 22018G26KT 10SM FEW022 BKN048 BKN080 25/21 A2992 RMK AO2 PK WND 21026/1553 SLP135 T02500206 $ (KP),FM-15,7,,,,,,,,,,,,,,,,,,,,,,,,,,,,
72222313899,2019-11-23T10:53:00,FM-15,7,,,,,,,,,,,,,,,,,,,,,,,,,,,,,,,,,,,,,,29.91,72,73,0.01,RA:02 BR:1 |RA |RA,,,96,29.91,FEW:02 21 BKN:07 44 OVC:08 80,29.78,5,72,220,,14,,,,,,,,,,,,,,,,,,,,,,,,,,,,,,,,,,,,,MET14911/23/19 10:53:02 METAR KPNS 231653Z 22012KT 5SM RA BR FEW021 BKN044 OVC080 23/22 A2991 RMK AO2 PK WND 20026/1600 RAB20 SLP128 P0001 T02280222 $ (KP),FM-15,7,,,,,,,,,,,,,,,,,,,,,,,,,,,,
72222313899,2019-11-23T11:29:00,FM-16,7,,,,,,,,,,,,,,,,,,,,,,,,,,,,,,,,,,,,,,29.89,72,72,0.03,-RA:02 BR:1 |RA |RA,,,100,,OVC:08 7,29.76,2,72,220,,14,,,,,,,,,,,,,,,,,,,,,,,,,,,,,,,,,,,,,MET10311/23/19 11:29:02 SPECI KPNS 231729Z 22012KT 2SM -RA BR OVC007 22/22 A2989 RMK AO2 P0003 T02220222 (KP),FM-16,7,,,,,,,,,,,,,,,,,,,,,,,,,,,,
72222313899,2019-11-23T11:53:00,FM-15,7,,,,,,,,,,,,,,,,,,,,,,,,,,,,,,,,,,,,,,29.87,72,72,0.09,-RA:02 BR:1 |RA |RA,0.06,8,100,29.87,OVC:08 7,29.74,2,72,220,,11,,,,,,,,,,,,,,,,,,,,,,,,,,,,,,,,,,,,,MET13411/23/19 11:53:02 METAR KPNS 231753Z 22010KT 2SM -RA BR OVC007 22/22 A2987 RMK AO2 SLP115 P0009 60010 T02220222 10261 20206 58020 (KP),FM-15,7,,,,,,,,,,,,,,,,,,,,,,,,,,,,
72222313899,2019-11-23T12:00:00,FM-16,7,,,,,,,,,,,,,,,,,,,,,,,,,,,,,,,,,,,,,,29.86,72,72,T,-RA:02 BR:1 |RA |RA,,,100,,BKN:07 9 BKN:07 14 OVC:08 30,29.73,4,72,240,,10,,,,,,,,,,,,,,,,,,,,,,,,,,,,,,,,,,,,,MET11711/23/19 12:00:02 SPECI KPNS 231800Z 24009KT 4SM -RA BR BKN009 BKN014 OVC030 22/22 A2986 RMK AO2 P0000 T02220222 (KP),FM-16,7,,,,,,,,,,,,,,,,,,,,,,,,,,,,
72222313899,2019-11-23T12:53:00,FM-15,7,,,,,,,,,,,,,,,,,,,,,,,,,,,,,,,,,,,,,,29.85,71,71,T,-RA:02 |RA |RA,,,100,29.85,BKN:07 7 BKN:07 12 OVC:08 22,29.72,9,71,260,,11,,,,,,,,,,,,,,,,,,,,,,,,,,,,,,,,,,,,,MET13011/23/19 12:53:02 METAR KPNS 231853Z 26010KT 9SM -RA BKN007 BKN012 OVC022 22/22 A2985 RMK AO2 RAE18B52 SLP109 P0000 T02170217 (KP),FM-15,7,,,,,,,,,,,,,,,,,,,,,,,,,,,,
72222313899,2019-11-23T13:27:00,FM-16,7,,,,,,,,,,,,,,,,,,,,,,,,,,,,,,,,,,,,,,29.84,71,71,T,-RA:02 |RA |RA,,,100,,OVC:08 10,29.71,10,71,280,,11,,,,,,,,,,,,,,,,,,,,,,,,,,,,,,,,,,,,,MET11311/23/19 13:27:02 SPECI KPNS 231927Z 28010KT 10SM -RA OVC010 22/22 A2984 RMK AO2 CIG 006V013 P0000 T02170217 (KP),FM-16,7,,,,,,,,,,,,,,,,,,,,,,,,,,,,
72222313899,2019-11-23T13:53:00,FM-15,7,,,,,,,,,,,,,,,,,,,,,,,,,,,,,,,,,,,,,,29.85,70,70,0.01,-RA:02 |RA |RA,,,100,29.85,BKN:07 10 BKN:07 21 OVC:08 80,29.72,8,70,280,,9,,,,,,,,,,,,,,,,,,,,,,,,,,,,,,,,,,,,,MET13311/23/19 13:53:02 METAR KPNS 231953Z 28008KT 8SM -RA BKN010 BKN021 OVC080 21/21 A2985 RMK AO2 CIG 007V013 SLP110 P0000 T02110211 (KP),FM-15,7,,,,,,,,,,,,,,,,,,,,,,,,,,,,
72222313899,2019-11-23T14:01:00,FM-16,7,,,,,,,,,,,,,,,,,,,,,,,,,,,,,,,,,,,,,,29.85,70,70,0.01,-RA:02 |RA |RA,,,100,,BKN:07 9 BKN:07 23 OVC:08 85,29.72,9,70,280,,11,,,,,,,,,,,,,,,,,,,,,,,,,,,,,,,,,,,,,MET11411/23/19 14:01:02 SPECI KPNS 232001Z 28010KT 9SM -RA BKN009 BKN023 OVC085 21/21 A2985 RMK AO2 P0001 T02110211 (KP),FM-16,7,,,,,,,,,,,,,,,,,,,,,,,,,,,,
72222313899,2019-11-23T14:23:00,FM-16,7,,,,,,,,,,,,,,,,,,,,,,,,,,,,,,,,,,,,,,29.85,70,71,0.01,,,,96,,FEW:02 29 SCT:04 95 BKN:07 120,29.72,10,70,260,,10,,,,,,,,,,,,,,,,,,,,,,,,,,,,,,,,,,,,,MET11711/23/19 14:23:02 SPECI KPNS 232023Z 26009KT 10SM FEW029 SCT095 BKN120 22/21 A2985 RMK AO2 RAE16 P0001 T02170211 (KP),FM-16,7,,,,,,,,,,,,,,,,,,,,,,,,,,,,
72222313899,2019-11-23T14:53:00,FM-15,7,,,,,,,,,,,,,,,,,,,,,,,,,,,,,,,,,,,,,,29.85,66,71,T,,0.02,6,84,29.85,SCT:04 29,29.72,10,68,300,,11,,,,,,,,,,,,,,,,,,,,,,,,,,,,,,,,,,,,,MET12211/23/19 14:53:02 METAR KPNS 232053Z 30010KT 10SM SCT029 22/19 A2985 RMK AO2 RAE16 SLP109 P0001 60001 T02170189 56006 (KP),FM-15,7,,,,,,,,,,,,,,,,,,,,,,,,,,,,
72222313899,2019-11-23T15:53:00,FM-15,7,,,,,,,,,,,,,,,,,,,,,,,,,,,,,,,,,,,,,,29.86,59,68,0,,,,73,29.87,SCT:04 30,29.73,10,63,310,,11,,,,,,,,,,,,,,,,,,,,,,,,,,,,,,,,,,,,,MET09811/23/19 15:53:02 METAR KPNS 232153Z 31010KT 10SM SCT030 20/15 A2986 RMK AO2 SLP114 T02000150 (KP),FM-15,7,,,,,,,,,,,,,,,,,,,,,,,,,,,,
72222313899,2019-11-23T16:53:00,FM-15,7,,,,,,,,,,,,,,,,,,,,,,,,,,,,,,,,,,,,,,29.88,55,64,0,,,,73,29.88,CLR:00,29.75,10,59,310,,8,,,,,,,,,,,,,,,,,,,,,,,,,,,,,,,,,,,,,MET09511/23/19 16:53:02 METAR KPNS 232253Z 31007KT 10SM CLR 18/13 A2988 RMK AO2 SLP119 T01780128 (DW),FM-15,7,,,,,,,,,,,,,,,,,,,,,,,,,,,,
72222313899,2019-11-23T17:28:00,FM-16,7,,,,,,,,,,,,,,,,,,,,,,,,,,,,,,,,,,,,,,29.88,56,62,,,,,80,,FEW:02 2,29.75,10,59,290,,6,,,,,,,,,,,,,,,,,,,,,,,,,,,,,,,,,,,,,MET09111/23/19 17:28:02 SPECI KPNS 232328Z 29005KT 10SM FEW002 17/13 A2988 RMK AO2 T01670133 (DW),FM-16,7,,,,,,,,,,,,,,,,,,,,,,,,,,,,
72222313899,2019-11-23T17:53:00,FM-15,7,,,,,,,,,,,,,,,,,,,,,,,,,,,,,,,,,,,,,,29.9,56,61,0,,-0.05,3,84,29.9,CLR:00,29.77,10,58,300,,6,,,,,,,,,,,,,,,,,,,,,,,,,,,,,,,,,,,,,MET11911/23/19 17:53:02 METAR KPNS 232353Z 30005KT 10SM CLR 16/13 A2990 RMK AO2 SLP125 60001 T01610133 10222 20156 53016 (DW),FM-15,7,,,,,,,,,,,,,,,,,,,,,,,,,,,,
72222313899,2019-11-23T18:53:00,FM-15,7,,,,,,,,,,,,,,,,,,,,,,,,,,,,,,,,,,,,,,29.92,56,60,0,,,,86,29.92,CLR:00,29.79,10,58,310,,6,,,,,,,,,,,,,,,,,,,,,,,,,,,,,,,,,,,,,MET09511/23/19 18:53:03 METAR KPNS 240053Z 31005KT 10SM CLR 16/13 A2992 RMK AO2 SLP133 T01560133 (DW),FM-15,7,,,,,,,,,,,,,,,,,,,,,,,,,,,,
72222313899,2019-11-23T19:53:00,FM-15,7,,,,,,,,,,,,,,,,,,,,,,,,,,,,,,,,,,,,,,29.94,56,58,0,,,,93,29.94,CLR:00,29.81,10,57,290,,8,,,,,,,,,,,,,,,,,,,,,,,,,,,,,,,,,,,,,MET09511/23/19 19:53:03 METAR KPNS 240153Z 29007KT 10SM CLR 14/13 A2994 RMK AO2 SLP140 T01440133 (DW),FM-15,7,,,,,,,,,,,,,,,,,,,,,,,,,,,,
72222313899,2019-11-23T20:53:00,FM-15,7,,,,,,,,,,,,,,,,,,,,,,,,,,,,,,,,,,,,,,29.96,54,56,0,,-0.06,1,93,29.97,CLR:00,29.83,10,55,320,,8,,,,,,,,,,,,,,,,,,,,,,,,,,,,,,,,,,,,,MET10111/23/19 20:53:03 METAR KPNS 240253Z 32007KT 10SM CLR 13/12 A2996 RMK AO2 SLP148 T01330122 51022 (DW),FM-15,7,,,,,,,,,,,,,,,,,,,,,,,,,,,,
72222313899,2019-11-23T21:53:00,FM-15,7,,,,,,,,,,,,,,,,,,,,,,,,,,,,,,,,,,,,,,29.97,51,52,0,,,,97,29.98,CLR:00,29.84,10,51,330,,7,,,,,,,,,,,,,,,,,,,,,,,,,,,,,,,,,,,,,MET09511/23/19 21:53:03 METAR KPNS 240353Z 33006KT 10SM CLR 11/11 A2997 RMK AO2 SLP151 T01110106 (DW),FM-15,7,,,,,,,,,,,,,,,,,,,,,,,,,,,,
72222313899,2019-11-23T22:53:00,FM-15,7,,,,,,,,,,,,,,,,,,,,,,,,,,,,,,,,,,,,,,29.98,50,53,0,,,,89,29.98,CLR:00,29.85,10,51,320,,5,,,,,,,,,,,,,,,,,,,,,,,,,,,,,,,,,,,,,MET09011/23/19 22:53:03 METAR KPNS 240453Z 32004KT 10SM CLR 12/10 A2998 RMK AO2 SLP154 T01170100,FM-15,7,,,,,,,,,,,,,,,,,,,,,,,,,,,,
72222313899,2019-11-23T23:34:00,FM-16,7,,,,,,,,,,,,,,,,,,,,,,,,,,,,,,,,,,,,,,29.98,50,51,,,,,96,,BKN:07 26,29.85,10,50,330,,6,,,,,,,,,,,,,,,,,,,,,,,,,,,,,,,,,,,,,MET08611/23/19 23:34:03 SPECI KPNS 240534Z 33005KT 10SM BKN026 11/10 A2998 RMK AO2 T01060100,FM-16,7,,,,,,,,,,,,,,,,,,,,,,,,,,,,
72222313899,2019-11-23T23:53:00,FM-15,7,,,,,,,,,,,,,,,,,,,,,,,,,,,,,,,,,,,,,,29.98,51,52,0,,-0.02,1,97,29.99,OVC:08 27,29.85,10,51,330,,7,,,,,,,,,,,,,,,,,,,,,,,,,,,,,,,,,,,,,MET12111/23/19 23:53:02 METAR KPNS 240553Z 33006KT 10SM OVC027 11/11 A2998 RMK AO2 SLP155 T01110106 10161 20106 402610106 51008,FM-15,7,,,,,,,,,,,,,,,,,,,,,,,,,,,,
72222313899,2019-11-23T23:59:00,SOD  ,6,,,,,,,,,,,,,,,63,65,92,29.93,29.78,64,9.1,0,6.1,0,79,51,200,30,0.12,,,210,24,RA BR,,,,,,,,,,,,,,,,,,,,,,,,,,,,,,,,,,,,,,,,,,,,,,,,,,,,,,,,SOD75624 HR PRECIPITATION (IN): 0.12 SNOW DEPTH (IN):0     24 HR SNOWFALL (IN):0.0  WEATHER(CODE):1  24 HR MAX TEMP (F): 7924 HR MIN TEMP (F): 51AVERAGE STATION PRESSURE:29.785 MINIMUM SEA LEVEL PRESSURE:29.85 TIME OF OCCURRENCE:1515 PEAK WIND SPEED (MPH): 30 PEAK WIND DIR (DEG):200 PEAK WIND TIME (LST):      FASTEST 2MIN SPEED (MPH): 24FASTEST 2MIN DIR (DEG):210 FASTEST 2MIN TIME (LST):     AVERAGE WIND SPEED (MPH): 9.1 24 HR AVG TEMP (F): 65DEPART FROM NORMAL:  6  HEATING DEGREE DAYS:  0 COOLING DEGREE DAYS:  0 LATEST DAY MAX TEMP (0700-1900 LST):79  LATEST NIGHT MIN TEMP(1900-0800 LST):63 HOURLY INCREMENTAL PRECIPITATION VALUES (IN):.00 0.00 0.00 0.00 T    0.01 0.00 0.00 0.00 0.00 0.01 0.09 T    0.01 T    0.00 0.00 0.00 0.00 0.00 0.00 0.00 0.00 0.00,SOD  ,6,,,,,,,,,,,,,,,,,,,,,,,,,621,1649,,
72222313899,2019-11-24T00:26:00,FM-16,7,,,,,,,,,,,,,,,,,,,,,,,,,,,,,,,,,,,,,,29.98,49,51,,,,,92,,FEW:02 25,29.85,10,50,330,,8,,,,,,,,,,,,,,,,,,,,,,,,,,,,,,,,,,,,,MET08611/24/19 00:26:02 SPECI KPNS 240626Z 33007KT 10SM FEW025 11/09 A2998 RMK AO2 T01060094,FM-16,7,,,,,,,,,,,,,,,,,,,,,,,,,,,,
72222313899,2019-11-24T00:53:00,FM-15,7,,,,,,,,,,,,,,,,,,,,,,,,,,,,,,,,,,,,,,29.98,49,51,0,,,,92,29.99,SCT:04 21,29.85,10,50,330,,11,,,,,,,,,,,,,,,,,,,,,,,,,,,,,,,,,,,,,MET09311/24/19 00:53:02 METAR KPNS 240653Z 33010KT 10SM SCT021 11/09 A2998 RMK AO2 SLP155 T01060094,FM-15,7,,,,,,,,,,,,,,,,,,,,,,,,,,,,
72222313899,2019-11-24T01:53:00,FM-15,7,,,,,,,,,,,,,,,,,,,,,,,,,,,,,,,,,,,,,,29.98,47,49,0,,,,93,29.98,FEW:02 17,29.85,10,48,320,,9,,,,,,,,,,,,,,,,,,,,,,,,,,,,,,,,,,,,,MET09311/24/19 01:53:02 METAR KPNS 240753Z 32008KT 10SM FEW017 09/08 A2998 RMK AO2 SLP154 T00940083,FM-15,7,,,,,,,,,,,,,,,,,,,,,,,,,,,,
72222313899,2019-11-24T02:21:00,FM-16,7,,,,,,,,,,,,,,,,,,,,,,,,,,,,,,,,,,,,,,29.98,47,49,,,,,93,,BKN:07 19,29.85,10,48,340,,6,,,,,,,,,,,,,,,,,,,,,,,,,,,,,,,,,,,,,MET08611/24/19 02:21:02 SPECI KPNS 240821Z 34005KT 10SM BKN019 09/08 A2998 RMK AO2 T00940083,FM-16,7,,,,,,,,,,,,,,,,,,,,,,,,,,,,
72222313899,2019-11-24T02:27:00,SHEF ,4,,,,,,,,,,,,,,,,,,,,,,,,,,,,,,,,,,,,,,,,,,,,,,,,,,,,,,,,,,,,,,,,,,,,,,,,,,,,,,,,,,,,,,,,,,,SHEF ,4,,,,,,,,,,,,,,,,,,,,,,,,,,,,
72222313899,2019-11-24T02:49:00,FM-16,7,,,,,,,,,,,,,,,,,,,,,,,,,,,,,,,,,,,,,,29.99,46,48,,,,,94,,BKN:07 11 OVC:08 21,29.86,10,47,320,,8,,,,,,,,,,,,,,,,,,,,,,,,,,,,,,,,,,,,,MET08311/24/19 02:49:02 SPECI KPNS 240849Z 32007KT 10SM BKN011 OVC021 09/08 A2999 RMK AO2,FM-16,7,,,,,,,,,,,,,,,,,,,,,,,,,,,,
72222313899,2019-11-24T02:53:00,FM-15,7,,,,,,,,,,,,,,,,,,,,,,,,,,,,,,,,,,,,,,29.99,47,49,0,,-0.01,3,93,30,BKN:07 11 OVC:08 21,29.86,10,48,340,,10,,,,,,,,,,,,,,,,,,,,,,,,,,,,,,,,,,,,,MET10611/24/19 02:53:02 METAR KPNS 240853Z 34009KT 10SM BKN011 OVC021 09/08 A2999 RMK AO2 SLP158 T00940083 53003,FM-15,7,,,,,,,,,,,,,,,,,,,,,,,,,,,,
72222313899,2019-11-24T03:18:00,FM-16,7,,,,,,,,,,,,,,,,,,,,,,,,,,,,,,,,,,,,,,29.99,43,47,,,,,86,,SCT:04 13 SCT:04 19,29.86,10,45,350,,10,,,,,,,,,,,,,,,,,,,,,,,,,,,,,,,,,,,,,MET09311/24/19 03:18:02 SPECI KPNS 240918Z 35009KT 10SM SCT013 SCT019 08/06 A2999 RMK AO2 T00830061,FM-16,7,,,,,,,,,,,,,,,,,,,,,,,,,,,,
72222313899,2019-11-24T03:53:00,FM-15,7,,,,,,,,,,,,,,,,,,,,,,,,,,,,,,,,,,,,,,29.99,41,46,0,,,,83,30,CLR:00,29.86,10,44,350,,10,,,,,,,,,,,,,,,,,,,,,,,,,,,,,,,,,,,,,MET09011/24/19 03:53:02 METAR KPNS 240953Z 35009KT 10SM CLR 08/05 A2999 RMK AO2 SLP158 T00780050,FM-15,7,,,,,,,,,,,,,,,,,,,,,,,,,,,,
72222313899,2019-11-24T04:53:00,FM-15,7,,,,,,,,,,,,,,,,,,,,,,,,,,,,,,,,,,,,,,30,40,44,0,,,,85,30.01,CLR:00,29.87,10,42,330,,8,,,,,,,,,,,,,,,,,,,,,,,,,,,,,,,,,,,,,MET09011/24/19 04:53:02 METAR KPNS 241053Z 33007KT 10SM CLR 07/04 A3000 RMK AO2 SLP161 T00670044,FM-15,7,,,,,,,,,,,,,,,,,,,,,,,,,,,,
72222313899,2019-11-24T05:53:00,FM-15,7,,,,,,,,,,,,,,,,,,,,,,,,,,,,,,,,,,,,,,30.02,40,43,0,,-0.03,3,89,30.03,CLR:00,29.89,10,42,330,,10,,,,,,,,,,,,,,,,,,,,,,,,,,,,,,,,,,,,,MET11911/24/19 05:53:02 METAR KPNS 241153Z 33009KT 10SM CLR 06/04 A3002 RMK AO2 SLP169 70011 T00610044 10111 20061 53010 (SN),FM-15,7,,,,,,,,,,,,,,,,,,,,,,,,,,,,
72222313899,2019-11-24T06:53:00,FM-15,7,,,,,,,,,,,,,,,,,,,,,,,,,,,,,,,,,,,,,,30.04,40,43,0,,,,89,30.05,CLR:00,29.91,10,42,320,,8,,,,,,,,,,,,,,,,,,,,,,,,,,,,,,,,,,,,,MET09511/24/19 06:53:02 METAR KPNS 241253Z 32007KT 10SM CLR 06/04 A3004 RMK AO2 SLP175 T00610044 (SN),FM-15,7,,,,,,,,,,,,,,,,,,,,,,,,,,,,
72222313899,2019-11-24T07:53:00,FM-15,7,,,,,,,,,,,,,,,,,,,,,,,,,,,,,,,,,,,,,,30.05,41,47,0,,,,80,30.06,CLR:00,29.92,10,44,350,,7,,,,,,,,,,,,,,,,,,,,,,,,,,,,,,,,,,,,,MET09511/24/19 07:53:02 METAR KPNS 241353Z 35006KT 10SM CLR 08/05 A3005 RMK AO2 SLP179 T00830050 (SN),FM-15,7,,,,,,,,,,,,,,,,,,,,,,,,,,,,
72222313899,2019-11-24T08:53:00,FM-15,7,,,,,,,,,,,,,,,,,,,,,,,,,,,,,,,,,,,,,,30.05,41,50,0,,-0.03,0,71,30.06,CLR:00,29.92,10,46,330,,11,,,,,,,,,,,,,,,,,,,,,,,,,,,,,,,,,,,,,MET10111/24/19 08:53:02 METAR KPNS 241453Z 33010KT 10SM CLR 10/05 A3005 RMK AO2 SLP179 T01000050 50010 (SN),FM-15,7,,,,,,,,,,,,,,,,,,,,,,,,,,,,
72222313899,2019-11-24T09:53:00,FM-15,7,,,,,,,,,,,,,,,,,,,,,,,,,,,,,,,,,,,,,,30.04,41,53,0,,,,64,30.05,,29.91,10,47,360,,8,,,,,,,,,,,,,,,,,,,,,,,,,,,,,,,,,,,,,MET08811/24/19 09:53:02 METAR KPNS 241553Z 36007KT 10SM 12/05 A3004 RMK AO2 SLP176 T01170050 $,FM-15,7,,,,,,,,,,,,,,,,,,,,,,,,,,,,
72222313899,2019-11-24T10:53:00,FM-15,7,,,,,,,,,,,,,,,,,,,,,,,,,,,,,,,,,,,,,,30.02,41,54,0,,,,62,30.02,CLR:00,29.89,10,48,330,,8,,,,,,,,,,,,,,,,,,,,,,,,,,,,,,,,,,,,,MET09711/24/19 10:53:02 METAR KPNS 241653Z 33007KT 10SM CLR 12/05 A3002 RMK AO2 SLP166 T01220050 $ (KP),FM-15,7,,,,,,,,,,,,,,,,,,,,,,,,,,,,
72222313899,2019-11-24T11:53:00,FM-15,7,,,,,,,,,,,,,,,,,,,,,,,,,,,,,,,,,,,,,,29.98,42,58,0,,,,56,29.98,CLR:00,29.85,10,50,VRB,,5,,,,,,,,,,,,,,,,,,,,,,,,,,,,,,,,,,,,,MET10911/24/19 11:53:02 METAR KPNS 241753Z VRB04KT 10SM CLR 14/06 A2998 RMK AO2 SLP154 T01440056 10150 20061 $ (KP),FM-15,7,,,,,,,,,,,,,,,,,,,,,,,,,,,,
72222313899,2019-11-24T12:53:00,FM-15,7,,,,,,,,,,,,,,,,,,,,,,,,,,,,,,,,,,,,,,29.96,41,60,0,,,,50,29.96,CLR:00,29.83,10,51,VRB,,8,,,,,,,,,,,,,,,,,,,,,,,,,,,,,,,,,,,,,MET09711/24/19 12:53:02 METAR KPNS 241853Z 28007KT 10SM CLR 16/05 A2996 RMK AO2 SLP147 T01560050 $ (KP),FM-15,7,,,,,,,,,,,,,,,,,,,,,,,,,,,,
72222313899,2019-11-24T13:53:00,FM-15,7,,,,,,,,,,,,,,,,,,,,,,,,,,,,,,,,,,,,,,29.94,42,62,0,,,,48,29.95,CLR:00,29.81,10,52,300,,8,,,,,,,,,,,,,,,,,,,,,,,,,,,,,,,,,,,,,MET09711/24/19 13:53:02 METAR KPNS 241953Z 30007KT 10SM CLR 17/06 A2994 RMK AO2 SLP141 T01670056 $ (KP),FM-15,7,,,,,,,,,,,,,,,,,,,,,,,,,,,,
72222313899,2019-11-24T14:53:00,FM-15,7,,,,,,,,,,,,,,,,,,,,,,,,,,,,,,,,,,,,,,29.93,42,62,0,,0.05,6,48,29.93,CLR:00,29.8,10,52,260,,6,,,,,,,,,,,,,,,,,,,,,,,,,,,,,,,,,,,,,MET10311/24/19 14:53:02 METAR KPNS 242053Z 26005KT 10SM CLR 17/06 A2993 RMK AO2 SLP136 T01670056 56018 $ (KP),FM-15,7,,,,,,,,,,,,,,,,,,,,,,,,,,,,
72222313899,2019-11-24T15:53:00,FM-15,7,,,,,,,,,,,,,,,,,,,,,,,,,,,,,,,,,,,,,,29.93,43,62,0,,,,50,29.93,CLR:00,29.8,10,52,300,,7,,,,,,,,,,,,,,,,,,,,,,,,,,,,,,,,,,,,,MET09511/24/19 15:53:02 METAR KPNS 242153Z 30006KT 10SM CLR 17/06 A2993 RMK AO2 SLP135 T01670061 (KP),FM-15,7,,,,,,,,,,,,,,,,,,,,,,,,,,,,
72222313899,2019-11-24T16:53:00,FM-15,7,,,,,,,,,,,,,,,,,,,,,,,,,,,,,,,,,,,,,,29.93,43,57,0,,,,60,29.94,,29.8,10,50,300,,6,,,,,,,,,,,,,,,,,,,,,,,,,,,,,,,,,,,,,MET08811/24/19 16:53:02 METAR KPNS 242253Z 30005KT 10SM 14/06 A2993 RMK AO2 SLP138 T01390061 $,FM-15,7,,,,,,,,,,,,,,,,,,,,,,,,,,,,
72222313899,2019-11-24T17:53:00,FM-15,7,,,,,,,,,,,,,,,,,,,,,,,,,,,,,,,,,,,,,,29.95,45,55,0,,,,69,29.95,CLR:00,29.82,10,50,280,,8,,,,,,,,,,,,,,,,,,,,,,,,,,,,,,,,,,,,,MET10911/24/19 17:53:02 METAR KPNS 242353Z 28007KT 10SM CLR 13/07 A2995 RMK AO2 SLP143 T01280072 10178 20128 $ (DD),FM-15,7,,,,,,,,,,,,,,,,,,,,,,,,,,,,
72222313899,2019-11-24T18:00:00,SHEF ,4,,,,,,,,,,,,,,,,,,,,,,,,,,,,,,,,,,,,,,,,,,,,,,,,,,,,,,,,,,,,,,,,,,,,,,,,,,,,,,,,,,,,,,,,,,,SHEF ,4,,,,,,,,,,,,,,,,,,,,,,,,,,,,
72222313899,2019-11-24T18:53:00,FM-15,7,,,,,,,,,,,,,,,,,,,,,,,,,,,,,,,,,,,,,,29.96,47,52,0,,,,83,29.97,CLR:00,29.83,10,49,290,,8,,,,,,,,,,,,,,,,,,,,,,,,,,,,,,,,,,,,,MET09711/24/19 18:53:03 METAR KPNS 250053Z 29007KT 10SM CLR 11/08 A2996 RMK AO2 SLP148 T01110083 $ (DD),FM-15,7,,,,,,,,,,,,,,,,,,,,,,,,,,,,
72222313899,2019-11-24T19:53:00,FM-15,7,,,,,,,,,,,,,,,,,,,,,,,,,,,,,,,,,,,,,,29.96,47,50,0,,,,89,29.97,CLR:00,29.83,10,48,300,,5,,,,,,,,,,,,,,,,,,,,,,,,,,,,,,,,,,,,,MET09711/24/19 19:53:03 METAR KPNS 250153Z 30004KT 10SM CLR 10/08 A2996 RMK AO2 SLP148 T01000083 $ (DD),FM-15,7,,,,,,,,,,,,,,,,,,,,,,,,,,,,
72222313899,2019-11-24T20:53:00,FM-15,7,,,,,,,,,,,,,,,,,,,,,,,,,,,,,,,,,,,,,,29.96,48,50,0,,-0.02,1,93,29.97,CLR:00,29.83,10,49,300,,6,,,,,,,,,,,,,,,,,,,,,,,,,,,,,,,,,,,,,MET10311/24/19 20:53:03 METAR KPNS 250253Z 30005KT 10SM CLR 10/09 A2996 RMK AO2 SLP149 T01000089 51006 $ (DD),FM-15,7,,,,,,,,,,,,,,,,,,,,,,,,,,,,
72222313899,2019-11-24T21:53:00,FM-15,7,,,,,,,,,,,,,,,,,,,,,,,,,,,,,,,,,,,,,,29.95,47,48,0,,,,96,29.96,CLR:00,29.82,10,48,300,,3,,,,,,,,,,,,,,,,,,,,,,,,,,,,,,,,,,,,,MET09711/24/19 21:53:03 METAR KPNS 250353Z 30003KT 10SM CLR 09/08 A2995 RMK AO2 SLP145 T00890083 $ (DD),FM-15,7,,,,,,,,,,,,,,,,,,,,,,,,,,,,
72222313899,2019-11-24T22:53:00,FM-15,7,,,,,,,,,,,,,,,,,,,,,,,,,,,,,,,,,,,,,,29.95,47,48,0,,,,96,29.96,CLR:00,29.82,10,48,290,,3,,,,,,,,,,,,,,,,,,,,,,,,,,,,,,,,,,,,,MET09211/24/19 22:53:03 METAR KPNS 250453Z 29003KT 10SM CLR 09/08 A2995 RMK AO2 SLP145 T00890083 $,FM-15,7,,,,,,,,,,,,,,,,,,,,,,,,,,,,
72222313899,2019-11-24T23:53:00,FM-15,7,,,,,,,,,,,,,,,,,,,,,,,,,,,,,,,,,,,,,,29.95,47,48,0,,0.01,6,96,29.96,CLR:00,29.82,9,48,320,,6,,,,,,,,,,,,,,,,,,,,,,,,,,,,,,,,,,,,,MET11911/24/19 23:53:03 METAR KPNS 250553Z 32005KT 9SM CLR 09/08 A2995 RMK AO2 SLP144 T00890083 10128 20083 401780061 56005 $,FM-15,7,,,,,,,,,,,,,,,,,,,,,,,,,,,,
72222313899,2019-11-24T23:59:00,SOD  ,6,,,,,,,,,,,,,,,44,54,76,29.99,29.84,49,7.5,0,-4.6,11,64,43,350,20,0,,,340,16,,,,,,,,,,,,,,,,,,,,,,,,,,,,,,,,,,,,,,,,,,,,,,,,,,,,,,,,,SOD73924 HR PRECIPITATION (IN): 0.00 SNOW DEPTH (IN):0     24 HR SNOWFALL (IN):0.0  24 HR MAX TEMP (F): 6424 HR MIN TEMP (F): 43AVERAGE STATION PRESSURE:29.840 MINIMUM SEA LEVEL PRESSURE:29.93 TIME OF OCCURRENCE:1648 PEAK WIND SPEED (MPH): 20 PEAK WIND DIR (DEG):350 PEAK WIND TIME (LST):      FASTEST 2MIN SPEED (MPH): 16FASTEST 2MIN DIR (DEG):340 FASTEST 2MIN TIME (LST):     AVERAGE WIND SPEED (MPH): 7.5 24 HR AVG TEMP (F): 54DEPART FROM NORMAL: -4  HEATING DEGREE DAYS: 11 COOLING DEGREE DAYS:  0 LATEST DAY MAX TEMP (0700-1900 LST):64  LATEST NIGHT MIN TEMP(1900-0800 LST):43 HOURLY INCREMENTAL PRECIPITATION VALUES (IN):.00 0.00 0.00 0.00 0.00 0.00 0.00 0.00 0.00 0.00 0.00 0.00 0.00 0.00 0.00 0.00 0.00 0.00 0.00 0.00 0.00 0.00 0.00 0.00,SOD  ,6,,,,,,,,,,,,,,,,,,,,,,,,,622,1649,,
72222313899,2019-11-25T00:53:00,FM-15,7,,,,,,,,,,,,,,,,,,,,,,,,,,,,,,,,,,,,,,29.94,45,45,0,,,,100,29.95,CLR:00,29.81,8,45,340,,3,,,,,,,,,,,,,,,,,,,,,,,,,,,,,,,,,,,,,MET09111/25/19 00:53:02 METAR KPNS 250653Z 34003KT 8SM CLR 07/07 A2994 RMK AO2 SLP141 T00720072 $,FM-15,7,,,,,,,,,,,,,,,,,,,,,,,,,,,,
72222313899,2019-11-25T01:53:00,FM-15,7,,,,,,,,,,,,,,,,,,,,,,,,,,,,,,,,,,,,,,29.93,43,43,0,,,,100,29.93,CLR:00,29.8,9,43,350,,6,,,,,,,,,,,,,,,,,,,,,,,,,,,,,,,,,,,,,MET09111/25/19 01:53:02 METAR KPNS 250753Z 35005KT 9SM CLR 06/06 A2993 RMK AO2 SLP137 T00610061 $,FM-15,7,,,,,,,,,,,,,,,,,,,,,,,,,,,,
72222313899,2019-11-25T02:53:00,FM-15,7,,,,,,,,,,,,,,,,,,,,,,,,,,,,,,,,,,,,,,29.92,43,43,0,,0.03,6,100,29.93,CLR:00,29.79,10,43,360,,6,,,,,,,,,,,,,,,,,,,,,,,,,,,,,,,,,,,,,MET09811/25/19 02:53:02 METAR KPNS 250853Z 36005KT 10SM CLR 06/06 A2992 RMK AO2 SLP135 T00610061 56009 $,FM-15,7,,,,,,,,,,,,,,,,,,,,,,,,,,,,
72222313899,2019-11-25T03:53:00,FM-15,7,,,,,,,,,,,,,,,,,,,,,,,,,,,,,,,,,,,,,,29.91,44,44,0,,,,100,29.92,CLR:00,29.78,8,44,0,,0,,,,,,,,,,,,,,,,,,,,,,,,,,,,,,,,,,,,,MET09111/25/19 03:53:02 METAR KPNS 250953Z 00000KT 8SM CLR 07/07 A2991 RMK AO2 SLP131 T00670067 $,FM-15,7,,,,,,,,,,,,,,,,,,,,,,,,,,,,
72222313899,2019-11-25T04:53:00,FM-15,7,,,,,,,,,,,,,,,,,,,,,,,,,,,,,,,,,,,,,,29.94,42,42,0,,,,100,29.95,CLR:00,29.81,8,42,0,,0,,,,,,,,,,,,,,,,,,,,,,,,,,,,,,,,,,,,,MET09111/25/19 04:53:02 METAR KPNS 251053Z 00000KT 8SM CLR 06/06 A2994 RMK AO2 SLP141 T00560056 $,FM-15,7,,,,,,,,,,,,,,,,,,,,,,,,,,,,
72222313899,2019-11-25T05:53:00,FM-15,7,,,,,,,,,,,,,,,,,,,,,,,,,,,,,,,,,,,,,,29.94,42,42,0,,-0.02,3,100,29.95,CLR:00,29.81,10,42,0,,0,,,,,,,,,,,,,,,,,,,,,,,,,,,,,,,,,,,,,MET11511/25/19 05:53:02 METAR KPNS 251153Z 00000KT 10SM CLR 06/06 A2994 RMK AO2 SLP143 T00560056 10089 20050 53008 $ (AB),FM-15,7,,,,,,,,,,,,,,,,,,,,,,,,,,,,
72222313899,2019-11-25T06:53:00,FM-15,7,,,,,,,,,,,,,,,,,,,,,,,,,,,,,,,,,,,,,,29.96,43,43,0,BR:1 ||,,,100,29.97,CLR:00,29.83,4,43,0,,0,,,,,,,,,,,,,,,,,,,,,,,,,,,,,,,,,,,,,MET09911/25/19 06:53:02 METAR KPNS 251253Z 00000KT 4SM BR CLR 06/06 A2996 RMK AO2 SLP148 T00610061 $ (AB),FM-15,7,,,,,,,,,,,,,,,,,,,,,,,,,,,,
72222313899,2019-11-25T07:13:00,FM-16,7,,,,,,,,,,,,,,,,,,,,,,,,,,,,,,,,,,,,,,29.96,45,45,,BR:1 ||,,,100,,VV:09 1,29.83,1,45,0,,0,,,,,,,,,,,,,,,,,,,,,,,,,,,,,,,,,,,,,MET10611/25/19 07:13:02 SPECI KPNS 251313Z 00000KT 1SM R17/P6000FT BR VV001 07/07 A2996 RMK AO2 T00720072 $ (AB),FM-16,7,,,,,,,,,,,,,,,,,,,,,,,,,,,,
72222313899,2019-11-25T07:15:00,FM-16,7,,,,,,,,,,,,,,,,,,,,,,,,,,,,,,,,,,,,,,29.96,45,45,,FG:2 |FG |,,,100,,VV:09 1,29.83,0.25,45,0,,0,,,,,,,,,,,,,,,,,,,,,,,,,,,,,,,,,,,,,MET11311/25/19 07:15:02 SPECI KPNS 251315Z 00000KT 1/4SM R17/3500VP6000FT FG VV001 07/07 A2996 RMK AO2 T00720072 $ (AB),FM-16,7,,,,,,,,,,,,,,,,,,,,,,,,,,,,
72222313899,2019-11-25T07:31:00,FM-16,7,,,,,,,,,,,,,,,,,,,,,,,,,,,,,,,,,,,,,,29.96,46,46,,FG:2 |FG |,,,100,,VV:09 1,29.83,0,46,0,,0,,,,,,,,,,,,,,,,,,,,,,,,,,,,,,,,,,,,,MET12311/25/19 07:31:02 SPECI KPNS 251331Z 00000KT M1/4SM R17/1000V1400FT FG VV001 08/08 A2996 RMK AO2 TWR VIS 1 T00780078 $ (AB),FM-16,7,,,,,,,,,,,,,,,,,,,,,,,,,,,,
72222313899,2019-11-25T07:48:00,FM-16,7,,,,,,,,,,,,,,,,,,,,,,,,,,,,,,,,,,,,,,29.96,46,46,,FG:2 |FG |,,,100,,VV:09 1,29.83,0.25,46,0,,0,,,,,,,,,,,,,,,,,,,,,,,,,,,,,,,,,,,,,MET11311/25/19 07:48:02 SPECI KPNS 251348Z 00000KT 1/4SM R17/1600VP6000FT FG VV001 08/08 A2996 RMK AO2 TWR VIS 1/4 (AB),FM-16,7,,,,,,,,,,,,,,,,,,,,,,,,,,,,
72222313899,2019-11-25T07:53:00,FM-15,7,,,,,,,,,,,,,,,,,,,,,,,,,,,,,,,,,,,,,,29.97,48,48,0,FG:2 |FG |,,,100,29.98,VV:09 1,29.84,0.25,48,0,,0,,,,,,,,,,,,,,,,,,,,,,,,,,,,,,,,,,,,,MET11811/25/19 07:53:02 METAR KPNS 251353Z 00000KT 1/4SM R17/2600VP6000FT FG VV001 09/09 A2997 RMK AO2 SLP151 T00890089 (AB),FM-15,7,,,,,,,,,,,,,,,,,,,,,,,,,,,,
72222313899,2019-11-25T08:04:00,FM-16,7,,,,,,,,,,,,,,,,,,,,,,,,,,,,,,,,,,,,,,29.97,49,49,,,,,100,,SCT:04 1,29.84,10,49,0,,0,,,,,,,,,,,,,,,,,,,,,,,,,,,,,,,,,,,,,MET09111/25/19 08:04:02 SPECI KPNS 251404Z 00000KT 10SM SCT001 09/09 A2997 RMK AO2 T00940094 (AB),FM-16,7,,,,,,,,,,,,,,,,,,,,,,,,,,,,
72222313899,2019-11-25T08:53:00,FM-15,7,,,,,,,,,,,,,,,,,,,,,,,,,,,,,,,,,,,,,,29.98,51,53,0,,-0.02,3,93,29.99,CLR:00,29.85,10,52,80,,3,,,,,,,,,,,,,,,,,,,,,,,,,,,,,,,,,,,,,MET10111/25/19 08:53:02 METAR KPNS 251453Z 08003KT 10SM CLR 12/11 A2998 RMK AO2 SLP155 T01170106 53006 (AB),FM-15,7,,,,,,,,,,,,,,,,,,,,,,,,,,,,
72222313899,2019-11-25T09:53:00,FM-15,7,,,,,,,,,,,,,,,,,,,,,,,,,,,,,,,,,,,,,,29.98,45,60,0,,,,58,29.99,CLR:00,29.85,10,52,120,,5,,,,,,,,,,,,,,,,,,,,,,,,,,,,,,,,,,,,,MET09511/25/19 09:53:02 METAR KPNS 251553Z 12004KT 10SM CLR 16/07 A2998 RMK AO2 SLP155 T01560072 (AB),FM-15,7,,,,,,,,,,,,,,,,,,,,,,,,,,,,
72222313899,2019-11-25T10:53:00,FM-15,7,,,,,,,,,,,,,,,,,,,,,,,,,,,,,,,,,,,,,,29.97,42,62,0,,,,48,29.98,CLR:00,29.84,10,52,0,,0,,,,,,,,,,,,,,,,,,,,,,,,,,,,,,,,,,,,,MET09511/25/19 10:53:02 METAR KPNS 251653Z 00000KT 10SM CLR 17/06 A2997 RMK AO2 SLP151 T01670056 (AB),FM-15,7,,,,,,,,,,,,,,,,,,,,,,,,,,,,
72222313899,2019-11-25T11:53:00,FM-15,7,,,,,,,,,,,,,,,,,,,,,,,,,,,,,,,,,,,,,,29.95,44,64,0,,0.03,8,48,29.95,CLR:00,29.82,10,54,170,,8,,,,,,,,,,,,,,,,,,,,,,,,,,,,,,,,,,,,,MET11311/25/19 11:53:02 METAR KPNS 251753Z 17007KT 10SM CLR 18/07 A2995 RMK AO2 SLP142 T01780067 10178 20044 58011 (AB),FM-15,7,,,,,,,,,,,,,,,,,,,,,,,,,,,,
72222313899,2019-11-25T12:53:00,FM-15,7,,,,,,,,,,,,,,,,,,,,,,,,,,,,,,,,,,,,,,29.93,48,64,0,,,,56,29.93,CLR:00,29.8,10,55,170,,8,,,,,,,,,,,,,,,,,,,,,,,,,,,,,,,,,,,,,MET09511/25/19 12:53:02 METAR KPNS 251853Z 17007KT 10SM CLR 18/09 A2993 RMK AO2 SLP136 T01780089 (AB),FM-15,7,,,,,,,,,,,,,,,,,,,,,,,,,,,,
72222313899,2019-11-25T13:53:00,FM-15,7,,,,,,,,,,,,,,,,,,,,,,,,,,,,,,,,,,,,,,29.9,49,64,0,,,,58,29.91,CLR:00,29.77,10,56,160,,8,,,,,,,,,,,,,,,,,,,,,,,,,,,,,,,,,,,,,MET09511/25/19 13:53:02 METAR KPNS 251953Z 16007KT 10SM CLR 18/09 A2990 RMK AO2 SLP128 T01780094 (AB),FM-15,7,,,,,,,,,,,,,,,,,,,,,,,,,,,,
72222313899,2019-11-25T14:53:00,FM-15,7,,,,,,,,,,,,,,,,,,,,,,,,,,,,,,,,,,,,,,29.91,51,64,0,,0.04,5,63,29.91,CLR:00,29.78,10,57,150,,5,,,,,,,,,,,,,,,,,,,,,,,,,,,,,,,,,,,,,MET09611/25/19 14:53:02 METAR KPNS 252053Z 15004KT 10SM CLR 18/11 A2991 RMK AO2 SLP129 T01780106 55013,FM-15,7,,,,,,,,,,,,,,,,,,,,,,,,,,,,
72222313899,2019-11-25T15:53:00,FM-15,7,,,,,,,,,,,,,,,,,,,,,,,,,,,,,,,,,,,,,,29.91,52,63,0,,,,68,29.91,CLR:00,29.78,10,57,180,,6,,,,,,,,,,,,,,,,,,,,,,,,,,,,,,,,,,,,,MET09511/25/19 15:53:02 METAR KPNS 252153Z 18005KT 10SM CLR 17/11 A2991 RMK AO2 SLP129 T01720111 (DD),FM-15,7,,,,,,,,,,,,,,,,,,,,,,,,,,,,
72222313899,2019-11-25T16:53:00,FM-15,7,,,,,,,,,,,,,,,,,,,,,,,,,,,,,,,,,,,,,,29.9,52,59,0,,,,78,29.91,CLR:00,29.77,10,55,140,,3,,,,,,,,,,,,,,,,,,,,,,,,,,,,,,,,,,,,,MET09511/25/19 16:53:02 METAR KPNS 252253Z 14003KT 10SM CLR 15/11 A2990 RMK AO2 SLP129 T01500111 (DD),FM-15,7,,,,,,,,,,,,,,,,,,,,,,,,,,,,
72222313899,2019-11-25T17:53:00,FM-15,7,,,,,,,,,,,,,,,,,,,,,,,,,,,,,,,,,,,,,,29.91,53,55,0,,0,3,93,29.91,CLR:00,29.78,10,54,0,,0,,,,,,,,,,,,,,,,,,,,,,,,,,,,,,,,,,,,,MET11311/25/19 17:53:02 METAR KPNS 252353Z 00000KT 10SM CLR 13/12 A2991 RMK AO2 SLP130 T01280117 10183 20128 53000 (DD),FM-15,7,,,,,,,,,,,,,,,,,,,,,,,,,,,,
72222313899,2019-11-25T18:00:00,SHEF ,4,,,,,,,,,,,,,,,,,,,,,,,,,,,,,,,,,,,,,,,,,,,,,,,,,,,,,,,,,,,,,,,,,,,,,,,,,,,,,,,,,,,,,,,,,,,SHEF ,4,,,,,,,,,,,,,,,,,,,,,,,,,,,,
72222313899,2019-11-25T18:53:00,FM-15,7,,,,,,,,,,,,,,,,,,,,,,,,,,,,,,,,,,,,,,29.91,53,53,0,,,,100,29.92,CLR:00,29.78,10,53,80,,5,,,,,,,,,,,,,,,,,,,,,,,,,,,,,,,,,,,,,MET09511/25/19 18:53:03 METAR KPNS 260053Z 08004KT 10SM CLR 12/12 A2991 RMK AO2 SLP132 T01170117 (DD),FM-15,7,,,,,,,,,,,,,,,,,,,,,,,,,,,,
72222313899,2019-11-25T19:53:00,FM-15,7,,,,,,,,,,,,,,,,,,,,,,,,,,,,,,,,,,,,,,29.93,54,55,0,,,,96,29.93,CLR:00,29.8,10,54,70,,6,,,,,,,,,,,,,,,,,,,,,,,,,,,,,,,,,,,,,MET09511/25/19 19:53:03 METAR KPNS 260153Z 07005KT 10SM CLR 13/12 A2993 RMK AO2 SLP137 T01280122 (DD),FM-15,7,,,,,,,,,,,,,,,,,,,,,,,,,,,,
72222313899,2019-11-25T20:53:00,FM-15,7,,,,,,,,,,,,,,,,,,,,,,,,,,,,,,,,,,,,,,29.94,54,55,0,,-0.03,3,96,29.94,CLR:00,29.81,10,54,60,,5,,,,,,,,,,,,,,,,,,,,,,,,,,,,,,,,,,,,,MET10111/25/19 20:53:03 METAR KPNS 260253Z 06004KT 10SM CLR 13/12 A2994 RMK AO2 SLP140 T01280122 53010 (DD),FM-15,7,,,,,,,,,,,,,,,,,,,,,,,,,,,,
72222313899,2019-11-25T21:53:00,FM-15,7,,,,,,,,,,,,,,,,,,,,,,,,,,,,,,,,,,,,,,29.94,53,53,0,,,,100,29.95,SCT:04 32,29.81,10,53,0,,0,,,,,,,,,,,,,,,,,,,,,,,,,,,,,,,,,,,,,MET09811/25/19 21:53:03 METAR KPNS 260353Z 00000KT 10SM SCT032 12/12 A2994 RMK AO2 SLP142 T01170117 (DD),FM-15,7,,,,,,,,,,,,,,,,,,,,,,,,,,,,
72222313899,2019-11-25T22:53:00,FM-15,7,,,,,,,,,,,,,,,,,,,,,,,,,,,,,,,,,,,,,,29.94,53,53,0,,,,100,29.95,FEW:02 32,29.81,10,53,0,,0,,,,,,,,,,,,,,,,,,,,,,,,,,,,,,,,,,,,,MET09311/25/19 22:53:03 METAR KPNS 260453Z 00000KT 10SM FEW032 12/12 A2994 RMK AO2 SLP141 T01170117,FM-15,7,,,,,,,,,,,,,,,,,,,,,,,,,,,,
72222313899,2019-11-25T23:53:00,FM-15,7,,,,,,,,,,,,,,,,,,,,,,,,,,,,,,,,,,,,,,29.92,52,52,0,,0.02,8,100,29.92,CLR:00,29.79,10,52,0,,0,,,,,,,,,,,,,,,,,,,,,,,,,,,,,,,,,,,,,MET11811/25/19 23:53:03 METAR KPNS 260553Z 00000KT 10SM CLR 11/11 A2992 RMK AO2 SLP132 T01110111 10128 20106 401830044 58007,FM-15,7,,,,,,,,,,,,,,,,,,,,,,,,,,,,
72222313899,2019-11-25T23:59:00,SOD  ,6,,,,,,,,,,,,,,,48,53,85,29.94,29.8,51,3.2,0,-5.4,12,65,40,150,14,0,,,150,12,FG BR,,,,,,,,,,,,,,,,,,,,,,,,,,,,,,,,,,,,,,,,,,,,,,,,,,,,,,,,SOD75724 HR PRECIPITATION (IN): 0.00 SNOW DEPTH (IN):0     24 HR SNOWFALL (IN):0.0  WEATHER(CODE):12  24 HR MAX TEMP (F): 6524 HR MIN TEMP (F): 40AVERAGE STATION PRESSURE:29.795 MINIMUM SEA LEVEL PRESSURE:29.90 TIME OF OCCURRENCE:1722 PEAK WIND SPEED (MPH): 14 PEAK WIND DIR (DEG):150 PEAK WIND TIME (LST):      FASTEST 2MIN SPEED (MPH): 12FASTEST 2MIN DIR (DEG):150 FASTEST 2MIN TIME (LST):     AVERAGE WIND SPEED (MPH): 3.2 24 HR AVG TEMP (F): 53DEPART FROM NORMAL: -5  HEATING DEGREE DAYS: 12 COOLING DEGREE DAYS:  0 LATEST DAY MAX TEMP (0700-1900 LST):65  LATEST NIGHT MIN TEMP(1900-0800 LST):40 HOURLY INCREMENTAL PRECIPITATION VALUES (IN):.00 0.00 0.00 0.00 0.00 0.00 0.00 0.00 0.00 0.00 0.00 0.00 0.00 0.00 0.00 0.00 0.00 0.00 0.00 0.00 0.00 0.00 0.00 0.00,SOD  ,6,,,,,,,,,,,,,,,,,,,,,,,,,623,1648,,
72222313899,2019-11-26T00:53:00,FM-15,7,,,,,,,,,,,,,,,,,,,,,,,,,,,,,,,,,,,,,,29.91,51,51,0,,,,100,29.92,CLR:00,29.78,10,51,30,,3,,,,,,,,,,,,,,,,,,,,,,,,,,,,,,,,,,,,,MET09011/26/19 00:53:02 METAR KPNS 260653Z 03003KT 10SM CLR 11/11 A2991 RMK AO2 SLP132 T01060106,FM-15,7,,,,,,,,,,,,,,,,,,,,,,,,,,,,
72222313899,2019-11-26T01:53:00,FM-15,7,,,,,,,,,,,,,,,,,,,,,,,,,,,,,,,,,,,,,,29.91,52,52,0,,,,100,29.91,CLR:00,29.78,10,52,30,,5,,,,,,,,,,,,,,,,,,,,,,,,,,,,,,,,,,,,,MET09011/26/19 01:53:02 METAR KPNS 260753Z 03004KT 10SM CLR 11/11 A2991 RMK AO2 SLP130 T01110111,FM-15,7,,,,,,,,,,,,,,,,,,,,,,,,,,,,
72222313899,2019-11-26T02:53:00,FM-15,7,,,,,,,,,,,,,,,,,,,,,,,,,,,,,,,,,,,,,,29.9,52,52,0,,0.01,8,100,29.91,FEW:02 32,29.77,10,52,0,,0,,,,,,,,,,,,,,,,,,,,,,,,,,,,,,,,,,,,,MET09911/26/19 02:53:02 METAR KPNS 260853Z 00000KT 10SM FEW032 11/11 A2990 RMK AO2 SLP128 T01110111 58004,FM-15,7,,,,,,,,,,,,,,,,,,,,,,,,,,,,
72222313899,2019-11-26T03:53:00,FM-15,7,,,,,,,,,,,,,,,,,,,,,,,,,,,,,,,,,,,,,,29.92,50,50,0,,,,100,29.92,SCT:04 31,29.79,10,50,10,,3,,,,,,,,,,,,,,,,,,,,,,,,,,,,,,,,,,,,,MET09311/26/19 03:53:02 METAR KPNS 260953Z 01003KT 10SM SCT031 10/10 A2992 RMK AO2 SLP133 T01000100,FM-15,7,,,,,,,,,,,,,,,,,,,,,,,,,,,,
72222313899,2019-11-26T04:53:00,FM-15,7,,,,,,,,,,,,,,,,,,,,,,,,,,,,,,,,,,,,,,29.94,51,51,0,,,,100,29.94,CLR:00,29.81,10,51,30,,6,,,,,,,,,,,,,,,,,,,,,,,,,,,,,,,,,,,,,MET09011/26/19 04:53:02 METAR KPNS 261053Z 03005KT 10SM CLR 11/11 A2994 RMK AO2 SLP139 T01060106,FM-15,7,,,,,,,,,,,,,,,,,,,,,,,,,,,,
72222313899,2019-11-26T05:53:00,FM-15,7,,,,,,,,,,,,,,,,,,,,,,,,,,,,,,,,,,,,,,29.94,51,51,0,,-0.04,1,100,29.95,CLR:00,29.81,10,51,60,,6,,,,,,,,,,,,,,,,,,,,,,,,,,,,,,,,,,,,,MET11311/26/19 05:53:02 METAR KPNS 261153Z 06005KT 10SM CLR 11/11 A2994 RMK AO2 SLP143 T01060106 10117 20100 51014 (DW),FM-15,7,,,,,,,,,,,,,,,,,,,,,,,,,,,,
72222313899,2019-11-26T06:17:00,FM-16,7,,,,,,,,,,,,,,,,,,,,,,,,,,,,,,,,,,,,,,29.95,53,53,,,,,100,,CLR:00,29.82,10,53,80,,13,,,,,,,,,,,,,,,,,,,,,,,,,,,,,,,,,,,,,MET08811/26/19 06:17:02 SPECI KPNS 261217Z 08011KT 10SM CLR 12/12 A2995 RMK AO2 T01170117 (DW),FM-16,7,,,,,,,,,,,,,,,,,,,,,,,,,,,,
72222313899,2019-11-26T06:53:00,FM-15,7,,,,,,,,,,,,,,,,,,,,,,,,,,,,,,,,,,,,,,29.95,53,53,0,,,,100,29.95,,29.82,8,53,60,,9,,,,,,,,,,,,,,,,,,,,,,,,,,,,,,,,,,,,,MET08711/26/19 06:53:02 METAR KPNS 261253Z 06008KT 8SM 12/12 A2995 RMK AO2 SLP143 T01170117 $,FM-15,7,,,,,,,,,,,,,,,,,,,,,,,,,,,,
72222313899,2019-11-26T07:53:00,FM-15,7,,,,,,,,,,,,,,,,,,,,,,,,,,,,,,,,,,,,,,29.96,57,58,0,,,,97,29.97,CLR:00,29.83,10,57,VRB,,3,,,,,,,,,,,,,,,,,,,,,,,,,,,,,,,,,,,,,MET09211/26/19 07:53:02 METAR KPNS 261353Z VRB03KT 10SM CLR 14/14 A2996 RMK AO2 SLP148 T01440139 $,FM-15,7,,,,,,,,,,,,,,,,,,,,,,,,,,,,
72222313899,2019-11-26T08:53:00,FM-15,7,,,,,,,,,,,,,,,,,,,,,,,,,,,,,,,,,,,,,,29.98,61,62,0,,,,96,29.99,CLR:00,29.85,10,61,100,,9,,,,,,,,,,,,,,,,,,,,,,,,,,,,,,,,,,,,,MET09511/26/19 08:53:02 METAR KPNS 261453Z 10008KT 10SM CLR 17/16 A2998 RMK AO2 SLP155 T01670161 (WS),FM-15,7,,,,,,,,,,,,,,,,,,,,,,,,,,,,
72222313899,2019-11-26T09:53:00,FM-15,7,,,,,,,,,,,,,,,,,,,,,,,,,,,,,,,,,,,,,,29.99,64,67,0,,,,91,29.99,CLR:00,29.86,10,65,120,,10,,,,,,,,,,,,,,,,,,,,,,,,,,,,,,,,,,,,,MET09511/26/19 09:53:02 METAR KPNS 261553Z 12009KT 10SM CLR 19/18 A2999 RMK AO2 SLP157 T01940178 (WS),FM-15,7,,,,,,,,,,,,,,,,,,,,,,,,,,,,
72222313899,2019-11-26T10:53:00,FM-15,7,,,,,,,,,,,,,,,,,,,,,,,,,,,,,,,,,,,,,,29.97,63,74,0,,,,69,29.98,SCT:04 29,29.84,10,67,150,,13,,,,,,,,,,,,,,,,,,,,,,,,,,,,,,,,,,,,,MET09811/26/19 10:53:02 METAR KPNS 261653Z 15011KT 10SM SCT029 23/17 A2997 RMK AO2 SLP151 T02330172 (WS),FM-15,7,,,,,,,,,,,,,,,,,,,,,,,,,,,,
72222313899,2019-11-26T11:53:00,FM-15,7,,,,,,,,,,,,,,,,,,,,,,,,,,,,,,,,,,,,,,29.96,63,74,0,,0.03,8,69,29.96,OVC:08 60,29.83,10,67,150,,11,,,,,,,,,,,,,,,,,,,,,,,,,,,,,,,,,,,,,MET11611/26/19 11:53:02 METAR KPNS 261753Z 15010KT 10SM OVC060 23/17 A2996 RMK AO2 SLP146 T02330172 10244 20106 58009 (WS),FM-15,7,,,,,,,,,,,,,,,,,,,,,,,,,,,,
72222313899,2019-11-26T12:53:00,FM-15,7,,,,,,,,,,,,,,,,,,,,,,,,,,,,,,,,,,,,,,29.93,67,72,0,,,,84,29.93,FEW:02 28 OVC:08 48,29.8,10,69,130,,11,,,,,,,,,,,,,,,,,,,,,,,,,,,,,,,,,,,,,MET10511/26/19 12:53:02 METAR KPNS 261853Z 13010KT 10SM FEW028 OVC048 22/19 A2993 RMK AO2 SLP137 T02220194 (WS),FM-15,7,,,,,,,,,,,,,,,,,,,,,,,,,,,,
72222313899,2019-11-26T13:53:00,FM-15,7,,,,,,,,,,,,,,,,,,,,,,,,,,,,,,,,,,,,,,29.93,65,73,0,,,,76,29.93,SCT:04 27 OVC:08 46,29.8,10,68,150,,9,,,,,,,,,,,,,,,,,,,,,,,,,,,,,,,,,,,,,MET10511/26/19 13:53:02 METAR KPNS 261953Z 15008KT 10SM SCT027 OVC046 23/18 A2993 RMK AO2 SLP136 T02280183 (WS),FM-15,7,,,,,,,,,,,,,,,,,,,,,,,,,,,,
72222313899,2019-11-26T14:11:00,FM-16,7,,,,,,,,,,,,,,,,,,,,,,,,,,,,,,,,,,,,,,29.93,65,72,,,,,79,,BKN:07 26 BKN:07 40 OVC:08 49,29.8,10,68,110,,5,,,,,,,,,,,,,,,,,,,,,,,,,,,,,,,,,,,,,MET10511/26/19 14:11:02 SPECI KPNS 262011Z 11004KT 10SM BKN026 BKN040 OVC049 22/18 A2993 RMK AO2 T02220183 (WS),FM-16,7,,,,,,,,,,,,,,,,,,,,,,,,,,,,
72222313899,2019-11-26T14:21:00,FM-16,7,,,,,,,,,,,,,,,,,,,,,,,,,,,,,,,,,,,,,,29.92,66,72,,,,,82,,SCT:04 26 BKN:07 36 OVC:08 65,29.79,10,68,130,,7,,,,,,,,,,,,,,,,,,,,,,,,,,,,,,,,,,,,,MET10511/26/19 14:21:02 SPECI KPNS 262021Z 13006KT 10SM SCT026 BKN036 OVC065 22/19 A2992 RMK AO2 T02220189 (WS),FM-16,7,,,,,,,,,,,,,,,,,,,,,,,,,,,,
72222313899,2019-11-26T14:53:00,FM-15,7,,,,,,,,,,,,,,,,,,,,,,,,,,,,,,,,,,,,,,29.92,67,72,T,,0.04,6,84,29.92,FEW:02 23 BKN:07 50 OVC:08 90,29.79,10,69,120,,7,,,,,,,,,,,,,,,,,,,,,,,,,,,,,,,,,,,,,MET13911/26/19 14:53:02 METAR KPNS 262053Z 12006KT 10SM FEW023 BKN050 OVC090 22/19 A2992 RMK AO2 RAB27E40 SLP133 P0000 60000 T02220194 56013 (WS),FM-15,7,,,,,,,,,,,,,,,,,,,,,,,,,,,,
72222313899,2019-11-26T15:53:00,FM-15,7,,,,,,,,,,,,,,,,,,,,,,,,,,,,,,,,,,,,,,29.93,68,71,0,,,,90,29.93,FEW:02 24 SCT:04 35 OVC:08 45,29.8,10,69,140,,9,,,,,,,,,,,,,,,,,,,,,,,,,,,,,,,,,,,,,MET11211/26/19 15:53:02 METAR KPNS 262153Z 14008KT 10SM FEW024 SCT035 OVC045 22/20 A2993 RMK AO2 SLP136 T02170200 (WS),FM-15,7,,,,,,,,,,,,,,,,,,,,,,,,,,,,
72222313899,2019-11-26T16:08:00,FM-16,7,,,,,,,,,,,,,,,,,,,,,,,,,,,,,,,,,,,,,,29.93,68,71,,,,,90,,BKN:07 22 BKN:07 28 OVC:08 45,29.8,10,69,130,,9,,,,,,,,,,,,,,,,,,,,,,,,,,,,,,,,,,,,,MET10511/26/19 16:08:02 SPECI KPNS 262208Z 13008KT 10SM BKN022 BKN028 OVC045 22/20 A2993 RMK AO2 T02170200 (WS),FM-16,7,,,,,,,,,,,,,,,,,,,,,,,,,,,,
72222313899,2019-11-26T16:53:00,FM-15,7,,,,,,,,,,,,,,,,,,,,,,,,,,,,,,,,,,,,,,29.93,68,71,0,,,,90,29.94,BKN:07 23 OVC:08 32,29.8,10,69,140,,10,,,,,,,,,,,,,,,,,,,,,,,,,,,,,,,,,,,,,MET10511/26/19 16:53:02 METAR KPNS 262253Z 14009KT 10SM BKN023 OVC032 22/20 A2993 RMK AO2 SLP138 T02170200 (JH),FM-15,7,,,,,,,,,,,,,,,,,,,,,,,,,,,,
72222313899,2019-11-26T17:04:00,FM-16,7,,,,,,,,,,,,,,,,,,,,,,,,,,,,,,,,,,,,,,29.93,69,72,,,,,91,,FEW:02 21 SCT:04 29 OVC:08 39,29.8,10,70,140,,10,,,,,,,,,,,,,,,,,,,,,,,,,,,,,,,,,,,,,MET10511/26/19 17:04:02 SPECI KPNS 262304Z 14009KT 10SM FEW021 SCT029 OVC039 22/21 A2993 RMK AO2 T02220206 (JH),FM-16,7,,,,,,,,,,,,,,,,,,,,,,,,,,,,
72222313899,2019-11-26T17:53:00,FM-15,7,,,,,,,,,,,,,,,,,,,,,,,,,,,,,,,,,,,,,,29.95,69,71,0,,-0.03,3,94,29.96,FEW:02 25 BKN:07 29 OVC:08 37,29.82,10,70,150,,8,,,,,,,,,,,,,,,,,,,,,,,,,,,,,,,,,,,,,MET13611/26/19 17:53:02 METAR KPNS 262353Z 15007KT 10SM FEW025 BKN029 OVC037 22/21 A2995 RMK AO2 SLP144 60000 T02170206 10244 20211 53010 (JH),FM-15,7,,,,,,,,,,,,,,,,,,,,,,,,,,,,
72222313899,2019-11-26T18:53:00,FM-15,7,,,,,,,,,,,,,,,,,,,,,,,,,,,,,,,,,,,,,,29.96,70,72,0,,,,94,29.97,BKN:07 22 BKN:07 27 OVC:08 31,29.83,10,71,150,,10,,,,,,,,,,,,,,,,,,,,,,,,,,,,,,,,,,,,,MET11211/26/19 18:53:03 METAR KPNS 270053Z 15009KT 10SM BKN022 BKN027 OVC031 22/21 A2996 RMK AO2 SLP148 T02220211 (JH),FM-15,7,,,,,,,,,,,,,,,,,,,,,,,,,,,,
72222313899,2019-11-26T19:11:00,FM-16,7,,,,,,,,,,,,,,,,,,,,,,,,,,,,,,,,,,,,,,29.97,70,72,,,,,94,,FEW:02 24 BKN:07 38 OVC:08 47,29.84,10,71,150,,10,,,,,,,,,,,,,,,,,,,,,,,,,,,,,,,,,,,,,MET10511/26/19 19:11:03 SPECI KPNS 270111Z 15009KT 10SM FEW024 BKN038 OVC047 22/21 A2997 RMK AO2 T02220211 (JH),FM-16,7,,,,,,,,,,,,,,,,,,,,,,,,,,,,
72222313899,2019-11-26T19:40:00,FM-16,7,,,,,,,,,,,,,,,,,,,,,,,,,,,,,,,,,,,,,,29.97,71,73,,,,,94,,BKN:07 18 BKN:07 23 OVC:08 43,29.84,10,72,150,,13,,,,,,,,,,,,,,,,,,,,,,,,,,,,,,,,,,,,,MET10511/26/19 19:40:03 SPECI KPNS 270140Z 15011KT 10SM BKN018 BKN023 OVC043 23/22 A2997 RMK AO2 T02280217 (JH),FM-16,7,,,,,,,,,,,,,,,,,,,,,,,,,,,,
72222313899,2019-11-26T19:53:00,FM-15,7,,,,,,,,,,,,,,,,,,,,,,,,,,,,,,,,,,,,,,29.97,71,73,0,,,,94,29.97,BKN:07 20 OVC:08 60,29.84,10,72,160,,13,,,,,,,,,,,,,,,,,,,,,,,,,,,,,,,,,,,,,MET10511/26/19 19:53:03 METAR KPNS 270153Z 16011KT 10SM BKN020 OVC060 23/22 A2997 RMK AO2 SLP150 T02280217 (JH),FM-15,7,,,,,,,,,,,,,,,,,,,,,,,,,,,,
72222313899,2019-11-26T20:53:00,FM-15,7,,,,,,,,,,,,,,,,,,,,,,,,,,,,,,,,,,,,,,29.98,71,72,0,,-0.02,1,97,29.98,BKN:07 20 OVC:08 60,29.85,10,71,150,,14,,,,,,,,,,,,,,,,,,,,,,,,,,,,,,,,,,,,,MET11111/26/19 20:53:03 METAR KPNS 270253Z 15012KT 10SM BKN020 OVC060 22/22 A2998 RMK AO2 SLP152 T02220217 51008 (JH),FM-15,7,,,,,,,,,,,,,,,,,,,,,,,,,,,,
72222313899,2019-11-26T21:53:00,FM-15,7,,,,,,,,,,,,,,,,,,,,,,,,,,,,,,,,,,,,,,29.97,72,72,0,,,,100,29.98,BKN:07 17 BKN:07 45 BKN:07 60,29.84,10,72,150,,13,,,,,,,,,,,,,,,,,,,,,,,,,,,,,,,,,,,,,MET11211/26/19 21:53:03 METAR KPNS 270353Z 15011KT 10SM BKN017 BKN045 BKN060 22/22 A2997 RMK AO2 SLP151 T02220222 (JH),FM-15,7,,,,,,,,,,,,,,,,,,,,,,,,,,,,
72222313899,2019-11-26T22:53:00,FM-15,7,,,,,,,,,,,,,,,,,,,,,,,,,,,,,,,,,,,,,,29.97,72,72,0,,,,100,29.98,OVC:08 27,29.84,10,72,160,,11,,,,,,,,,,,,,,,,,,,,,,,,,,,,,,,,,,,,,MET09811/26/19 22:53:03 METAR KPNS 270453Z 16010KT 10SM OVC027 22/22 A2997 RMK AO2 SLP151 T02220222 (JH),FM-15,7,,,,,,,,,,,,,,,,,,,,,,,,,,,,
72222313899,2019-11-26T23:53:00,FM-15,7,,,,,,,,,,,,,,,,,,,,,,,,,,,,,,,,,,,,,,29.97,73,73,0,,0.01,6,100,29.97,OVC:08 24,29.84,10,73,170,,13,,,,,,,,,,,,,,,,,,,,,,,,,,,,,,,,,,,,,MET12111/26/19 23:53:03 METAR KPNS 270553Z 17011KT 10SM OVC024 23/23 A2997 RMK AO2 SLP149 T02280228 10228 20217 402440100 56002,FM-15,7,,,,,,,,,,,,,,,,,,,,,,,,,,,,
72222313899,2019-11-26T23:59:00,SOD  ,6,,,,,,,,,,,,,,,62,63,92,29.95,29.83,63,8.7,0,4.9,2,76,50,170,22,T,,,170,17,,,,,,,,,,,,,,,,,,,,,,,,,,,,,,,,,,,,,,,,,,,,,,,,,,,,,,,,,SOD73924 HR PRECIPITATION (IN):    T SNOW DEPTH (IN):0     24 HR SNOWFALL (IN):0.0  24 HR MAX TEMP (F): 7624 HR MIN TEMP (F): 50AVERAGE STATION PRESSURE:29.825 MINIMUM SEA LEVEL PRESSURE:29.91 TIME OF OCCURRENCE:0340 PEAK WIND SPEED (MPH): 22 PEAK WIND DIR (DEG):170 PEAK WIND TIME (LST):      FASTEST 2MIN SPEED (MPH): 17FASTEST 2MIN DIR (DEG):170 FASTEST 2MIN TIME (LST):     AVERAGE WIND SPEED (MPH): 8.7 24 HR AVG TEMP (F): 63DEPART FROM NORMAL:  5  HEATING DEGREE DAYS:  2 COOLING DEGREE DAYS:  0 LATEST DAY MAX TEMP (0700-1900 LST):76  LATEST NIGHT MIN TEMP(1900-0800 LST):50 HOURLY INCREMENTAL PRECIPITATION VALUES (IN):.00 0.00 0.00 0.00 0.00 0.00 0.00 0.00 0.00 0.00 0.00 0.00 0.00 0.00 T    0.00 0.00 0.00 0.00 0.00 0.00 0.00 0.00 0.00,SOD  ,6,,,,,,,,,,,,,,,,,,,,,,,,,624,1648,,
72222313899,2019-11-27T00:36:00,FM-16,7,,,,,,,,,,,,,,,,,,,,,,,,,,,,,,,,,,,,,,29.96,73,73,,,,,100,,BKN:07 14 OVC:08 24,29.83,10,73,170,,14,,,,,,,,,,,,,,,,,,,,,,,,,,,,,,,,,,,,,MET09311/27/19 00:36:02 SPECI KPNS 270636Z 17012KT 10SM BKN014 OVC024 23/23 A2996 RMK AO2 T02280228,FM-16,7,,,,,,,,,,,,,,,,,,,,,,,,,,,,
72222313899,2019-11-27T00:53:00,FM-15,7,,,,,,,,,,,,,,,,,,,,,,,,,,,,,,,,,,,,,,29.97,73,73,0,,,,100,29.97,BKN:07 13 OVC:08 21,29.84,10,73,170,,14,,,,,,,,,,,,,,,,,,,,,,,,,,,,,,,,,,,,,MET10011/27/19 00:53:02 METAR KPNS 270653Z 17012KT 10SM BKN013 OVC021 23/23 A2997 RMK AO2 SLP150 T02280228,FM-15,7,,,,,,,,,,,,,,,,,,,,,,,,,,,,
72222313899,2019-11-27T01:02:00,FM-16,7,,,,,,,,,,,,,,,,,,,,,,,,,,,,,,,,,,,,,,29.97,73,73,,,,,100,,BKN:07 16 OVC:08 21,29.84,10,73,170,,15,,,,,,,,,,,,,,,,,,,,,,,,,,,,,,,,,,,,,MET09311/27/19 01:02:02 SPECI KPNS 270702Z 17013KT 10SM BKN016 OVC021 23/23 A2997 RMK AO2 T02280228,FM-16,7,,,,,,,,,,,,,,,,,,,,,,,,,,,,
72222313899,2019-11-27T01:48:00,FM-16,7,,,,,,,,,,,,,,,,,,,,,,,,,,,,,,,,,,,,,,29.97,73,73,,,,,100,,BKN:07 12 OVC:08 20,29.84,10,73,180,,16,,,,,,,,,,,,,,,,,,,,,,,,,,,,,,,,,,,,,MET08311/27/19 01:48:02 SPECI KPNS 270748Z 18014KT 10SM BKN012 OVC020 23/23 A2997 RMK AO2,FM-16,7,,,,,,,,,,,,,,,,,,,,,,,,,,,,
72222313899,2019-11-27T01:51:00,FM-16,6,,,,,,,,,,,,,,,,,,,,,,,,,,,,,,,,,,,,,,29.97,73,73,,,,,100,,SCT:04 10 BKN:07 17 OVC:08 26,29.84,10,73,170,,15,,,,,,,,,,,,,,,,,,,,,,,,,,,,,,,,,,,,,MET09511/27/19 01:51:02 SPECI KPNS 270751Z 17013KT 10SM SCT010 BKN017 OVC026 23/23 A2997 RMK AO2 FIBI,FM-16,6,,,,,,,,,,,,,,,,,,,,,,,,,,,,
72222313899,2019-11-27T01:53:00,FM-15,7,,,,,,,,,,,,,,,,,,,,,,,,,,,,,,,,,,,,,,29.97,73,73,0,,,,100,29.97,SCT:04 10 BKN:07 15 OVC:08 26,29.84,10,73,170,,15,,,,,,,,,,,,,,,,,,,,,,,,,,,,,,,,,,,,,MET10711/27/19 01:53:02 METAR KPNS 270753Z 17013KT 10SM SCT010 BKN015 OVC026 23/23 A2997 RMK AO2 SLP150 T02280228,FM-15,7,,,,,,,,,,,,,,,,,,,,,,,,,,,,
72222313899,2019-11-27T02:08:00,FM-16,7,,,,,,,,,,,,,,,,,,,,,,,,,,,,,,,,,,,,,,29.98,73,73,,,,,100,,BKN:07 10 BKN:07 16 OVC:08 21,29.85,10,73,180,,13,,,,,,,,,,,,,,,,,,,,,,,,,,,,,,,,,,,,,MET11211/27/19 02:08:02 SPECI KPNS 270808Z 18011KT 10SM BKN010 BKN016 OVC021 23/23 A2998 RMK AO2 CIG 007V011 T02280228,FM-16,7,,,,,,,,,,,,,,,,,,,,,,,,,,,,
72222313899,2019-11-27T02:17:00,FM-16,7,,,,,,,,,,,,,,,,,,,,,,,,,,,,,,,,,,,,,,29.98,73,73,,,,,100,,BKN:07 9 OVC:08 19,29.85,10,73,180,,13,,,,,,,,,,,,,,,,,,,,,,,,,,,,,,,,,,,,,MET10511/27/19 02:17:02 SPECI KPNS 270817Z 18011KT 10SM BKN009 OVC019 23/23 A2998 RMK AO2 CIG 007V013 T02280228,FM-16,7,,,,,,,,,,,,,,,,,,,,,,,,,,,,
72222313899,2019-11-27T02:30:00,FM-16,7,,,,,,,,,,,,,,,,,,,,,,,,,,,,,,,,,,,,,,29.98,73,73,,,,,100,,OVC:08 10,29.85,10,73,190,,11,,,,,,,,,,,,,,,,,,,,,,,,,,,,,,,,,,,,,MET09811/27/19 02:30:02 SPECI KPNS 270830Z 19010KT 10SM OVC010 23/23 A2998 RMK AO2 CIG 007V013 T02280228,FM-16,7,,,,,,,,,,,,,,,,,,,,,,,,,,,,
72222313899,2019-11-27T02:53:00,FM-15,7,,,,,,,,,,,,,,,,,,,,,,,,,,,,,,,,,,,,,,29.99,73,73,0,,-0.02,3,100,29.99,OVC:08 12,29.86,10,73,190,,11,,,,,,,,,,,,,,,,,,,,,,,,,,,,,,,,,,,,,MET09911/27/19 02:53:02 METAR KPNS 270853Z 19010KT 10SM OVC012 23/23 A2999 RMK AO2 SLP157 T02280228 53007,FM-15,7,,,,,,,,,,,,,,,,,,,,,,,,,,,,
72222313899,2019-11-27T03:32:00,FM-16,7,,,,,,,,,,,,,,,,,,,,,,,,,,,,,,,,,,,,,,30,73,73,,,,,100,,BKN:07 9 OVC:08 14,29.87,10,73,200,,9,,,,,,,,,,,,,,,,,,,,,,,,,,,,,,,,,,,,,MET10511/27/19 03:32:02 SPECI KPNS 270932Z 20008KT 10SM BKN009 OVC014 23/23 A3000 RMK AO2 CIG 006V013 T02280228,FM-16,7,,,,,,,,,,,,,,,,,,,,,,,,,,,,
72222313899,2019-11-27T03:53:00,FM-15,7,,,,,,,,,,,,,,,,,,,,,,,,,,,,,,,,,,,,,,30,73,73,0,,,,100,30.01,OVC:08 9,29.87,9,73,200,,9,,,,,,,,,,,,,,,,,,,,,,,,,,,,,,,,,,,,,MET10411/27/19 03:53:02 METAR KPNS 270953Z 20008KT 9SM OVC009 23/23 A3000 RMK AO2 CIG 006V012 SLP161 T02280228,FM-15,7,,,,,,,,,,,,,,,,,,,,,,,,,,,,
72222313899,2019-11-27T04:53:00,FM-15,7,,,,,,,,,,,,,,,,,,,,,,,,,,,,,,,,,,,,,,30.01,73,73,0,,,,100,30.01,OVC:08 7,29.88,8,73,200,,10,,,,,,,,,,,,,,,,,,,,,,,,,,,,,,,,,,,,,MET10411/27/19 04:53:02 METAR KPNS 271053Z 20009KT 8SM OVC007 23/23 A3001 RMK AO2 CIG 004V010 SLP163 T02280228,FM-15,7,,,,,,,,,,,,,,,,,,,,,,,,,,,,
72222313899,2019-11-27T05:39:00,FM-16,7,,,,,,,,,,,,,,,,,,,,,,,,,,,,,,,,,,,,,,30.01,73,73,,BR:1 ||,,,100,,OVC:08 4,29.88,6,73,200,,11,,,,,,,,,,,,,,,,,,,,,,,,,,,,,,,,,,,,,MET08811/27/19 05:39:02 SPECI KPNS 271139Z 20010KT 6SM BR OVC004 23/23 A3001 RMK AO2 T02280228,FM-16,7,,,,,,,,,,,,,,,,,,,,,,,,,,,,
72222313899,2019-11-27T05:53:00,FM-15,7,,,,,,,,,,,,,,,,,,,,,,,,,,,,,,,,,,,,,,30.02,73,73,0,BR:1 ||,-0.03,3,100,30.03,OVC:08 3,29.89,5,73,210,,10,,,,,,,,,,,,,,,,,,,,,,,,,,,,,,,,,,,,,MET11311/27/19 05:53:02 METAR KPNS 271153Z 21009KT 5SM BR OVC003 23/23 A3002 RMK AO2 SLP168 T02280228 10228 20228 53011,FM-15,7,,,,,,,,,,,,,,,,,,,,,,,,,,,,
72222313899,2019-11-27T06:53:00,FM-15,7,,,,,,,,,,,,,,,,,,,,,,,,,,,,,,,,,,,,,,30.03,73,73,0,BR:1 ||,,,100,30.04,OVC:08 2,29.9,3,73,210,,10,,,,,,,,,,,,,,,,,,,,,,,,,,,,,,,,,,,,,MET10011/27/19 06:53:02 METAR KPNS 271253Z 21009KT 3SM BR OVC002 23/23 A3003 RMK AO2 SLP172 T02280228 (DD),FM-15,7,,,,,,,,,,,,,,,,,,,,,,,,,,,,
72222313899,2019-11-27T07:51:00,FM-16,6,,,,,,,,,,,,,,,,,,,,,,,,,,,,,,,,,,,,,,30.07,73,73,,BR:1 ||,,,100,,SCT:04 3 OVC:08 23,29.94,3,73,210,,11,,,,,,,,,,,,,,,,,,,,,,,,,,,,,,,,,,,,,MET09511/27/19 07:51:02 SPECI KPNS 271351Z 21010KT 3SM BR SCT003 OVC023 23/23 A3007 RMK AO2 FIBI (DD),FM-16,6,,,,,,,,,,,,,,,,,,,,,,,,,,,,
72222313899,2019-11-27T07:53:00,FM-15,7,,,,,,,,,,,,,,,,,,,,,,,,,,,,,,,,,,,,,,30.07,75,75,0,BR:1 ||,,,100,30.07,BKN:07 3 OVC:08 23,29.94,3,75,210,,11,,,,,,,,,,,,,,,,,,,,,,,,,,,,,,,,,,,,,MET10711/27/19 07:53:02 METAR KPNS 271353Z 21010KT 3SM BR BKN003 OVC023 24/24 A3007 RMK AO2 SLP183 T02390239 (WS),FM-15,7,,,,,,,,,,,,,,,,,,,,,,,,,,,,
72222313899,2019-11-27T08:05:00,FM-16,7,,,,,,,,,,,,,,,,,,,,,,,,,,,,,,,,,,,,,,30.07,75,76,,,,,97,,BKN:07 3 OVC:08 23,29.94,10,75,210,,10,,,,,,,,,,,,,,,,,,,,,,,,,,,,,,,,,,,,,MET09811/27/19 08:05:02 SPECI KPNS 271405Z 21009KT 10SM BKN003 OVC023 24/24 A3007 RMK AO2 T02440239 (WS),FM-16,7,,,,,,,,,,,,,,,,,,,,,,,,,,,,
72222313899,2019-11-27T08:26:00,FM-16,7,,,,,,,,,,,,,,,,,,,,,,,,,,,,,,,,,,,,,,30.07,75,77,,,,,94,,SCT:04 21 OVC:08 80,29.94,10,76,210,,14,,,,,,,,,,,,,,,,,,,,,,,,,,,,,,,,,,,,,MET09811/27/19 08:26:02 SPECI KPNS 271426Z 21012KT 10SM SCT021 OVC080 25/24 A3007 RMK AO2 T02500239 (WS),FM-16,7,,,,,,,,,,,,,,,,,,,,,,,,,,,,
72222313899,2019-11-27T08:51:00,FM-16,6,,,,,,,,,,,,,,,,,,,,,,,,,,,,,,,,,,,,,,30.09,75,77,,,,,94,,BKN:07 14 OVC:08 30,29.96,10,76,220,,14,,,,,,,,,,,,,,,,,,,,,,,,,,,,,,,,,,,,,MET09311/27/19 08:51:02 SPECI KPNS 271451Z 22012KT 10SM BKN014 OVC030 25/24 A3009 RMK AO2 FIBI (WS),FM-16,6,,,,,,,,,,,,,,,,,,,,,,,,,,,,
72222313899,2019-11-27T08:53:00,FM-15,7,,,,,,,,,,,,,,,,,,,,,,,,,,,,,,,,,,,,,,30.09,75,77,0,,-0.06,1,94,30.09,BKN:07 14 OVC:08 30,29.96,10,76,220,,15,,,,,,,,,,,,,,,,,,,,,,,,,,,,,,,,,,,,,MET11111/27/19 08:53:02 METAR KPNS 271453Z 22013KT 10SM BKN014 OVC030 25/24 A3009 RMK AO2 SLP191 T02500239 51019 (WS),FM-15,7,,,,,,,,,,,,,,,,,,,,,,,,,,,,
72222313899,2019-11-27T09:53:00,FM-15,7,,,,,,,,,,,,,,,,,,,,,,,,,,,,,,,,,,,,,,30.12,74,79,0,,,,85,30.12,BKN:07 14 OVC:08 30,29.99,10,76,240,23,16,,,,,,,,,,,,,,,,,,,,,,,,,,,,,,,,,,,,,MET10811/27/19 09:53:02 METAR KPNS 271553Z 24014G20KT 10SM BKN014 OVC030 26/23 A3012 RMK AO2 SLP200 T02610233 (WS),FM-15,7,,,,,,,,,,,,,,,,,,,,,,,,,,,,
72222313899,2019-11-27T10:00:00,FM-16,7,,,,,,,,,,,,,,,,,,,,,,,,,,,,,,,,,,,,,,30.12,75,79,,,,,88,,BKN:07 18 BKN:07 25 OVC:08 80,29.99,10,76,240,24,13,,,,,,,,,,,,,,,,,,,,,,,,,,,,,,,,,,,,,MET10811/27/19 10:00:02 SPECI KPNS 271600Z 24011G21KT 10SM BKN018 BKN025 OVC080 26/24 A3012 RMK AO2 T02610239 (WS),FM-16,7,,,,,,,,,,,,,,,,,,,,,,,,,,,,
72222313899,2019-11-27T10:42:00,FM-16,7,,,,,,,,,,,,,,,,,,,,,,,,,,,,,,,,,,,,,,30.12,74,81,,,,,79,,FEW:02 18 SCT:04 25 OVC:08 80,29.99,10,76,250,,11,,,,,,,,,,,,,,,,,,,,,,,,,,,,,,,,,,,,,MET10511/27/19 10:42:02 SPECI KPNS 271642Z 25010KT 10SM FEW018 SCT025 OVC080 27/23 A3012 RMK AO2 T02720233 (WS),FM-16,7,,,,,,,,,,,,,,,,,,,,,,,,,,,,
72222313899,2019-11-27T10:53:00,FM-15,7,,,,,,,,,,,,,,,,,,,,,,,,,,,,,,,,,,,,,,30.12,74,81,0,,,,79,30.12,FEW:02 19 BKN:07 55 OVC:08 80,29.99,10,76,260,,11,,,,,,,,,,,,,,,,,,,,,,,,,,,,,,,,,,,,,MET11211/27/19 10:53:02 METAR KPNS 271653Z 26010KT 10SM FEW019 BKN055 OVC080 27/23 A3012 RMK AO2 SLP199 T02720233 (WS),FM-15,7,,,,,,,,,,,,,,,,,,,,,,,,,,,,
72222313899,2019-11-27T11:53:00,FM-15,7,,,,,,,,,,,,,,,,,,,,,,,,,,,,,,,,,,,,,,30.09,72,82,0,,0,8,72,30.09,FEW:02 55 SCT:04 75,29.96,10,75,270,,13,,,,,,,,,,,,,,,,,,,,,,,,,,,,,,,,,,,,,MET12311/27/19 11:53:02 METAR KPNS 271753Z 27011KT 10SM FEW055 SCT075 28/22 A3009 RMK AO2 SLP190 T02780222 10283 20222 58000 (WS),FM-15,7,,,,,,,,,,,,,,,,,,,,,,,,,,,,
72222313899,2019-11-27T12:38:00,FM-16,7,,,,,,,,,,,,,,,,,,,,,,,,,,,,,,,,,,,,,,30.09,66,75,,,,,74,,SCT:04 22 BKN:07 28 OVC:08 70,29.96,10,69,350,,14,,,,,,,,,,,,,,,,,,,,,,,,,,,,,,,,,,,,,MET11611/27/19 12:38:02 SPECI KPNS 271838Z 35012KT 10SM SCT022 BKN028 OVC070 24/19 A3009 RMK AO2 WSHFT 1824 T02390189 (WS),FM-16,7,,,,,,,,,,,,,,,,,,,,,,,,,,,,
72222313899,2019-11-27T12:53:00,FM-15,7,,,,,,,,,,,,,,,,,,,,,,,,,,,,,,,,,,,,,,30.09,64,75,0,,,,69,30.09,BKN:07 22 BKN:07 30 OVC:08 42,29.96,10,68,350,,13,,,,,,,,,,,,,,,,,,,,,,,,,,,,,,,,,,,,,MET12311/27/19 12:53:02 METAR KPNS 271853Z 35011KT 10SM BKN022 BKN030 OVC042 24/18 A3009 RMK AO2 WSHFT 1824 SLP189 T02390178 (WS),FM-15,7,,,,,,,,,,,,,,,,,,,,,,,,,,,,
72222313899,2019-11-27T13:06:00,FM-16,7,,,,,,,,,,,,,,,,,,,,,,,,,,,,,,,,,,,,,,30.09,64,77,,,,,64,,BKN:07 22 BKN:07 37 OVC:08 55,29.96,10,69,340,,13,,,,,,,,,,,,,,,,,,,,,,,,,,,,,,,,,,,,,MET10511/27/19 13:06:02 SPECI KPNS 271906Z 34011KT 10SM BKN022 BKN037 OVC055 25/18 A3009 RMK AO2 T02500178 (WS),FM-16,7,,,,,,,,,,,,,,,,,,,,,,,,,,,,
72222313899,2019-11-27T13:13:00,FM-16,7,,,,,,,,,,,,,,,,,,,,,,,,,,,,,,,,,,,,,,30.09,64,77,,,,,64,,BKN:07 24 BKN:07 33 OVC:08 50,29.96,10,69,350,,14,,,,,,,,,,,,,,,,,,,,,,,,,,,,,,,,,,,,,MET10511/27/19 13:13:02 SPECI KPNS 271913Z 35012KT 10SM BKN024 BKN033 OVC050 25/18 A3009 RMK AO2 T02500178 (WS),FM-16,7,,,,,,,,,,,,,,,,,,,,,,,,,,,,
72222313899,2019-11-27T13:53:00,FM-15,7,,,,,,,,,,,,,,,,,,,,,,,,,,,,,,,,,,,,,,30.1,66,75,0,,,,74,30.1,OVC:08 23,29.97,10,69,350,,10,,,,,,,,,,,,,,,,,,,,,,,,,,,,,,,,,,,,,MET09811/27/19 13:53:02 METAR KPNS 271953Z 35009KT 10SM OVC023 24/19 A3010 RMK AO2 SLP194 T02390189 (WS),FM-15,7,,,,,,,,,,,,,,,,,,,,,,,,,,,,
72222313899,2019-11-27T14:37:00,FM-16,7,,,,,,,,,,,,,,,,,,,,,,,,,,,,,,,,,,,,,,30.11,62,75,,,,,64,,SCT:04 26 OVC:08 37,29.98,10,67,360,,7,,,,,,,,,,,,,,,,,,,,,,,,,,,,,,,,,,,,,MET09811/27/19 14:37:02 SPECI KPNS 272037Z 36006KT 10SM SCT026 OVC037 24/17 A3011 RMK AO2 T02390167 (WS),FM-16,7,,,,,,,,,,,,,,,,,,,,,,,,,,,,
72222313899,2019-11-27T14:53:00,FM-15,7,,,,,,,,,,,,,,,,,,,,,,,,,,,,,,,,,,,,,,30.11,61,76,0,,-0.02,3,60,30.11,BKN:07 27 OVC:08 37,29.98,10,67,360,,8,,,,,,,,,,,,,,,,,,,,,,,,,,,,,,,,,,,,,MET11111/27/19 14:53:02 METAR KPNS 272053Z 36007KT 10SM BKN027 OVC037 24/16 A3011 RMK AO2 SLP198 T02440161 53008 (WS),FM-15,7,,,,,,,,,,,,,,,,,,,,,,,,,,,,
72222313899,2019-11-27T15:28:00,FM-16,7,,,,,,,,,,,,,,,,,,,,,,,,,,,,,,,,,,,,,,30.12,57,75,,,,,54,,OVC:08 31,29.99,10,64,10,,6,,,,,,,,,,,,,,,,,,,,,,,,,,,,,,,,,,,,,MET09111/27/19 15:28:02 SPECI KPNS 272128Z 01005KT 10SM OVC031 24/14 A3012 RMK AO2 T02390139 (WS),FM-16,7,,,,,,,,,,,,,,,,,,,,,,,,,,,,
72222313899,2019-11-27T15:53:00,FM-15,7,,,,,,,,,,,,,,,,,,,,,,,,,,,,,,,,,,,,,,30.12,57,74,0,,,,56,30.12,BKN:07 30,29.99,10,64,10,,10,,,,,,,,,,,,,,,,,,,,,,,,,,,,,,,,,,,,,MET09811/27/19 15:53:02 METAR KPNS 272153Z 01009KT 10SM BKN030 23/14 A3012 RMK AO2 SLP199 T02330139 (WS),FM-15,7,,,,,,,,,,,,,,,,,,,,,,,,,,,,
72222313899,2019-11-27T16:53:00,FM-15,7,,,,,,,,,,,,,,,,,,,,,,,,,,,,,,,,,,,,,,30.13,57,71,0,,,,61,30.14,CLR:00,30,10,63,360,,6,,,,,,,,,,,,,,,,,,,,,,,,,,,,,,,,,,,,,MET09511/27/19 16:53:02 METAR KPNS 272253Z 36005KT 10SM CLR 22/14 A3013 RMK AO2 SLP205 T02170139 (WS),FM-15,7,,,,,,,,,,,,,,,,,,,,,,,,,,,,
72222313899,2019-11-27T17:53:00,FM-15,7,,,,,,,,,,,,,,,,,,,,,,,,,,,,,,,,,,,,,,30.14,58,69,0,,-0.03,3,68,30.15,CLR:00,30.01,10,62,360,,6,,,,,,,,,,,,,,,,,,,,,,,,,,,,,,,,,,,,,MET10811/27/19 17:53:02 METAR KPNS 272353Z 36005KT 10SM CLR 21/14 A3014 RMK AO2 SLP209 T02060144 10289 20200 53010,FM-15,7,,,,,,,,,,,,,,,,,,,,,,,,,,,,
72222313899,2019-11-27T18:00:00,SHEF ,4,,,,,,,,,,,,,,,,,,,,,,,,,,,,,,,,,,,,,,,,,,,,,,,,,,,,,,,,,,,,,,,,,,,,,,,,,,,,,,,,,,,,,,,,,,,SHEF ,4,,,,,,,,,,,,,,,,,,,,,,,,,,,,
72222313899,2019-11-27T18:53:00,FM-15,7,,,,,,,,,,,,,,,,,,,,,,,,,,,,,,,,,,,,,,30.16,59,67,0,,,,76,30.17,CLR:00,30.03,10,62,360,,5,,,,,,,,,,,,,,,,,,,,,,,,,,,,,,,,,,,,,MET09011/27/19 18:53:03 METAR KPNS 280053Z 36004KT 10SM CLR 19/15 A3016 RMK AO2 SLP216 T01940150,FM-15,7,,,,,,,,,,,,,,,,,,,,,,,,,,,,
72222313899,2019-11-27T19:53:00,FM-15,7,,,,,,,,,,,,,,,,,,,,,,,,,,,,,,,,,,,,,,30.17,60,67,0,,,,79,30.18,CLR:00,30.04,10,63,360,,7,,,,,,,,,,,,,,,,,,,,,,,,,,,,,,,,,,,,,MET09011/27/19 19:53:03 METAR KPNS 280153Z 36006KT 10SM CLR 19/16 A3017 RMK AO2 SLP219 T01940156,FM-15,7,,,,,,,,,,,,,,,,,,,,,,,,,,,,
72222313899,2019-11-27T20:53:00,FM-15,7,,,,,,,,,,,,,,,,,,,,,,,,,,,,,,,,,,,,,,30.2,56,67,0,,-0.05,3,68,30.2,CLR:00,30.07,10,61,360,,9,,,,,,,,,,,,,,,,,,,,,,,,,,,,,,,,,,,,,MET09611/27/19 20:53:03 METAR KPNS 280253Z 36008KT 10SM CLR 19/13 A3020 RMK AO2 SLP227 T01940133 53017,FM-15,7,,,,,,,,,,,,,,,,,,,,,,,,,,,,
72222313899,2019-11-27T21:53:00,FM-15,7,,,,,,,,,,,,,,,,,,,,,,,,,,,,,,,,,,,,,,30.22,50,66,0,,,,56,30.22,CLR:00,30.09,10,57,360,,10,,,,,,,,,,,,,,,,,,,,,,,,,,,,,,,,,,,,,MET09011/27/19 21:53:03 METAR KPNS 280353Z 36009KT 10SM CLR 19/10 A3022 RMK AO2 SLP234 T01890100,FM-15,7,,,,,,,,,,,,,,,,,,,,,,,,,,,,
72222313899,2019-11-27T22:53:00,FM-15,7,,,,,,,,,,,,,,,,,,,,,,,,,,,,,,,,,,,,,,30.22,45,64,0,,,,50,30.23,CLR:00,30.09,10,54,360,,10,,,,,,,,,,,,,,,,,,,,,,,,,,,,,,,,,,,,,MET09011/27/19 22:53:03 METAR KPNS 280453Z 36009KT 10SM CLR 18/07 A3022 RMK AO2 SLP236 T01780072,FM-15,7,,,,,,,,,,,,,,,,,,,,,,,,,,,,
72222313899,2019-11-27T23:53:00,FM-15,4,,,,,,,,,,,,,,,,,,,,,,,,,,,,,,,,,,,,,,30.23,44,62,,,,,52,30.23,,,10,,360,,10,,,,,,,,,,,,,,,,,,,,,,,,,,,,,,,,,,,,,MET106METAR KPNS 280553Z AUTO 36009KT 10SM CLR 17/07 A3023 RMK AO2 SLP238 T01670067 10206 20167 402890167 51011=,FM-15,4,,,,,,,,,,,,,,,,,,,,,,,,,,,,
72222313899,2019-11-27T23:59:00,SOD  ,6,,,,,,,,,,,,,,,65,73,80,30.09,29.99,68,10.5,8,15.2,0,84,62,160,24,0,,,170,20,BR,,,,,,,,,,,,,,,,,,,,,,,,,,,,,,,,,,,,,,,,,,,,,,,,,,,,,,,,SOD75624 HR PRECIPITATION (IN): 0.00 SNOW DEPTH (IN):0     24 HR SNOWFALL (IN):0.0  WEATHER(CODE):1  24 HR MAX TEMP (F): 8424 HR MIN TEMP (F): 62AVERAGE STATION PRESSURE:29.990 MINIMUM SEA LEVEL PRESSURE:29.96 TIME OF OCCURRENCE:0045 PEAK WIND SPEED (MPH): 24 PEAK WIND DIR (DEG):160 PEAK WIND TIME (LST):      FASTEST 2MIN SPEED (MPH): 20FASTEST 2MIN DIR (DEG):170 FASTEST 2MIN TIME (LST):     AVERAGE WIND SPEED (MPH):10.5 24 HR AVG TEMP (F): 73DEPART FROM NORMAL: 15  HEATING DEGREE DAYS:  0 COOLING DEGREE DAYS:  8 LATEST DAY MAX TEMP (0700-1900 LST):84  LATEST NIGHT MIN TEMP(1900-0800 LST):72 HOURLY INCREMENTAL PRECIPITATION VALUES (IN):.00 0.00 0.00 0.00 0.00 0.00 0.00 0.00 0.00 0.00 0.00 0.00 0.00 0.00 0.00 0.00 0.00 0.00 0.00 0.00 0.00 0.00 0.00 0.00,SOD  ,6,,,,,,,,,,,,,,,,,,,,,,,,,625,1648,,
72222313899,2019-11-28T00:53:00,FM-15,7,,,,,,,,,,,,,,,,,,,,,,,,,,,,,,,,,,,,,,30.25,43,59,0,,,,56,30.25,CLR:00,30.12,10,51,350,,9,,,,,,,,,,,,,,,,,,,,,,,,,,,,,,,,,,,,,MET09011/28/19 00:53:02 METAR KPNS 280653Z 35008KT 10SM CLR 15/06 A3025 RMK AO2 SLP244 T01500061,FM-15,7,,,,,,,,,,,,,,,,,,,,,,,,,,,,
72222313899,2019-11-28T01:53:00,FM-15,7,,,,,,,,,,,,,,,,,,,,,,,,,,,,,,,,,,,,,,30.24,39,59,0,,,,48,30.24,CLR:00,30.11,10,49,360,,11,,,,,,,,,,,,,,,,,,,,,,,,,,,,,,,,,,,,,MET09011/28/19 01:53:02 METAR KPNS 280753Z 36010KT 10SM CLR 15/04 A3024 RMK AO2 SLP242 T01500039,FM-15,7,,,,,,,,,,,,,,,,,,,,,,,,,,,,
72222313899,2019-11-28T02:53:00,FM-15,7,,,,,,,,,,,,,,,,,,,,,,,,,,,,,,,,,,,,,,30.24,39,57,0,,,,51,30.25,,30.11,10,48,360,,11,,,,,,,,,,,,,,,,,,,,,,,,,,,,,,,,,,,,,MET08811/28/19 02:53:02 METAR KPNS 280853Z 36010KT 10SM 14/04 A3024 RMK AO2 SLP243 T01390039 $,FM-15,7,,,,,,,,,,,,,,,,,,,,,,,,,,,,
72222313899,2019-11-28T03:53:00,FM-15,7,,,,,,,,,,,,,,,,,,,,,,,,,,,,,,,,,,,,,,30.25,39,56,0,,,,53,30.25,CLR:00,30.12,10,48,360,,10,,,,,,,,,,,,,,,,,,,,,,,,,,,,,,,,,,,,,MET09211/28/19 03:53:02 METAR KPNS 280953Z 36009KT 10SM CLR 13/04 A3025 RMK AO2 SLP244 T01330039 $,FM-15,7,,,,,,,,,,,,,,,,,,,,,,,,,,,,
72222313899,2019-11-28T04:53:00,FM-15,7,,,,,,,,,,,,,,,,,,,,,,,,,,,,,,,,,,,,,,30.26,39,55,0,,,,55,30.27,CLR:00,30.13,10,47,10,,8,,,,,,,,,,,,,,,,,,,,,,,,,,,,,,,,,,,,,MET09211/28/19 04:53:02 METAR KPNS 281053Z 01007KT 10SM CLR 13/04 A3026 RMK AO2 SLP250 T01280039 $,FM-15,7,,,,,,,,,,,,,,,,,,,,,,,,,,,,
72222313899,2019-11-28T05:53:00,FM-15,7,,,,,,,,,,,,,,,,,,,,,,,,,,,,,,,,,,,,,,30.29,38,54,0,,-0.04,3,55,30.29,CLR:00,30.16,10,46,360,,10,,,,,,,,,,,,,,,,,,,,,,,,,,,,,,,,,,,,,MET11511/28/19 05:53:02 METAR KPNS 281153Z 36009KT 10SM CLR 12/03 A3029 RMK AO2 SLP258 T01220033 10167 20122 53015 $ (JH),FM-15,7,,,,,,,,,,,,,,,,,,,,,,,,,,,,
72222313899,2019-11-28T06:53:00,FM-15,7,,,,,,,,,,,,,,,,,,,,,,,,,,,,,,,,,,,,,,30.3,38,54,0,,,,55,30.3,CLR:00,30.17,10,46,20,,7,,,,,,,,,,,,,,,,,,,,,,,,,,,,,,,,,,,,,MET09511/28/19 06:53:02 METAR KPNS 281253Z 02006KT 10SM CLR 12/03 A3030 RMK AO2 SLP262 T01220033 (JH),FM-15,7,,,,,,,,,,,,,,,,,,,,,,,,,,,,
72222313899,2019-11-28T07:53:00,FM-15,7,,,,,,,,,,,,,,,,,,,,,,,,,,,,,,,,,,,,,,30.32,39,56,0,,,,53,30.32,CLR:00,30.19,10,48,20,,8,,,,,,,,,,,,,,,,,,,,,,,,,,,,,,,,,,,,,MET09511/28/19 07:53:02 METAR KPNS 281353Z 02007KT 10SM CLR 13/04 A3032 RMK AO2 SLP268 T01330039 (JH),FM-15,7,,,,,,,,,,,,,,,,,,,,,,,,,,,,
72222313899,2019-11-28T08:53:00,FM-15,7,,,,,,,,,,,,,,,,,,,,,,,,,,,,,,,,,,,,,,30.32,39,59,0,,-0.03,1,48,30.32,CLR:00,30.19,10,49,30,,8,,,,,,,,,,,,,,,,,,,,,,,,,,,,,,,,,,,,,MET10111/28/19 08:53:02 METAR KPNS 281453Z 03007KT 10SM CLR 15/04 A3032 RMK AO2 SLP268 T01500039 51010 (JH),FM-15,7,,,,,,,,,,,,,,,,,,,,,,,,,,,,
72222313899,2019-11-28T09:53:00,FM-15,7,,,,,,,,,,,,,,,,,,,,,,,,,,,,,,,,,,,,,,30.32,39,62,0,,,,43,30.32,CLR:00,30.19,10,51,350,,6,,,,,,,,,,,,,,,,,,,,,,,,,,,,,,,,,,,,,MET09511/28/19 09:53:02 METAR KPNS 281553Z 35005KT 10SM CLR 17/04 A3032 RMK AO2 SLP267 T01670039 (JH),FM-15,7,,,,,,,,,,,,,,,,,,,,,,,,,,,,
72222313899,2019-11-28T10:53:00,FM-15,7,,,,,,,,,,,,,,,,,,,,,,,,,,,,,,,,,,,,,,30.3,40,67,0,,,,37,30.3,CLR:00,30.17,10,53,20,,8,,,,,,,,,,,,,,,,,,,,,,,,,,,,,,,,,,,,,MET09511/28/19 10:53:02 METAR KPNS 281653Z 02007KT 10SM CLR 19/04 A3030 RMK AO2 SLP261 T01940044 (JH),FM-15,7,,,,,,,,,,,,,,,,,,,,,,,,,,,,
72222313899,2019-11-28T11:53:00,FM-15,7,,,,,,,,,,,,,,,,,,,,,,,,,,,,,,,,,,,,,,30.26,38,70,0,,0.06,8,31,30.27,CLR:00,30.13,10,54,20,,8,,,,,,,,,,,,,,,,,,,,,,,,,,,,,,,,,,,,,MET11311/28/19 11:53:02 METAR KPNS 281753Z 02007KT 10SM CLR 21/03 A3026 RMK AO2 SLP249 T02110033 10211 20117 58019 (JH),FM-15,7,,,,,,,,,,,,,,,,,,,,,,,,,,,,
72222313899,2019-11-28T12:53:00,FM-15,7,,,,,,,,,,,,,,,,,,,,,,,,,,,,,,,,,,,,,,30.24,40,72,0,,,,31,30.24,CLR:00,30.11,10,55,30,,3,,,,,,,,,,,,,,,,,,,,,,,,,,,,,,,,,,,,,MET09011/28/19 12:53:02 METAR KPNS 281853Z 03003KT 10SM CLR 22/04 A3024 RMK AO2 SLP241 T02220044,FM-15,7,,,,,,,,,,,,,,,,,,,,,,,,,,,,
72222313899,2019-11-28T13:53:00,FM-15,7,,,,,,,,,,,,,,,,,,,,,,,,,,,,,,,,,,,,,,30.22,39,74,0,,,,28,30.23,CLR:00,30.09,10,56,30,,8,,,,,,,,,,,,,,,,,,,,,,,,,,,,,,,,,,,,,MET09011/28/19 13:53:02 METAR KPNS 281953Z 03007KT 10SM CLR 23/04 A3022 RMK AO2 SLP236 T02330039,FM-15,7,,,,,,,,,,,,,,,,,,,,,,,,,,,,
72222313899,2019-11-28T14:53:00,FM-15,7,,,,,,,,,,,,,,,,,,,,,,,,,,,,,,,,,,,,,,30.21,38,75,0,,0.05,6,26,30.22,CLR:00,30.08,10,56,20,,7,,,,,,,,,,,,,,,,,,,,,,,,,,,,,,,,,,,,,MET09611/28/19 14:53:02 METAR KPNS 282053Z 02006KT 10SM CLR 24/03 A3021 RMK AO2 SLP232 T02390033 56017,FM-15,7,,,,,,,,,,,,,,,,,,,,,,,,,,,,
72222313899,2019-11-28T15:53:00,FM-15,7,,,,,,,,,,,,,,,,,,,,,,,,,,,,,,,,,,,,,,30.21,41,73,0,,,,32,30.21,CLR:00,30.08,10,56,360,,6,,,,,,,,,,,,,,,,,,,,,,,,,,,,,,,,,,,,,MET09011/28/19 15:53:02 METAR KPNS 282153Z 36005KT 10SM CLR 23/05 A3021 RMK AO2 SLP231 T02280050,FM-15,7,,,,,,,,,,,,,,,,,,,,,,,,,,,,
72222313899,2019-11-28T16:53:00,FM-15,7,,,,,,,,,,,,,,,,,,,,,,,,,,,,,,,,,,,,,,30.21,45,67,0,,,,45,30.21,CLR:00,30.08,10,55,360,,6,,,,,,,,,,,,,,,,,,,,,,,,,,,,,,,,,,,,,MET09011/28/19 16:53:02 METAR KPNS 282253Z 36005KT 10SM CLR 19/07 A3021 RMK AO2 SLP230 T01940072,FM-15,7,,,,,,,,,,,,,,,,,,,,,,,,,,,,
72222313899,2019-11-28T17:53:00,FM-15,7,,,,,,,,,,,,,,,,,,,,,,,,,,,,,,,,,,,,,,30.23,46,63,0,,-0.02,3,54,30.23,CLR:00,30.1,10,54,0,,0,,,,,,,,,,,,,,,,,,,,,,,,,,,,,,,,,,,,,MET10811/28/19 17:53:02 METAR KPNS 282353Z 00000KT 10SM CLR 17/08 A3023 RMK AO2 SLP238 T01720078 10239 20172 53006,FM-15,7,,,,,,,,,,,,,,,,,,,,,,,,,,,,
72222313899,2019-11-28T18:00:00,SHEF ,4,,,,,,,,,,,,,,,,,,,,,,,,,,,,,,,,,,,,,,,,,,,,,,,,,,,,,,,,,,,,,,,,,,,,,,,,,,,,,,,,,,,,,,,,,,,SHEF ,4,,,,,,,,,,,,,,,,,,,,,,,,,,,,
72222313899,2019-11-28T18:53:00,FM-15,7,,,,,,,,,,,,,,,,,,,,,,,,,,,,,,,,,,,,,,30.23,44,63,0,,,,50,30.24,CLR:00,30.1,10,53,360,,7,,,,,,,,,,,,,,,,,,,,,,,,,,,,,,,,,,,,,MET09011/28/19 18:53:01 METAR KPNS 290053Z 36006KT 10SM CLR 17/07 A3023 RMK AO2 SLP240 T01720067,FM-15,7,,,,,,,,,,,,,,,,,,,,,,,,,,,,
72222313899,2019-11-28T19:53:00,FM-15,7,,,,,,,,,,,,,,,,,,,,,,,,,,,,,,,,,,,,,,30.25,44,62,0,,,,52,30.25,CLR:00,30.12,10,53,360,,8,,,,,,,,,,,,,,,,,,,,,,,,,,,,,,,,,,,,,MET09011/28/19 19:53:01 METAR KPNS 290153Z 36007KT 10SM CLR 17/07 A3025 RMK AO2 SLP245 T01670067,FM-15,7,,,,,,,,,,,,,,,,,,,,,,,,,,,,
72222313899,2019-11-28T20:53:00,FM-15,7,,,,,,,,,,,,,,,,,,,,,,,,,,,,,,,,,,,,,,30.25,44,62,0,,-0.02,0,52,30.25,CLR:00,30.12,10,53,360,,6,,,,,,,,,,,,,,,,,,,,,,,,,,,,,,,,,,,,,MET09611/28/19 20:53:01 METAR KPNS 290253Z 36005KT 10SM CLR 17/07 A3025 RMK AO2 SLP244 T01670067 50006,FM-15,7,,,,,,,,,,,,,,,,,,,,,,,,,,,,
72222313899,2019-11-28T21:53:00,FM-15,7,,,,,,,,,,,,,,,,,,,,,,,,,,,,,,,,,,,,,,30.25,44,60,0,,,,56,30.25,CLR:00,30.12,10,52,10,,5,,,,,,,,,,,,,,,,,,,,,,,,,,,,,,,,,,,,,MET09011/28/19 21:53:01 METAR KPNS 290353Z 01004KT 10SM CLR 16/07 A3025 RMK AO2 SLP244 T01560067,FM-15,7,,,,,,,,,,,,,,,,,,,,,,,,,,,,
72222313899,2019-11-28T22:53:00,FM-15,7,,,,,,,,,,,,,,,,,,,,,,,,,,,,,,,,,,,,,,30.25,44,59,0,,,,58,30.25,CLR:00,30.12,10,51,360,,7,,,,,,,,,,,,,,,,,,,,,,,,,,,,,,,,,,,,,MET09011/28/19 22:53:02 METAR KPNS 290453Z 36006KT 10SM CLR 15/07 A3025 RMK AO2 SLP244 T01500067,FM-15,7,,,,,,,,,,,,,,,,,,,,,,,,,,,,
72222313899,2019-11-28T23:53:00,FM-15,7,,,,,,,,,,,,,,,,,,,,,,,,,,,,,,,,,,,,,,30.22,43,58,0,,0.02,8,58,30.23,CLR:00,30.09,10,50,20,,3,,,,,,,,,,,,,,,,,,,,,,,,,,,,,,,,,,,,,MET11811/28/19 23:53:02 METAR KPNS 290553Z 02003KT 10SM CLR 14/06 A3022 RMK AO2 SLP236 T01440061 10178 20144 402390117 58008,FM-15,7,,,,,,,,,,,,,,,,,,,,,,,,,,,,
72222313899,2019-11-28T23:59:00,SOD  ,6,,,,,,,,,,,,,,,42,64,47,30.25,30.11,52,7.1,0,6.4,1,75,53,360,18,0,,,360,14,,,,,,,,,,,,,,,,,,,,,,,,,,,,,,,,,,,,,,,,,,,,,,,,,,,,,,,,,SOD73924 HR PRECIPITATION (IN): 0.00 SNOW DEPTH (IN):0     24 HR SNOWFALL (IN):0.0  24 HR MAX TEMP (F): 7524 HR MIN TEMP (F): 53AVERAGE STATION PRESSURE:30.115 MINIMUM SEA LEVEL PRESSURE:30.21 TIME OF OCCURRENCE:1705 PEAK WIND SPEED (MPH): 18 PEAK WIND DIR (DEG):360 PEAK WIND TIME (LST):      FASTEST 2MIN SPEED (MPH): 14FASTEST 2MIN DIR (DEG):360 FASTEST 2MIN TIME (LST):     AVERAGE WIND SPEED (MPH): 7.1 24 HR AVG TEMP (F): 64DEPART FROM NORMAL:  7  HEATING DEGREE DAYS:  1 COOLING DEGREE DAYS:  0 LATEST DAY MAX TEMP (0700-1900 LST):75  LATEST NIGHT MIN TEMP(1900-0800 LST):53 HOURLY INCREMENTAL PRECIPITATION VALUES (IN):.00 0.00 0.00 0.00 0.00 0.00 0.00 0.00 0.00 0.00 0.00 0.00 0.00 0.00 0.00 0.00 0.00 0.00 0.00 0.00 0.00 0.00 0.00 0.00,SOD  ,6,,,,,,,,,,,,,,,,,,,,,,,,,625,1648,,
72222313899,2019-11-29T00:53:00,FM-15,7,,,,,,,,,,,,,,,,,,,,,,,,,,,,,,,,,,,,,,30.22,43,56,0,,,,62,30.22,CLR:00,30.09,10,50,10,,5,,,,,,,,,,,,,,,,,,,,,,,,,,,,,,,,,,,,,MET09011/29/19 00:53:02 METAR KPNS 290653Z 01004KT 10SM CLR 13/06 A3022 RMK AO2 SLP235 T01330061,FM-15,7,,,,,,,,,,,,,,,,,,,,,,,,,,,,
72222313899,2019-11-29T01:53:00,FM-15,7,,,,,,,,,,,,,,,,,,,,,,,,,,,,,,,,,,,,,,30.22,44,54,0,,,,69,30.23,CLR:00,30.09,10,49,350,,6,,,,,,,,,,,,,,,,,,,,,,,,,,,,,,,,,,,,,MET09011/29/19 01:53:02 METAR KPNS 290753Z 35005KT 10SM CLR 12/07 A3022 RMK AO2 SLP237 T01220067,FM-15,7,,,,,,,,,,,,,,,,,,,,,,,,,,,,
72222313899,2019-11-29T02:53:00,FM-15,7,,,,,,,,,,,,,,,,,,,,,,,,,,,,,,,,,,,,,,30.23,44,52,0,,-0.01,3,75,30.24,CLR:00,30.1,10,48,350,,6,,,,,,,,,,,,,,,,,,,,,,,,,,,,,,,,,,,,,MET09611/29/19 02:53:02 METAR KPNS 290853Z 35005KT 10SM CLR 11/07 A3023 RMK AO2 SLP239 T01110067 53003,FM-15,7,,,,,,,,,,,,,,,,,,,,,,,,,,,,
72222313899,2019-11-29T03:53:00,FM-15,7,,,,,,,,,,,,,,,,,,,,,,,,,,,,,,,,,,,,,,30.23,44,53,0,,,,72,30.24,CLR:00,30.1,10,49,350,,9,,,,,,,,,,,,,,,,,,,,,,,,,,,,,,,,,,,,,MET09011/29/19 03:53:02 METAR KPNS 290953Z 35008KT 10SM CLR 12/07 A3023 RMK AO2 SLP239 T01170067,FM-15,7,,,,,,,,,,,,,,,,,,,,,,,,,,,,
72222313899,2019-11-29T04:53:00,FM-15,7,,,,,,,,,,,,,,,,,,,,,,,,,,,,,,,,,,,,,,30.23,42,52,0,,,,69,30.24,CLR:00,30.1,10,47,360,,5,,,,,,,,,,,,,,,,,,,,,,,,,,,,,,,,,,,,,MET09011/29/19 04:53:02 METAR KPNS 291053Z 36004KT 10SM CLR 11/06 A3023 RMK AO2 SLP239 T01110056,FM-15,7,,,,,,,,,,,,,,,,,,,,,,,,,,,,
72222313899,2019-11-29T05:53:00,FM-15,7,,,,,,,,,,,,,,,,,,,,,,,,,,,,,,,,,,,,,,30.23,43,52,0,,0,6,72,30.24,CLR:00,30.1,10,48,0,,0,,,,,,,,,,,,,,,,,,,,,,,,,,,,,,,,,,,,,MET10811/29/19 05:53:02 METAR KPNS 291153Z 00000KT 10SM CLR 11/06 A3023 RMK AO2 SLP239 T01110061 10144 20106 56000,FM-15,7,,,,,,,,,,,,,,,,,,,,,,,,,,,,
72222313899,2019-11-29T06:53:00,FM-15,7,,,,,,,,,,,,,,,,,,,,,,,,,,,,,,,,,,,,,,30.26,44,50,0,,,,80,30.26,CLR:00,30.13,10,47,330,,6,,,,,,,,,,,,,,,,,,,,,,,,,,,,,,,,,,,,,MET09011/29/19 06:53:02 METAR KPNS 291253Z 33005KT 10SM CLR 10/07 A3026 RMK AO2 SLP248 T01000067,FM-15,7,,,,,,,,,,,,,,,,,,,,,,,,,,,,
72222313899,2019-11-29T07:53:00,FM-15,7,,,,,,,,,,,,,,,,,,,,,,,,,,,,,,,,,,,,,,30.26,42,57,0,,,,58,30.26,CLR:00,30.13,10,50,20,,6,,,,,,,,,,,,,,,,,,,,,,,,,,,,,,,,,,,,,MET09011/29/19 07:53:02 METAR KPNS 291353Z 02005KT 10SM CLR 14/06 A3026 RMK AO2 SLP248 T01390056,FM-15,7,,,,,,,,,,,,,,,,,,,,,,,,,,,,
72222313899,2019-11-29T08:53:00,FM-15,7,,,,,,,,,,,,,,,,,,,,,,,,,,,,,,,,,,,,,,30.26,42,61,0,,,,50,30.27,,30.13,10,51,30,,5,,,,,,,,,,,,,,,,,,,,,,,,,,,,,,,,,,,,,MET08811/29/19 08:53:02 METAR KPNS 291453Z 03004KT 10SM 16/06 A3026 RMK AO2 SLP249 T01610056 $,FM-15,7,,,,,,,,,,,,,,,,,,,,,,,,,,,,
72222313899,2019-11-29T09:53:00,FM-15,7,,,,,,,,,,,,,,,,,,,,,,,,,,,,,,,,,,,,,,30.26,42,67,0,,,,41,30.27,CLR:00,30.13,10,54,50,,5,,,,,,,,,,,,,,,,,,,,,,,,,,,,,,,,,,,,,MET09211/29/19 09:53:02 METAR KPNS 291553Z 05004KT 10SM CLR 19/06 A3026 RMK AO2 SLP249 T01940056 $,FM-15,7,,,,,,,,,,,,,,,,,,,,,,,,,,,,
72222313899,2019-11-29T10:53:00,FM-15,7,,,,,,,,,,,,,,,,,,,,,,,,,,,,,,,,,,,,,,30.23,42,69,0,,,,38,30.24,CLR:00,30.1,10,55,30,,5,,,,,,,,,,,,,,,,,,,,,,,,,,,,,,,,,,,,,MET09011/29/19 10:53:02 METAR KPNS 291653Z 03004KT 10SM CLR 21/06 A3023 RMK AO2 SLP239 T02060056,FM-15,7,,,,,,,,,,,,,,,,,,,,,,,,,,,,
72222313899,2019-11-29T11:53:00,FM-15,7,,,,,,,,,,,,,,,,,,,,,,,,,,,,,,,,,,,,,,30.19,37,73,0,,,,27,30.19,CLR:00,30.06,10,55,50,,6,,,,,,,,,,,,,,,,,,,,,,,,,,,,,,,,,,,,,MET10211/29/19 11:53:02 METAR KPNS 291753Z 05005KT 10SM CLR 23/03 A3019 RMK AO2 SLP224 T02280028 10228 20094,FM-15,7,,,,,,,,,,,,,,,,,,,,,,,,,,,,
72222313899,2019-11-29T12:53:00,FM-15,7,,,,,,,,,,,,,,,,,,,,,,,,,,,,,,,,,,,,,,30.15,40,76,0,,,,27,30.16,CLR:00,30.02,10,57,30,,7,,,,,,,,,,,,,,,,,,,,,,,,,,,,,,,,,,,,,MET09011/29/19 12:53:02 METAR KPNS 291853Z 03006KT 10SM CLR 24/04 A3015 RMK AO2 SLP212 T02440044,FM-15,7,,,,,,,,,,,,,,,,,,,,,,,,,,,,
72222313899,2019-11-29T13:53:00,FM-15,7,,,,,,,,,,,,,,,,,,,,,,,,,,,,,,,,,,,,,,30.12,42,77,0,,,,29,30.13,CLR:00,29.99,10,58,10,,7,,,,,,,,,,,,,,,,,,,,,,,,,,,,,,,,,,,,,MET09011/29/19 13:53:02 METAR KPNS 291953Z 01006KT 10SM CLR 25/06 A3012 RMK AO2 SLP202 T02500056,FM-15,7,,,,,,,,,,,,,,,,,,,,,,,,,,,,
72222313899,2019-11-29T14:53:00,FM-15,7,,,,,,,,,,,,,,,,,,,,,,,,,,,,,,,,,,,,,,30.11,42,77,0,,0.07,6,29,30.12,CLR:00,29.98,10,58,VRB,,3,,,,,,,,,,,,,,,,,,,,,,,,,,,,,,,,,,,,,MET09611/29/19 14:53:02 METAR KPNS 292053Z VRB03KT 10SM CLR 25/06 A3011 RMK AO2 SLP199 T02500056 56025,FM-15,7,,,,,,,,,,,,,,,,,,,,,,,,,,,,
72222313899,2019-11-29T15:53:00,FM-15,7,,,,,,,,,,,,,,,,,,,,,,,,,,,,,,,,,,,,,,30.11,51,74,0,,,,45,30.11,CLR:00,29.98,10,61,0,,0,,,,,,,,,,,,,,,,,,,,,,,,,,,,,,,,,,,,,MET09011/29/19 15:53:02 METAR KPNS 292153Z 00000KT 10SM CLR 23/11 A3011 RMK AO2 SLP198 T02330106,FM-15,7,,,,,,,,,,,,,,,,,,,,,,,,,,,,
72222313899,2019-11-29T16:53:00,FM-15,7,,,,,,,,,,,,,,,,,,,,,,,,,,,,,,,,,,,,,,30.12,49,68,0,,,,51,30.12,CLR:00,29.99,10,58,0,,0,,,,,,,,,,,,,,,,,,,,,,,,,,,,,,,,,,,,,MET09011/29/19 16:53:02 METAR KPNS 292253Z 00000KT 10SM CLR 20/09 A3012 RMK AO2 SLP201 T02000094,FM-15,7,,,,,,,,,,,,,,,,,,,,,,,,,,,,
72222313899,2019-11-29T17:53:00,FM-15,7,,,,,,,,,,,,,,,,,,,,,,,,,,,,,,,,,,,,,,30.12,54,66,0,,-0.01,3,65,30.13,CLR:00,29.99,10,59,0,,0,,,,,,,,,,,,,,,,,,,,,,,,,,,,,,,,,,,,,MET11311/29/19 17:53:02 METAR KPNS 292353Z 00000KT 10SM CLR 19/12 A3012 RMK AO2 SLP202 T01890122 10256 20183 53003 (LA),FM-15,7,,,,,,,,,,,,,,,,,,,,,,,,,,,,
72222313899,2019-11-29T18:00:00,SHEF ,4,,,,,,,,,,,,,,,,,,,,,,,,,,,,,,,,,,,,,,,,,,,,,,,,,,,,,,,,,,,,,,,,,,,,,,,,,,,,,,,,,,,,,,,,,,,SHEF ,4,,,,,,,,,,,,,,,,,,,,,,,,,,,,
72222313899,2019-11-29T18:53:00,FM-15,7,,,,,,,,,,,,,,,,,,,,,,,,,,,,,,,,,,,,,,30.12,52,65,0,,,,63,30.12,CLR:00,29.99,10,58,0,,0,,,,,,,,,,,,,,,,,,,,,,,,,,,,,,,,,,,,,MET09011/29/19 18:53:01 METAR KPNS 300053Z 00000KT 10SM CLR 18/11 A3012 RMK AO2 SLP200 T01830111,FM-15,7,,,,,,,,,,,,,,,,,,,,,,,,,,,,
72222313899,2019-11-29T19:53:00,FM-15,7,,,,,,,,,,,,,,,,,,,,,,,,,,,,,,,,,,,,,,30.12,53,60,0,,,,78,30.12,CLR:00,29.99,10,56,0,,0,,,,,,,,,,,,,,,,,,,,,,,,,,,,,,,,,,,,,MET09011/29/19 19:53:01 METAR KPNS 300153Z 00000KT 10SM CLR 16/12 A3012 RMK AO2 SLP201 T01560117,FM-15,7,,,,,,,,,,,,,,,,,,,,,,,,,,,,
72222313899,2019-11-29T20:53:00,FM-15,7,,,,,,,,,,,,,,,,,,,,,,,,,,,,,,,,,,,,,,30.11,54,60,0,,0.01,8,80,30.11,CLR:00,29.98,10,57,0,,0,,,,,,,,,,,,,,,,,,,,,,,,,,,,,,,,,,,,,MET09611/29/19 20:53:01 METAR KPNS 300253Z 00000KT 10SM CLR 16/12 A3011 RMK AO2 SLP197 T01560122 58005,FM-15,7,,,,,,,,,,,,,,,,,,,,,,,,,,,,
72222313899,2019-11-29T21:53:00,FM-15,7,,,,,,,,,,,,,,,,,,,,,,,,,,,,,,,,,,,,,,30.1,54,55,0,,,,96,30.11,CLR:00,29.97,10,54,0,,0,,,,,,,,,,,,,,,,,,,,,,,,,,,,,,,,,,,,,MET09011/29/19 21:53:01 METAR KPNS 300353Z 00000KT 10SM CLR 13/12 A3010 RMK AO2 SLP195 T01280122,FM-15,7,,,,,,,,,,,,,,,,,,,,,,,,,,,,
72222313899,2019-11-29T22:53:00,FM-15,7,,,,,,,,,,,,,,,,,,,,,,,,,,,,,,,,,,,,,,30.08,54,58,0,,,,87,30.09,CLR:00,29.95,10,56,0,,0,,,,,,,,,,,,,,,,,,,,,,,,,,,,,,,,,,,,,MET09011/29/19 22:53:02 METAR KPNS 300453Z 00000KT 10SM CLR 14/12 A3008 RMK AO2 SLP188 T01440122,FM-15,7,,,,,,,,,,,,,,,,,,,,,,,,,,,,
72222313899,2019-11-29T23:53:00,FM-15,7,,,,,,,,,,,,,,,,,,,,,,,,,,,,,,,,,,,,,,30.06,54,57,0,,0.04,8,90,30.07,CLR:00,29.93,10,55,120,,3,,,,,,,,,,,,,,,,,,,,,,,,,,,,,,,,,,,,,MET11811/29/19 23:53:02 METAR KPNS 300553Z 12003KT 10SM CLR 14/12 A3006 RMK AO2 SLP183 T01390122 10189 20128 402560094 58015,FM-15,7,,,,,,,,,,,,,,,,,,,,,,,,,,,,
72222313899,2019-11-29T23:59:00,SOD  ,6,,,,,,,,,,,,,,,46,64,60,30.18,30.02,54,3.4,0,6.7,1,78,49,350,12,0,,,350,9,,,,,,,,,,,,,,,,,,,,,,,,,,,,,,,,,,,,,,,,,,,,,,,,,,,,,,,,,SOD73924 HR PRECIPITATION (IN): 0.00 SNOW DEPTH (IN):0     24 HR SNOWFALL (IN):0.0  24 HR MAX TEMP (F): 7824 HR MIN TEMP (F): 49AVERAGE STATION PRESSURE:30.020 MINIMUM SEA LEVEL PRESSURE:30.07 TIME OF OCCURRENCE:2359 PEAK WIND SPEED (MPH): 12 PEAK WIND DIR (DEG):350 PEAK WIND TIME (LST):      FASTEST 2MIN SPEED (MPH):  9FASTEST 2MIN DIR (DEG):350 FASTEST 2MIN TIME (LST):     AVERAGE WIND SPEED (MPH): 3.4 24 HR AVG TEMP (F): 64DEPART FROM NORMAL:  7  HEATING DEGREE DAYS:  1 COOLING DEGREE DAYS:  0 LATEST DAY MAX TEMP (0700-1900 LST):78  LATEST NIGHT MIN TEMP(1900-0800 LST):49 HOURLY INCREMENTAL PRECIPITATION VALUES (IN):.00 0.00 0.00 0.00 0.00 0.00 0.00 0.00 0.00 0.00 0.00 0.00 0.00 0.00 0.00 0.00 0.00 0.00 0.00 0.00 0.00 0.00 0.00 0.00,SOD  ,6,,,,,,,,,,,,,,,,,,,,,,,,,626,1648,,
72222313899,2019-11-30T00:53:00,FM-15,7,,,,,,,,,,,,,,,,,,,,,,,,,,,,,,,,,,,,,,30.04,55,56,0,,,,97,30.05,CLR:00,29.91,10,55,0,,0,,,,,,,,,,,,,,,,,,,,,,,,,,,,,,,,,,,,,MET09011/30/19 00:53:02 METAR KPNS 300653Z 00000KT 10SM CLR 13/13 A3004 RMK AO2 SLP176 T01330128,FM-15,7,,,,,,,,,,,,,,,,,,,,,,,,,,,,
72222313899,2019-11-30T01:53:00,FM-15,7,,,,,,,,,,,,,,,,,,,,,,,,,,,,,,,,,,,,,,30.02,55,55,0,,,,100,30.03,CLR:00,29.89,10,55,0,,0,,,,,,,,,,,,,,,,,,,,,,,,,,,,,,,,,,,,,MET09011/30/19 01:53:02 METAR KPNS 300753Z 00000KT 10SM CLR 13/13 A3002 RMK AO2 SLP168 T01280128,FM-15,7,,,,,,,,,,,,,,,,,,,,,,,,,,,,
72222313899,2019-11-30T02:53:00,FM-15,7,,,,,,,,,,,,,,,,,,,,,,,,,,,,,,,,,,,,,,30.01,54,54,0,,0.05,6,100,30.02,CLR:00,29.88,10,54,0,,0,,,,,,,,,,,,,,,,,,,,,,,,,,,,,,,,,,,,,MET09611/30/19 02:53:02 METAR KPNS 300853Z 00000KT 10SM CLR 12/12 A3001 RMK AO2 SLP165 T01220122 56017,FM-15,7,,,,,,,,,,,,,,,,,,,,,,,,,,,,
72222313899,2019-11-30T03:53:00,FM-15,7,,,,,,,,,,,,,,,,,,,,,,,,,,,,,,,,,,,,,,29.99,56,56,0,,,,100,29.99,CLR:00,29.86,10,56,140,,3,,,,,,,,,,,,,,,,,,,,,,,,,,,,,,,,,,,,,MET09011/30/19 03:53:02 METAR KPNS 300953Z 14003KT 10SM CLR 13/13 A2999 RMK AO2 SLP157 T01330133,FM-15,7,,,,,,,,,,,,,,,,,,,,,,,,,,,,
72222313899,2019-11-30T04:53:00,FM-15,7,,,,,,,,,,,,,,,,,,,,,,,,,,,,,,,,,,,,,,29.99,57,57,0,,,,100,30,CLR:00,29.86,10,57,0,,0,,,,,,,,,,,,,,,,,,,,,,,,,,,,,,,,,,,,,MET09011/30/19 04:53:02 METAR KPNS 301053Z 00000KT 10SM CLR 14/14 A2999 RMK AO2 SLP158 T01390139,FM-15,7,,,,,,,,,,,,,,,,,,,,,,,,,,,,
72222313899,2019-11-30T05:53:00,FM-15,7,,,,,,,,,,,,,,,,,,,,,,,,,,,,,,,,,,,,,,29.98,56,56,0,,0.03,6,100,29.99,CLR:00,29.85,10,56,0,,0,,,,,,,,,,,,,,,,,,,,,,,,,,,,,,,,,,,,,MET11311/30/19 05:53:02 METAR KPNS 301153Z 00000KT 10SM CLR 13/13 A2998 RMK AO2 SLP155 T01330133 10144 20117 56010 (AB),FM-15,7,,,,,,,,,,,,,,,,,,,,,,,,,,,,
72222313899,2019-11-30T06:53:00,FM-15,7,,,,,,,,,,,,,,,,,,,,,,,,,,,,,,,,,,,,,,30,56,56,0,,,,100,30.01,CLR:00,29.87,10,56,20,,3,,,,,,,,,,,,,,,,,,,,,,,,,,,,,,,,,,,,,MET09511/30/19 06:53:02 METAR KPNS 301253Z 02003KT 10SM CLR 13/13 A3000 RMK AO2 SLP162 T01330133 (AB),FM-15,7,,,,,,,,,,,,,,,,,,,,,,,,,,,,
72222313899,2019-11-30T07:53:00,FM-15,7,,,,,,,,,,,,,,,,,,,,,,,,,,,,,,,,,,,,,,30.01,62,64,0,,,,93,30.01,CLR:00,29.88,10,63,0,,0,,,,,,,,,,,,,,,,,,,,,,,,,,,,,,,,,,,,,MET09511/30/19 07:53:02 METAR KPNS 301353Z 00000KT 10SM CLR 18/17 A3001 RMK AO2 SLP163 T01780167 (AB),FM-15,7,,,,,,,,,,,,,,,,,,,,,,,,,,,,
72222313899,2019-11-30T08:53:00,FM-15,7,,,,,,,,,,,,,,,,,,,,,,,,,,,,,,,,,,,,,,30.01,67,72,0,,-0.02,0,84,30.01,CLR:00,29.88,10,69,200,,6,,,,,,,,,,,,,,,,,,,,,,,,,,,,,,,,,,,,,MET10111/30/19 08:53:02 METAR KPNS 301453Z 20005KT 10SM CLR 22/19 A3001 RMK AO2 SLP163 T02220194 50008 (AB),FM-15,7,,,,,,,,,,,,,,,,,,,,,,,,,,,,
72222313899,2019-11-30T09:54:00,FM-15,7,,,,,,,,,,,,,,,,,,,,,,,,,,,,,,,,,,,,,,30,67,77,0,,,,71,30.01,CLR:00,29.87,10,70,220,,14,,,,,,,,,,,,,,,,,,,,,,,,,,,,,,,,,,,,,MET09711/30/19 09:54:02 METAR KPNS 301554Z 22012KT 10SM CLR 25/19 A3000 RMK AO2 SLP162 T02500194 $ (BB),FM-15,7,,,,,,,,,,,,,,,,,,,,,,,,,,,,
72222313899,2019-11-30T10:53:00,FM-15,7,,,,,,,,,,,,,,,,,,,,,,,,,,,,,,,,,,,,,,29.98,65,80,0,,,,60,29.98,CLR:00,29.85,10,70,220,,11,,,,,,,,,,,,,,,,,,,,,,,,,,,,,,,,,,,,,MET09711/30/19 10:53:02 METAR KPNS 301653Z 22010KT 10SM CLR 27/18 A2998 RMK AO2 SLP154 T02670183 $ (BB),FM-15,7,,,,,,,,,,,,,,,,,,,,,,,,,,,,
72222313899,2019-11-30T11:53:00,FM-15,7,,,,,,,,,,,,,,,,,,,,,,,,,,,,,,,,,,,,,,29.94,66,80,0,,,,62,29.95,FEW:02 27,29.81,10,71,210,,15,,,,,,,,,,,,,,,,,,,,,,,,,,,,,,,,,,,,,MET11211/30/19 11:53:02 METAR KPNS 301753Z 21013KT 10SM FEW027 27/19 A2994 RMK AO2 SLP142 T02670189 10272 20122 $ (BB),FM-15,7,,,,,,,,,,,,,,,,,,,,,,,,,,,,
72222313899,2019-11-30T12:53:00,FM-15,7,,,,,,,,,,,,,,,,,,,,,,,,,,,,,,,,,,,,,,29.92,66,79,0,,,,65,29.92,FEW:02 31,29.79,10,71,200,,14,,,,,,,,,,,,,,,,,,,,,,,,,,,,,,,,,,,,,MET10011/30/19 12:53:02 METAR KPNS 301853Z 20012KT 10SM FEW031 26/19 A2992 RMK AO2 SLP133 T02610189 $ (BB),FM-15,7,,,,,,,,,,,,,,,,,,,,,,,,,,,,
72222313899,2019-11-30T13:53:00,FM-15,7,,,,,,,,,,,,,,,,,,,,,,,,,,,,,,,,,,,,,,29.9,68,79,0,,,,69,29.91,CLR:00,29.77,10,72,200,,15,,,,,,,,,,,,,,,,,,,,,,,,,,,,,,,,,,,,,MET09511/30/19 13:53:02 METAR KPNS 301953Z 20013KT 10SM CLR 26/20 A2990 RMK AO2 SLP127 T02610200 (BB),FM-15,7,,,,,,,,,,,,,,,,,,,,,,,,,,,,
72222313899,2019-11-30T14:53:00,FM-15,7,,,,,,,,,,,,,,,,,,,,,,,,,,,,,,,,,,,,,,29.89,69,77,0,,0.05,6,77,29.89,CLR:00,29.76,10,72,190,,14,,,,,,,,,,,,,,,,,,,,,,,,,,,,,,,,,,,,,MET10111/30/19 14:53:02 METAR KPNS 302053Z 19012KT 10SM CLR 25/21 A2989 RMK AO2 SLP123 T02500206 56018 (BB),FM-15,7,,,,,,,,,,,,,,,,,,,,,,,,,,,,
72222313899,2019-11-30T15:53:00,FM-15,7,,,,,,,,,,,,,,,,,,,,,,,,,,,,,,,,,,,,,,29.88,70,75,0,,,,84,29.89,SCT:04 18,29.75,10,72,200,,11,,,,,,,,,,,,,,,,,,,,,,,,,,,,,,,,,,,,,MET09811/30/19 15:53:02 METAR KPNS 302153Z 20010KT 10SM SCT018 24/21 A2988 RMK AO2 SLP121 T02390211 (BB),FM-15,7,,,,,,,,,,,,,,,,,,,,,,,,,,,,
72222313899,2019-11-30T15:59:00,FM-16,7,,,,,,,,,,,,,,,,,,,,,,,,,,,,,,,,,,,,,,29.88,70,75,,,,,84,,BKN:07 18,29.75,10,72,200,,11,,,,,,,,,,,,,,,,,,,,,,,,,,,,,,,,,,,,,MET09111/30/19 15:59:02 SPECI KPNS 302159Z 20010KT 10SM BKN018 24/21 A2988 RMK AO2 T02390211 (BB),FM-16,7,,,,,,,,,,,,,,,,,,,,,,,,,,,,
72222313899,2019-11-30T16:51:00,FM-16,6,,,,,,,,,,,,,,,,,,,,,,,,,,,,,,,,,,,,,,29.88,72,73,,,,,94,,SCT:04 18,29.75,10,72,200,,10,,,,,,,,,,,,,,,,,,,,,,,,,,,,,,,,,,,,,MET08611/30/19 16:51:02 SPECI KPNS 302251Z 20009KT 10SM SCT018 23/22 A2988 RMK AO2 FIBI (BB),FM-16,6,,,,,,,,,,,,,,,,,,,,,,,,,,,,
72222313899,2019-11-30T16:53:00,FM-15,7,,,,,,,,,,,,,,,,,,,,,,,,,,,,,,,,,,,,,,29.88,71,73,0,,,,94,29.88,SCT:04 18,29.75,10,72,200,,10,,,,,,,,,,,,,,,,,,,,,,,,,,,,,,,,,,,,,MET09811/30/19 16:53:02 METAR KPNS 302253Z 20009KT 10SM SCT018 23/22 A2988 RMK AO2 SLP118 T02280217 (BB),FM-15,7,,,,,,,,,,,,,,,,,,,,,,,,,,,,
72222313899,2019-11-30T17:53:00,FM-15,7,,,,,,,,,,,,,,,,,,,,,,,,,,,,,,,,,,,,,,29.87,70,70,0,,0.02,8,100,29.87,FEW:02 23,29.74,10,70,200,,9,,,,,,,,,,,,,,,,,,,,,,,,,,,,,,,,,,,,,MET11611/30/19 17:53:02 METAR KPNS 302353Z 20008KT 10SM FEW023 21/21 A2987 RMK AO2 SLP115 T02110211 10272 20211 58008 (BB),FM-15,7,,,,,,,,,,,,,,,,,,,,,,,,,,,,
72222313899,2019-11-30T18:00:00,SHEF ,4,,,,,,,,,,,,,,,,,,,,,,,,,,,,,,,,,,,,,,,,,,,,,,,,,,,,,,,,,,,,,,,,,,,,,,,,,,,,,,,,,,,,,,,,,,,SHEF ,4,,,,,,,,,,,,,,,,,,,,,,,,,,,,
72222313899,2019-11-30T18:18:00,FM-16,7,,,,,,,,,,,,,,,,,,,,,,,,,,,,,,,,,,,,,,29.86,71,71,,,,,100,,SCT:04 18 BKN:07 23,29.73,10,71,200,,9,,,,,,,,,,,,,,,,,,,,,,,,,,,,,,,,,,,,,MET09811/30/19 18:18:03 SPECI KPNS 010018Z 20008KT 10SM SCT018 BKN023 22/22 A2986 RMK AO2 T02170217 (BB),FM-16,7,,,,,,,,,,,,,,,,,,,,,,,,,,,,
72222313899,2019-11-30T18:53:00,FM-15,7,,,,,,,,,,,,,,,,,,,,,,,,,,,,,,,,,,,,,,29.86,71,71,0,,,,100,29.87,FEW:02 15 OVC:08 22,29.73,10,71,210,,11,,,,,,,,,,,,,,,,,,,,,,,,,,,,,,,,,,,,,MET10011/30/19 18:53:01 METAR KPNS 010053Z 21010KT 10SM FEW015 OVC022 22/22 A2986 RMK AO2 SLP114 T02170217,FM-15,7,,,,,,,,,,,,,,,,,,,,,,,,,,,,
72222313899,2019-11-30T19:51:00,FM-16,6,,,,,,,,,,,,,,,,,,,,,,,,,,,,,,,,,,,,,,29.86,72,72,,,,,100,,BKN:07 13 OVC:08 24,29.73,10,72,,,,,,,,,,,,,,,,,,,,,,,,,,,,,,,,,,,,,,,,MET11111/30/19 19:51:03 SPECI KPNS 010151Z      KT 10SM BKN013 OVC024 22/22 A2986 RMK AO2 PK WND 20026/0146 FIBI (LA),FM-16,6,,,,,,,,,,,,,,,,,,,,,,,,,,,,
72222313899,2019-11-30T19:53:00,FM-15,7,,,,,,,,,,,,,,,,,,,,,,,,,,,,,,,,,,,,,,29.86,71,71,0,,,,100,29.87,BKN:07 13 OVC:08 24,29.73,10,71,,,,,,,,,,,,,,,,,,,,,,,,,,,,,,,,,,,,,,,,MET11811/30/19 19:53:01 METAR KPNS 010153Z      KT 10SM BKN013 OVC024 22/22 A2986 RMK AO2 PK WND 20026/0146 SLP114 T02170217,FM-15,7,,,,,,,,,,,,,,,,,,,,,,,,,,,,
72222313899,2019-11-30T20:27:00,FM-16,7,,,,,,,,,,,,,,,,,,,,,,,,,,,,,,,,,,,,,,29.86,71,71,,,,,100,,BKN:07 9 BKN:07 20,29.73,10,71,,,,,,,,,,,,,,,,,,,,,,,,,,,,,,,,,,,,,,,,MET09311/30/19 20:27:01 SPECI KPNS 010227Z      KT 10SM BKN009 BKN020 22/22 A2986 RMK AO2 T02170217,FM-16,7,,,,,,,,,,,,,,,,,,,,,,,,,,,,
72222313899,2019-11-30T20:53:00,FM-15,7,,,,,,,,,,,,,,,,,,,,,,,,,,,,,,,,,,,,,,29.86,72,72,0,,0,5,100,29.87,OVC:08 9,29.73,10,72,220,,16,,,,,,,,,,,,,,,,,,,,,,,,,,,,,,,,,,,,,MET11111/30/19 20:53:01 METAR KPNS 010253Z 22014KT 10SM OVC009 22/22 A2986 RMK AO2 CIG 007V013 SLP115 T02220222 55000,FM-15,7,,,,,,,,,,,,,,,,,,,,,,,,,,,,
72222313899,2019-11-30T21:53:00,FM-15,7,,,,,,,,,,,,,,,,,,,,,,,,,,,,,,,,,,,,,,29.87,72,72,0,,,,100,29.88,BKN:07 10 OVC:08 15,29.74,10,72,210,,16,,,,,,,,,,,,,,,,,,,,,,,,,,,,,,,,,,,,,MET11211/30/19 21:53:01 METAR KPNS 010353Z 21014KT 10SM BKN010 OVC015 22/22 A2987 RMK AO2 CIG 007V012 SLP117 T02220222,FM-15,7,,,,,,,,,,,,,,,,,,,,,,,,,,,,
72222313899,2019-11-30T22:08:00,FM-16,7,,,,,,,,,,,,,,,,,,,,,,,,,,,,,,,,,,,,,,29.88,72,72,,,,,100,,BKN:07 8 OVC:08 13,29.75,10,72,220,,14,,,,,,,,,,,,,,,,,,,,,,,,,,,,,,,,,,,,,MET10511/30/19 22:08:01 SPECI KPNS 010408Z 22012KT 10SM BKN008 OVC013 22/22 A2988 RMK AO2 CIG 007V010 T02220222,FM-16,7,,,,,,,,,,,,,,,,,,,,,,,,,,,,
72222313899,2019-11-30T22:20:00,FM-16,7,,,,,,,,,,,,,,,,,,,,,,,,,,,,,,,,,,,,,,29.87,72,72,,,,,100,,OVC:08 10,29.74,10,72,210,24,18,,,,,,,,,,,,,,,,,,,,,,,,,,,,,,,,,,,,,MET10111/30/19 22:20:02 SPECI KPNS 010420Z 21016G21KT 10SM OVC010 22/22 A2987 RMK AO2 CIG 007V015 T02220222,FM-16,7,,,,,,,,,,,,,,,,,,,,,,,,,,,,
72222313899,2019-11-30T22:29:00,FM-16,7,,,,,,,,,,,,,,,,,,,,,,,,,,,,,,,,,,,,,,29.87,72,72,,,,,100,,BKN:07 8 OVC:08 12,29.74,10,72,210,24,14,,,,,,,,,,,,,,,,,,,,,,,,,,,,,,,,,,,,,MET10811/30/19 22:29:02 SPECI KPNS 010429Z 21012G21KT 10SM BKN008 OVC012 22/22 A2987 RMK AO2 CIG 007V010 T02220222,FM-16,7,,,,,,,,,,,,,,,,,,,,,,,,,,,,
72222313899,2019-11-30T22:53:00,FM-15,7,,,,,,,,,,,,,,,,,,,,,,,,,,,,,,,,,,,,,,29.86,72,72,0,,,,100,29.86,OVC:08 7,29.73,10,72,210,23,15,,,,,,,,,,,,,,,,,,,,,,,,,,,,,,,,,,,,,MET09611/30/19 22:53:02 METAR KPNS 010453Z 21013G20KT 10SM OVC007 22/22 A2986 RMK AO2 SLP111 T02220222,FM-15,7,,,,,,,,,,,,,,,,,,,,,,,,,,,,
72222313899,2019-11-30T23:53:00,FM-15,7,,,,,,,,,,,,,,,,,,,,,,,,,,,,,,,,,,,,,,29.86,72,72,0,,0,8,100,29.86,OVC:08 7,29.73,10,72,220,22,13,,,,,,,,,,,,,,,,,,,,,,,,,,,,,,,,,,,,,MET13611/30/19 23:53:02 METAR KPNS 010553Z 22011G19KT 10SM OVC007 22/22 A2986 RMK AO2 CIG 006V013 SLP113 T02220222 10222 20211 402720117 58001,FM-15,7,,,,,,,,,,,,,,,,,,,,,,,,,,,,
72222313899,2019-11-30T23:59:00,SOD  ,6,,,,,,,,,,,,,,,65,67,89,29.95,29.79,66,8.6,2,10,0,81,53,200,30,0,,,210,20,,,,,,,,,,,,,,,,,,,,,,,,,,,,,,,,,,,,,,,,,,,,,,,,,,,,,,,,,SOD74324 HR PRECIPITATION (IN): 0.00 SNOW DEPTH (IN):0     24 HR SNOWFALL (IN):0.0  24 HR MAX TEMP (F): 8124 HR MIN TEMP (F): 53AVERAGE STATION PRESSURE(D):29.793 MINIMUM SEA LEVEL PRESSURE:29.85 TIME OF OCCURRENCE:2326 PEAK WIND SPEED (MPH): 30 PEAK WIND DIR (DEG):200 PEAK WIND TIME (LST):      FASTEST 2MIN SPEED (MPH): 20FASTEST 2MIN DIR (DEG):210 FASTEST 2MIN TIME (LST):     AVERAGE WIND SPEED (MPH): 8.6 24 HR AVG TEMP (F): 67DEPART FROM NORMAL: 10  HEATING DEGREE DAYS:  0 COOLING DEGREE DAYS:  2 LATEST DAY MAX TEMP (0700-1900 LST): 81 LATEST NIGHT MIN TEMP(1900-0800 LST):53 HOURLY INCREMENTAL PRECIPITATION VALUES (IN):0.00 0.00 0.00 0.00 0.00 0.00 0.00 0.00 0.00 0.00 0.00 0.00 0.00 0.00 0.00 0.00 0.00 0.00 0.00 0.00 0.00 0.00 0.00 0.00,SOD  ,6,,,,,,,,,,,,,,,,,,,,,,,,,627,1648,,
72222313899,2019-11-30T23:59:00,SOM  ,6,7.6,,,,,,,,,,,3260,31,0,,,,,,,,,,,,,,,,,,,,,203,193,,,,,,,,,,,,,,,,,,,4,3,1,0,0,0,-1.1,-15,19,1.2,-3.5,-3.64,,0.61,7-Jul,,,,,30.32,28,1013,71.5,59.6,29.83,18,1453,47.7,30.06,29.92,1.09,,,46,174,SOM789PCP MTOT:0.12 PCP GT 24HRS:0.12 DATE(S):23 DAYS W/PCP >=.01:1  DAYS W/PCP >=.10:1  DAYS W/ PCP >=.50:0 DAYS W/PCP >=1.00:0 MSDP AMTS W/DATE-TIME TAGS:MIN:5 0.03  23/1142 MIN:10 0.05  23/1142 MIN:15 0.05  23/1142 MIN:20 0.06  23/1151 MIN:30 0.07  23/1151 MIN:45 0.08  23/1151 MIN:60 0.09  23/1151 MIN:80 0.10  23/1151 MIN:100 0.10  23/1151 MIN:120 0.10  23/1151 MIN:150 0.10  23/1151 MIN:180 0.10  23/1355 AVG DLY MIN:50.3  AVG DLY MAX:74.8  AVG MLY TMP:62.6  MIN TMP:40 DATE(S):25 MAX TMP:84  DATE(S):27 DAYS MAX <=32:0 DAYS MAX >=90:0  DAYS MIN <=32:0  DAYS MIN  <=0:0  AVG STP:29.920 LWST SLP:29.85 DATE/TIME:302326 HGST SLP:30.32 DATE/TIME:281013 HDD MTH TOT:40 DEP NORM:-2553 SEASON(JUL 1-JUN 30):40 DEP NORM:-25536 CDD MTH TOT:19 DEP NORM:-2553 SEASON(JAN 1-DEC 31):19 DEP NORM:-25536,SOM  ,6,,,,,,,,,,,,,,,,,,,,,,,,,,,,